{"version": 0.6, "generator": "Overpass API 0.7.58.5 b0c4acbb", "osm3s": {"timestamp_osm_base": "2022-09-06T11:20:37Z", "copyright": "The data included in this document is from www.openstreetmap.org. The data is made available under ODbL."}, "elements": [{"type": "node", "id": 3577880567, "lat": 40.7320972, "lon": -74.0669572, "tags": {"addr:housenumber": "2815", "addr:street": "John F. Kennedy Boulevard", "brand": "Goodwill", "brand:wikidata": "Q5583655", "brand:wikipedia": "en:Goodwill Industries", "name": "Goodwill", "shop": "charity"}}, {"type": "node", "id": 3705231492, "lat": 40.7315344, "lon": -74.0600665, "tags": {"name": "Nail Spa", "shop": "beauty"}}, {"type": "node", "id": 3705231494, "lat": 40.731416, "lon": -74.0601311, "tags": {"name": "Casa Blanca", "shop": "hairdresser"}}, {"type": "node", "id": 4552269187, "lat": 40.7199498, "lon": -74.0818493, "tags": {"addr:city": "Jersey City", "addr:housenumber": "560", "addr:postcode": "07304", "addr:state": "NJ", "addr:street": "West Side Avenue", "beauty": "nails", "name": "Graceful Nail Spa 2", "phone": "+1-201-333-6688", "shop": "beauty", "website": "http://gracefulnailspa2.com"}}, {"type": "node", "id": 4848022654, "lat": 40.7349219, "lon": -74.0628844, "tags": {"addr:city": "Jersey City", "addr:postcode": "07306", "addr:state": "NJ", "addr:street": "John F. Kennedy Boulevard", "name": "M Color Unisex Beauty Salon", "shop": "hairdresser"}}, {"type": "node", "id": 5773201855, "lat": 40.7171314, "lon": -74.0773346, "tags": {"name": "Expedy Barbershop", "shop": "beauty"}}, {"type": "node", "id": 6479739514, "lat": 40.732143, "lon": -74.0725986, "tags": {"name": "Shoe Repair", "shop": "shoes"}}, {"type": "node", "id": 6479739516, "lat": 40.7322812, "lon": -74.0725208, "tags": {"addr:street": "Sip Avenue", "shop": "clothes"}}, {"type": "node", "id": 6762357405, "lat": 40.6937078, "lon": -74.1034252, "tags": {"brand": "Family Dollar", "brand:wikidata": "Q5433101", "brand:wikipedia": "en:Family Dollar", "name": "Family Dollar", "shop": "variety_store"}}, {"type": "node", "id": 6762357408, "lat": 40.6935399, "lon": -74.1033294, "tags": {"name": "Sunflower Nail & Hair", "shop": "hairdresser"}}, {"type": "node", "id": 6762357413, "lat": 40.6933314, "lon": -74.1028514, "tags": {"name": "Beauty Supplies", "shop": "beauty"}}, {"type": "node", "id": 7327149416, "lat": 40.7359194, "lon": -74.0628182, "tags": {"addr:city": "Jersey City", "addr:housenumber": "3000", "addr:postcode": "07306", "addr:state": "NJ", "addr:street": "John F. Kennedy Boulevard", "addr:unit": "101", "brand": "Dollar Tree", "brand:wikidata": "Q5289230", "brand:wikipedia": "en:Dollar Tree", "name": "Dollar Tree", "payment:ebt": "yes", "phone": "+1-201-356-2200", "shop": "variety_store"}}, {"type": "node", "id": 7327172294, "lat": 40.7357763, "lon": -74.0655509, "tags": {"addr:city": "Jersey City", "addr:housenumber": "814", "addr:postcode": "07306", "addr:state": "NJ", "addr:street": "Newark Avenue", "name": "Vanita Jewelers", "opening_hours": "Tu-Sa 11:30-19:30; Su 12:00-19:30", "phone": "+1-201-918-5151", "shop": "jewelry", "website": "https://vanita-jewelers.business.site/"}}, {"type": "node", "id": 7965131585, "lat": 40.7316457, "lon": -74.0679044, "tags": {"shop": "hairdresser"}}, {"type": "node", "id": 8662492217, "lat": 40.7287334, "lon": -74.0664869, "tags": {"name": "Mario\u2019s Shoes", "shop": "shoes"}}, {"type": "node", "id": 8664853017, "lat": 40.7356446, "lon": -74.0637513, "tags": {"shop": "hairdresser"}}, {"type": "node", "id": 8694910645, "lat": 40.7320289, "lon": -74.0660062, "tags": {"addr:city": "Jersey City", "addr:housenumber": "2839", "addr:postcode": "07306", "addr:state": "NJ", "addr:street": "John F. Kennedy Boulevard", "name": "Lot-Less Closeouts", "shop": "variety_store"}}, {"type": "node", "id": 9538728534, "lat": 40.7311188, "lon": -74.0555476, "tags": {"addr:city": "Jersey City", "addr:housenumber": "530D", "addr:postcode": "07306", "addr:state": "NJ", "addr:street": "Newark Avenue", "name": "New Aurora's Salon", "opening_hours": "We-Mo 10:00-18:00", "phone": "+1-201-792-9719", "shop": "hairdresser", "unisex": "yes"}}, {"type": "node", "id": 9538728542, "lat": 40.7312979, "lon": -74.0564923, "tags": {"addr:city": "Jersey City", "addr:housenumber": "555", "addr:postcode": "07306", "addr:state": "NJ", "addr:street": "Newark Avenue", "name": "Danica & Irene", "shop": "hairdresser"}}]}