{"version": 0.6, "generator": "Overpass API 0.7.58.5 b0c4acbb", "osm3s": {"timestamp_osm_base": "2022-09-05T11:54:51Z", "copyright": "The data included in this document is from www.openstreetmap.org. The data is made available under ODbL."}, "elements": [{"type": "node", "id": 506202705, "lat": 41.3949813, "lon": 2.1916505, "tags": {"addr:housenumber": "36", "addr:street": "Pere IV", "amenity": "restaurant", "description": "Wifi", "name": "La Braser\u00eda", "phone": "+34 931876537", "website": "www.lawebdelabraseria.com"}}, {"type": "node", "id": 1312224402, "lat": 41.3948006, "lon": 2.1940578, "tags": {"amenity": "restaurant", "name": "Mann\u00e0"}}, {"type": "node", "id": 2491595166, "lat": 41.3932368, "lon": 2.1936985, "tags": {"addr:country": "ES", "name": "La Torrada", "shop": "bakery"}}, {"type": "node", "id": 5676005621, "lat": 41.3931048, "lon": 2.1910878, "tags": {"amenity": "bar", "name": "CA L'ERIC"}}, {"type": "node", "id": 6533543186, "lat": 41.3954241, "lon": 2.1927662, "tags": {"amenity": "restaurant", "name": "La Terrassa"}}, {"type": "node", "id": 7040898589, "lat": 41.3936528, "lon": 2.1925191, "tags": {"amenity": "cafe", "name": "almogavares 2"}}, {"type": "node", "id": 7040899089, "lat": 41.3946338, "lon": 2.1938209, "tags": {"amenity": "cafe", "name": "carme"}}, {"type": "node", "id": 9023362418, "lat": 41.3955052, "lon": 2.1923565, "tags": {"amenity": "fast_food", "cuisine": "kebab", "name": "J\u00e9rusalem", "name:ca": "Jerusalem", "name:en": "Jerusalem"}}]}