{"version": 0.6, "generator": "Overpass API 0.7.58.5 b0c4acbb", "osm3s": {"timestamp_osm_base": "2022-09-05T12:18:09Z", "copyright": "The data included in this document is from www.openstreetmap.org. The data is made available under ODbL."}, "elements": [{"type": "node", "id": 839472023, "lat": 41.3994281, "lon": 2.1927937}, {"type": "node", "id": 4280661017, "lat": 41.4001439, "lon": 2.1939931}, {"type": "node", "id": 4280661020, "lat": 41.400296, "lon": 2.1937936}, {"type": "node", "id": 4340445379, "lat": 41.4001482, "lon": 2.1935914}, {"type": "node", "id": 4340445383, "lat": 41.4000798, "lon": 2.193678}, {"type": "node", "id": 4340451032, "lat": 41.3994674, "lon": 2.1926912}, {"type": "node", "id": 5772791454, "lat": 41.4000794, "lon": 2.1939126}, {"type": "node", "id": 6416001331, "lat": 41.3995778, "lon": 2.1913254, "tags": {"access": "private", "amenity": "parking_entrance"}}, {"type": "node", "id": 6416001332, "lat": 41.3996325, "lon": 2.1916996, "tags": {"access": "private", "amenity": "parking_entrance"}}, {"type": "node", "id": 6416001333, "lat": 41.3994221, "lon": 2.1919743, "tags": {"access": "private", "amenity": "parking_entrance"}}, {"type": "node", "id": 6416001334, "lat": 41.3995003, "lon": 2.1918721, "tags": {"access": "private", "amenity": "parking_entrance"}}, {"type": "node", "id": 6416164463, "lat": 41.4001979, "lon": 2.193197, "tags": {"access": "private", "amenity": "parking_entrance"}}, {"type": "node", "id": 6416164483, "lat": 41.399272, "lon": 2.1928353}, {"type": "node", "id": 6416165585, "lat": 41.3993824, "lon": 2.1928403}, {"type": "node", "id": 6416165590, "lat": 41.3994217, "lon": 2.1926279}, {"type": "node", "id": 6416165593, "lat": 41.3994328, "lon": 2.1928351}, {"type": "node", "id": 6416165596, "lat": 41.3994599, "lon": 2.1926807}, {"type": "node", "id": 6416165604, "lat": 41.3993959, "lon": 2.1929255}, {"type": "node", "id": 6416165605, "lat": 41.3994221, "lon": 2.1927855}, {"type": "node", "id": 6416165609, "lat": 41.3993597, "lon": 2.1928927}, {"type": "node", "id": 6416165624, "lat": 41.3994213, "lon": 2.1928351}, {"type": "node", "id": 6416165639, "lat": 41.3993909, "lon": 2.1925856}, {"type": "node", "id": 6416165644, "lat": 41.3992347, "lon": 2.1927852}, {"type": "node", "id": 6416165648, "lat": 41.3992397, "lon": 2.1925821}, {"type": "node", "id": 6933490619, "lat": 41.40117, "lon": 2.19113, "tags": {"address": "C T\u00e0nger 62", "amenity": "bicycle_parking", "operator": "http://ajuntament.barcelona.cat/bicicleta/ca", "website": "http://ajuntament.barcelona.cat/bicicleta/ca"}}, {"type": "node", "id": 6933494086, "lat": 41.40038, "lon": 2.19009, "tags": {"address": "C T\u00e0nger 50", "amenity": "bicycle_parking", "operator": "http://ajuntament.barcelona.cat/bicicleta/ca", "website": "http://ajuntament.barcelona.cat/bicicleta/ca"}}, {"type": "node", "id": 6933504706, "lat": 41.39868, "lon": 2.19101, "tags": {"address": "C \u00c0laba 108", "amenity": "bicycle_parking", "operator": "http://ajuntament.barcelona.cat/bicicleta/ca", "website": "http://ajuntament.barcelona.cat/bicicleta/ca"}}, {"type": "node", "id": 6933504756, "lat": 41.40038, "lon": 2.19072, "tags": {"address": "C \u00c0vila 141", "amenity": "bicycle_parking", "operator": "http://ajuntament.barcelona.cat/bicicleta/ca", "website": "http://ajuntament.barcelona.cat/bicicleta/ca"}}, {"type": "node", "id": 6933505048, "lat": 41.39933, "lon": 2.19232, "tags": {"address": "C \u00c0vila 110", "amenity": "bicycle_parking", "bicycle_parking": "stands", "mapillary": "tLrmSDc_vY_wZIPa-4VfAw", "operator": "http://ajuntament.barcelona.cat/bicicleta/ca", "survey:date": "2019-04-26", "website": "http://ajuntament.barcelona.cat/bicicleta/ca"}}, {"type": "node", "id": 6933505424, "lat": 41.39946, "lon": 2.18975, "tags": {"address": "C \u00c0laba 123", "amenity": "bicycle_parking", "capacity": "6", "operator": "http://ajuntament.barcelona.cat/bicicleta/ca", "website": "http://ajuntament.barcelona.cat/bicicleta/ca"}}, {"type": "node", "id": 6933509872, "lat": 41.39918, "lon": 2.19051, "tags": {"address": "C \u00c0laba 122", "amenity": "bicycle_parking", "operator": "http://ajuntament.barcelona.cat/bicicleta/ca", "website": "http://ajuntament.barcelona.cat/bicicleta/ca"}}, {"type": "node", "id": 6933511617, "lat": 41.39918, "lon": 2.19052, "tags": {"address": "C \u00c0laba 122", "amenity": "bicycle_parking", "capacity": "6", "operator": "http://ajuntament.barcelona.cat/bicicleta/ca", "website": "http://ajuntament.barcelona.cat/bicicleta/ca"}}, {"type": "node", "id": 6933521893, "lat": 41.40085, "lon": 2.19276, "tags": {"address": "C Badajoz 126", "amenity": "bicycle_parking", "operator": "http://ajuntament.barcelona.cat/bicicleta/ca", "website": "http://ajuntament.barcelona.cat/bicicleta/ca"}}, {"type": "node", "id": 6974014301, "lat": 41.40072, "lon": 2.19286, "tags": {"address": "C Badajoz 126", "amenity": "taxi", "website": "www.taxibarcelona.cat"}}, {"type": "way", "id": 436166611, "nodes": [4340445379, 4280661020, 4280661017, 5772791454, 4340445383, 4340445379], "tags": {"amenity": "fuel", "brand": "Petroprix", "name": "Petroprix", "opening_hours": "Mo-Su,PH 12:00+", "operator": "Petroprix"}}, {"type": "way", "id": 436167068, "nodes": [6416165590, 6416165596, 4340451032, 839472023, 6416165605, 6416165624, 6416165593, 6416165604, 6416165609, 6416165585, 6416164483, 6416165644, 6416165648, 6416165639, 6416165590], "tags": {"amenity": "fuel", "brand": "BP", "brand:wikidata": "Q152057", "brand:wikipedia": "es:BP", "building": "industrial", "building:levels": "2", "fuel:GTL_diesel": "yes", "fuel:diesel": "yes", "fuel:octane_95": "yes", "fuel:octane_98": "yes", "name": "BP", "opening_hours": "Mo-Fr 06:00-23:00; Sa 06:00-00:00; Su 06:00-22:00", "source": "Ministerio de Industria, Turismo y Comercio", "source:date": "2010-08-06"}}]}