{"version": 0.6, "generator": "Overpass API 0.7.58.5 b0c4acbb", "osm3s": {"timestamp_osm_base": "2022-09-05T09:07:09Z", "copyright": "The data included in this document is from www.openstreetmap.org. The data is made available under ODbL."}, "elements": [{"type": "node", "id": 506202703, "lat": 41.3962323, "lon": 2.1890864, "tags": {"addr:street": "Carrer dels Almog\u00e0vers", "amenity": "cafe", "cuisine": "regional", "internet_access": "yes", "internet_access:fee": "no", "name": "Bar Almog\u00e1vares", "opening_hours": "Mo-Fr 07:00-17:00", "opening_hours:covid19": "open", "outdoor_seating": "yes"}}, {"type": "node", "id": 506202705, "lat": 41.3949813, "lon": 2.1916505, "tags": {"addr:housenumber": "36", "addr:street": "Pere IV", "amenity": "restaurant", "description": "Wifi", "name": "La Braser\u00eda", "phone": "+34 931876537", "website": "www.lawebdelabraseria.com"}}, {"type": "node", "id": 506236266, "lat": 41.3934539, "lon": 2.1881434, "tags": {"amenity": "restaurant", "cuisine": "chinese", "name": "Palacio de China"}}, {"type": "node", "id": 506236267, "lat": 41.3932336, "lon": 2.1884994, "tags": {"amenity": "pub", "name": "Bar Nuria"}}, {"type": "node", "id": 1658425572, "lat": 41.3967185, "lon": 2.1890325, "tags": {"addr:city": "Barcelona", "addr:postcode": "08018", "addr:street": "Carrer de Zamora", "amenity": "cafe", "cuisine": "regional", "internet_access": "yes", "internet_access:fee": "no", "name": "Rebeka", "opening_hours": "Mo-Fr 08:00-17:00", "opening_hours:covid19": "open", "outdoor_seating": "yes"}}, {"type": "node", "id": 2292687549, "lat": 41.395911, "lon": 2.190529}, {"type": "node", "id": 3361212874, "lat": 41.3965202, "lon": 2.1918882, "tags": {"addr:housenumber": "120", "addr:street": "Carrer de Pallars", "amenity": "fast_food", "cuisine": "american"}}, {"type": "node", "id": 4138769013, "lat": 41.3970017, "lon": 2.1913538, "tags": {"addr:housenumber": "88", "addr:street": "Carrer de Pamplona", "amenity": "cafe", "name": "SKYE Coffee", "opening_hours": "Mo-Tu 09:00-13:30; We-Fr 09:00-17:00"}}, {"type": "node", "id": 4289659124, "lat": 41.3947754, "lon": 2.1873544, "tags": {"addr:city": "Barcelona", "addr:housenumber": "114", "addr:postcode": "08018", "addr:street": "Carrer de la Marina", "amenity": "restaurant", "name": "MABEL the Granja", "opening_hours": "Mo-Fr 06:00-22:00; Sa 08:00-16:00", "phone": "+34 934 85 20 28", "smoking": "outside"}}, {"type": "node", "id": 4346562600, "lat": 41.3934288, "lon": 2.1882383, "tags": {"shop": "supermarket"}}, {"type": "node", "id": 6126749461, "lat": 41.3942111, "lon": 2.1902433, "tags": {"addr:housenumber": "27", "addr:postcode": "08018", "addr:street": "Carrer de Pujades", "amenity": "restaurant", "entrance": "yes", "name": "Cantero"}}, {"type": "node", "id": 6139197908, "lat": 41.3961614, "lon": 2.1897405, "tags": {"addr:city": "Barcelona", "addr:housenumber": "90", "addr:postcode": "08018", "addr:street": "Carrer de Zamora", "entrance": "yes"}}, {"type": "node", "id": 6139197909, "lat": 41.395822, "lon": 2.1903811, "tags": {"entrance": "yes"}}, {"type": "node", "id": 6139197910, "lat": 41.395822, "lon": 2.1902597, "tags": {"entrance": "yes"}}, {"type": "node", "id": 6139197911, "lat": 41.3958219, "lon": 2.1902074, "tags": {"addr:city": "Barcelona", "addr:housenumber": "78", "addr:postcode": "08018", "addr:street": "Carrer de Zamora", "entrance": "yes"}}, {"type": "node", "id": 6139197953, "lat": 41.395822, "lon": 2.1902347}, {"type": "node", "id": 6139197977, "lat": 41.3962114, "lon": 2.1898118}, {"type": "node", "id": 6139197978, "lat": 41.3959821, "lon": 2.190376}, {"type": "node", "id": 6139197981, "lat": 41.3961507, "lon": 2.1897282}, {"type": "node", "id": 6139198732, "lat": 41.3958217, "lon": 2.1901653}, {"type": "node", "id": 6139198736, "lat": 41.3961572, "lon": 2.1897354}, {"type": "node", "id": 6139198749, "lat": 41.395822, "lon": 2.1904069}, {"type": "node", "id": 6535101586, "lat": 41.3962666, "lon": 2.1921849, "tags": {"addr:housenumber": ",78", "addr:street": "Carrer de Pamplona", "amenity": "restaurant", "name": "Xiscarexantar"}}, {"type": "node", "id": 7234692489, "lat": 41.3942304, "lon": 2.1901096, "tags": {"amenity": "restaurant", "name": "Van van var"}}, {"type": "node", "id": 7995069726, "lat": 41.3965693, "lon": 2.1887208, "tags": {"addr:city": "Barcelona", "addr:street": "Carrer de Zamora", "amenity": "cafe", "cuisine": "regional", "internet_access": "yes", "internet_access:fee": "no", "name": "Eurest  Catalunya S.L.", "opening_hours": "Mo-Su 08:00-21:00", "opening_hours:covid19": "open", "outdoor_seating": "yes"}}, {"type": "node", "id": 9023362418, "lat": 41.3955052, "lon": 2.1923565, "tags": {"amenity": "fast_food", "cuisine": "kebab", "name": "J\u00e9rusalem", "name:ca": "Jerusalem", "name:en": "Jerusalem"}}, {"type": "node", "id": 9376343220, "lat": 41.3963512, "lon": 2.1922632, "tags": {"addr:housenumber": "61", "addr:postcode": "08018", "addr:street": "Carrer de Pere IV", "amenity": "bar", "contact:facebook": "airbarpoblenou", "email": "airbarpoblenou@hotmail.com", "name:en": "Airbar"}}, {"type": "way", "id": 655221168, "nodes": [6139197977, 6139197978, 2292687549, 6139198749, 6139197909, 6139197910, 6139197953, 6139197911, 6139198732, 6139197981, 6139198736, 6139197908, 6139197977], "tags": {"amenity": "bar", "building": "industrial", "building:levels": "2", "building:levels:underground": "1", "name": "L'ovella negra Marina"}}]}