{"version": 0.6, "generator": "Overpass API 0.7.58.5 b0c4acbb", "osm3s": {"timestamp_osm_base": "2022-09-01T10:18:37Z", "copyright": "The data included in this document is from www.openstreetmap.org. The data is made available under ODbL."}, "elements": [{"type": "node", "id": 660100525, "lat": 41.4046529, "lon": 2.1962971, "tags": {"addr:country": "ES", "name": "Marco Aldany", "shop": "hairdresser"}}, {"type": "node", "id": 660778772, "lat": 41.4028034, "lon": 2.1987788, "tags": {"name": "Temptation", "shop": "clothes"}}, {"type": "node", "id": 1844121284, "lat": 41.4053507, "lon": 2.1758416, "tags": {"addr:country": "ES", "shop": "hairdresser"}}, {"type": "node", "id": 1844121286, "lat": 41.4055852, "lon": 2.1761135, "tags": {"name": "Molin\u00e9", "shop": "clothes"}}, {"type": "node", "id": 2193095353, "lat": 41.4033023, "lon": 2.1979634, "tags": {"addr:country": "ES", "name": "Pel No", "shop": "hairdresser"}}, {"type": "node", "id": 2193095369, "lat": 41.4036886, "lon": 2.1982691, "tags": {"name": "NuAnJu", "shop": "shoes"}}, {"type": "node", "id": 2576974234, "lat": 41.399496, "lon": 2.183855, "tags": {"addr:country": "ES", "shop": "hairdresser"}}, {"type": "node", "id": 2576974263, "lat": 41.4003504, "lon": 2.1841547, "tags": {"addr:country": "ES", "shop": "hairdresser"}}, {"type": "node", "id": 3049368237, "lat": 41.4088068, "lon": 2.1895824, "tags": {"addr:city": "Barcelona", "addr:country": "ES", "addr:housenumber": "29", "addr:postcode": "08018", "addr:street": "Carrer de Rossend Nobas", "brand": "Clarel", "contact:website": "https://www.clarel.es/", "name": "Clarel", "opening_hours": "Mo-Fr 09:00-13:45; Sa 09:15-14:00; Tu-Fr 17:00-20:30; Mo,Sa 17:00-20:00; PH closed", "payment:mastercard": "yes", "payment:visa": "yes", "shop": "chemist"}}, {"type": "node", "id": 3493195135, "lat": 41.3974534, "lon": 2.1810165, "tags": {"shop": "herbalist"}}, {"type": "node", "id": 3682781412, "lat": 41.4053524, "lon": 2.1774632, "tags": {"name": "Confecciones Padilla", "shop": "clothes"}}, {"type": "node", "id": 4254662409, "lat": 41.3941611, "lon": 2.1872169, "tags": {"name": "Marco Aldany", "opening_hours": "Mo-Sa 08:00-22:00", "shop": "hairdresser"}}, {"type": "node", "id": 4254706605, "lat": 41.3935994, "lon": 2.1767832, "tags": {"name": "Pujola", "opening_hours": "Mo-Fr 09:00-19:00+; Sa 09:00-14:00+", "shop": "hairdresser"}}, {"type": "node", "id": 4361915993, "lat": 41.3993722, "lon": 2.1919911, "tags": {"addr:housenumber": "121", "addr:postcode": "08018", "addr:street": "Carrer de \u00c1vila", "email": "hola@perfumeriassanremo.es", "name": "Perfumerias San Remo", "name:es": "Perfumerias San Remo", "phone": "+34 902102305", "shop": "beauty", "website": "https://www.perfumeriassanremo.es/"}}, {"type": "node", "id": 4432139689, "lat": 41.4002021, "lon": 2.172826, "tags": {"name": "Rapid Napols", "repair": "yes", "shop": "shoes"}}, {"type": "node", "id": 4727974891, "lat": 41.4020303, "lon": 2.1844899, "tags": {"name": "cachito", "name:es": "cachito", "shop": "clothes"}}, {"type": "node", "id": 4762934627, "lat": 41.3957301, "lon": 2.1762418, "tags": {"addr:city": "Barcelona", "addr:country": "ES", "addr:housenumber": "35", "addr:postcode": "08010", "addr:street": "Pla\u00e7a de Tetuan", "entrance": "main", "name": "Garriga", "shop": "hairdresser", "wheelchair": "yes"}}, {"type": "node", "id": 4878112294, "lat": 41.4078713, "lon": 2.1890912, "tags": {"name": "Maria Casas", "shop": "herbalist"}}, {"type": "node", "id": 4942732022, "lat": 41.4098359, "lon": 2.1938779, "tags": {"name": "La poesie", "shop": "hairdresser"}}, {"type": "node", "id": 5279620846, "lat": 41.3981759, "lon": 2.1794555, "tags": {"addr:housenumber": "723", "addr:street": "Gran V\u00eda de les Corts Catalanes", "name": "Casanovas", "shop": "shoes"}}, {"type": "node", "id": 5279621143, "lat": 41.3980044, "lon": 2.1792385, "tags": {"addr:housenumber": "719", "addr:street": "Gran V\u00eda de les Corts Catalanes", "name": "TEDi", "shop": "variety_store"}}, {"type": "node", "id": 5279622091, "lat": 41.3988258, "lon": 2.1795973, "tags": {"addr:housenumber": "226", "addr:street": "Carrer de Sardenya", "name": "Blessed Art Tattoo", "shop": "tattoo"}}, {"type": "node", "id": 5279622621, "lat": 41.3990893, "lon": 2.179224, "tags": {"addr:housenumber": "232", "addr:street": "Carrer de Sardenya", "name": "Basar Prosper 2", "opening_hours": "Mo-Sa 09:15-21:15", "shop": "variety_store"}}, {"type": "node", "id": 5536040836, "lat": 41.3993496, "lon": 2.1836323, "tags": {"name": "Herbolari Trini", "shop": "herbalist"}}, {"type": "node", "id": 5546040721, "lat": 41.4044304, "lon": 2.1988126, "tags": {"name": "Poblet. La Africana", "opening_hours": "Mo-Fr 09:00-13:30,16:00-20:00", "shop": "clothes"}}, {"type": "node", "id": 6035750933, "lat": 41.4081797, "lon": 2.1891774, "tags": {"addr:city": "Barcelona", "addr:country": "ES", "addr:housenumber": "8", "addr:postcode": "08018", "addr:street": "Carrer de Rossend Nobas", "contact:email": "inksomniotattoo@gmail.com", "contact:phone": "+34 930233857;+34 625188024", "contact:website": "https://www.inksomniotattoo.com/", "name": "Inksomnio", "opening_hours": "Mo-Sa 11:00-20:00", "shop": "tattoo"}}, {"type": "node", "id": 6035758305, "lat": 41.4082761, "lon": 2.189036, "tags": {"addr:city": "Barcelona", "addr:country": "ES", "addr:street": "Carrer de Rossend Nobas", "name": "Olyan", "shop": "hairdresser"}}, {"type": "node", "id": 6035759033, "lat": 41.4080821, "lon": 2.1890617, "tags": {"addr:city": "Barcelona", "addr:country": "ES", "addr:street": "Carrer de Rossend Nobas", "name": "Alhambra", "opening_hours": "Mo-Sa 10:00-14:00, 16:30-21:00", "shop": "hairdresser"}}, {"type": "node", "id": 6093938554, "lat": 41.4000862, "lon": 2.1727767, "tags": {"addr:city": "Barcelona", "addr:country": "ES", "addr:postcode": "08013", "addr:street": "Avinguda Diagonal (lateral muntanya)", "name": "Ester", "shop": "hairdresser"}}, {"type": "node", "id": 6101403907, "lat": 41.3988279, "lon": 2.1780962, "tags": {"name": "Sheyma", "shop": "hairdresser"}}, {"type": "node", "id": 6121077746, "lat": 41.4020181, "lon": 2.1795792, "tags": {"addr:city": "Barcelona", "addr:country": "ES", "addr:street": "Carrer Enamorats", "contact:phone": "+34 935149968", "name": "Scissors N Razors", "shop": "hairdresser"}}, {"type": "node", "id": 6138972128, "lat": 41.3986272, "lon": 2.1930161}, {"type": "node", "id": 6138972135, "lat": 41.398322, "lon": 2.1926353}, {"type": "node", "id": 6138972165, "lat": 41.3983289, "lon": 2.1926184}, {"type": "node", "id": 6138972171, "lat": 41.3983401, "lon": 2.1926333}, {"type": "node", "id": 6138972295, "lat": 41.3985806, "lon": 2.1930773, "tags": {"addr:city": "Barcelona", "addr:housenumber": "105", "addr:postcode": "08018", "addr:street": "Carrer \u00c1vila", "entrance": "yes"}}, {"type": "node", "id": 6138972301, "lat": 41.3984522, "lon": 2.192783}, {"type": "node", "id": 6138972303, "lat": 41.3983059, "lon": 2.1926749}, {"type": "node", "id": 6138972324, "lat": 41.3982758, "lon": 2.192749}, {"type": "node", "id": 6138972356, "lat": 41.3985503, "lon": 2.1931171}, {"type": "node", "id": 6139483599, "lat": 41.392949, "lon": 2.1872993, "tags": {"addr:housenumber": "100", "addr:postcode": "08018", "addr:street": "Carrer de Sardenya", "entrance": "yes", "name:en": "Mahalo vintage", "shop": "clothes"}}, {"type": "node", "id": 6157629898, "lat": 41.4079727, "lon": 2.1887483, "tags": {"name": "Llabot Perruquers", "shop": "hairdresser", "wheelchair": "no"}}, {"type": "node", "id": 6164139387, "lat": 41.405663, "lon": 2.1910001, "tags": {"addr:city": "Barcelona", "addr:country": "ES", "addr:housenumber": "208", "addr:postcode": "08018", "addr:street": "Avinguda Diagonal", "branch": "Centro Comercial Glories", "contact:phone": "+34 687611817", "name": "Sephora", "opening_hours": "Mo-Sa 09:00-21:00", "shop": "cosmetics", "survey:date": "2022-01-19"}}, {"type": "node", "id": 6296657085, "lat": 41.4080636, "lon": 2.1888372, "tags": {"addr:city": "Barcelona", "addr:housenumber": "3", "addr:postcode": "08018", "addr:street": "Carrer de Rossend Nobas", "name": "Gota Natural", "phone": "+34 931155059", "shop": "chemist"}}, {"type": "node", "id": 6326914285, "lat": 41.39771, "lon": 2.1747438, "tags": {"name": "Quetglas", "shop": "shoes"}}, {"type": "node", "id": 6501527867, "lat": 41.4050046, "lon": 2.1908037, "tags": {"name": "Kiehl's", "shop": "cosmetics", "survey:date": "2022-01-19"}}, {"type": "node", "id": 6501527978, "lat": 41.4051338, "lon": 2.1905857, "tags": {"name": "H&M", "shop": "clothes"}}, {"type": "node", "id": 6533606785, "lat": 41.4027036, "lon": 2.2008396, "tags": {"addr:street": "Carrer de Mari\u00e0 Aguil\u00f3", "name": "Cram", "shop": "hairdresser"}}, {"type": "node", "id": 6588176185, "lat": 41.40478, "lon": 2.1900261, "tags": {"name": "C&A", "opening_hours": "Mo-Sa 09:00-21:00", "shop": "clothes"}}, {"type": "node", "id": 6594314285, "lat": 41.4031429, "lon": 2.1769215, "tags": {"addr:housenumber": "443", "addr:street": "Carrer de Val\u00e8ncia", "name": "Cal\u00e7ats Llorens", "shop": "shoes"}}, {"type": "node", "id": 7001050985, "lat": 41.4020834, "lon": 2.2018175, "tags": {"shop": "herbalist"}}, {"type": "node", "id": 7107839712, "lat": 41.4079724, "lon": 2.1881843, "tags": {"name": "La Balear", "shop": "chemist"}}, {"type": "node", "id": 7528323087, "lat": 41.4026119, "lon": 2.176334, "tags": {"name": "Casa Nepal", "shop": "clothes"}}, {"type": "node", "id": 7528323286, "lat": 41.4020671, "lon": 2.175345, "tags": {"name": "Quetglas", "shop": "shoes"}}, {"type": "node", "id": 7555814340, "lat": 41.4069286, "lon": 2.1932817, "tags": {"name": "Euro100 Sant Mart\u00ed", "shop": "variety_store"}}, {"type": "node", "id": 7556637990, "lat": 41.403021, "lon": 2.1984405, "tags": {"name": "Aloha", "shop": "beauty"}}, {"type": "node", "id": 7556637997, "lat": 41.4021744, "lon": 2.1996215, "tags": {"name": "Calcedonia", "shop": "clothes"}}, {"type": "node", "id": 7556637998, "lat": 41.4018692, "lon": 2.200001, "tags": {"name": "Quetglas", "shop": "shoes"}}, {"type": "node", "id": 7556637999, "lat": 41.4017848, "lon": 2.2001119, "tags": {"name": "Xagr\u00ed", "shop": "shoes"}}, {"type": "node", "id": 7556638091, "lat": 41.4020851, "lon": 2.1997333, "tags": {"name": "G&K", "shop": "beauty"}}, {"type": "node", "id": 7556742388, "lat": 41.4013473, "lon": 2.2006107, "tags": {"name": "Ashley", "shop": "boutique"}}, {"type": "node", "id": 7556742391, "lat": 41.4026637, "lon": 2.19726, "tags": {"name": "Jean Louis David", "shop": "hairdresser"}}, {"type": "node", "id": 7556742589, "lat": 41.4011877, "lon": 2.2009146, "tags": {"name": "SecondBest", "shop": "second_hand"}}, {"type": "node", "id": 7557038714, "lat": 41.4037917, "lon": 2.1974117, "tags": {"name": "barberia Carlos Conde", "shop": "hairdresser"}}, {"type": "node", "id": 7559103785, "lat": 41.4072762, "lon": 2.1947953, "tags": {"shop": "hairdresser"}}, {"type": "node", "id": 7559103986, "lat": 41.4074493, "lon": 2.1935732, "tags": {"shop": "hairdresser"}}, {"type": "node", "id": 7559103987, "lat": 41.4074197, "lon": 2.1935329, "tags": {"name": "AcuMedic", "shop": "beauty"}}, {"type": "node", "id": 7559103988, "lat": 41.4073289, "lon": 2.1934071, "tags": {"name": "Slawa", "shop": "hairdresser"}}, {"type": "node", "id": 7559166784, "lat": 41.4076412, "lon": 2.1934115, "tags": {"shop": "hairdresser"}}, {"type": "node", "id": 7563843047, "lat": 41.4036779, "lon": 2.1986056, "tags": {"name": "incorpora", "shop": "beauty"}}, {"type": "node", "id": 7563862078, "lat": 41.4021119, "lon": 2.2000947, "tags": {"name": "Dandy Flair", "shop": "clothes"}}, {"type": "node", "id": 7563880551, "lat": 41.4020587, "lon": 2.2001602, "tags": {"name": "Beth . S", "shop": "perfumery"}}, {"type": "node", "id": 7563900754, "lat": 41.401386, "lon": 2.2010207, "tags": {"name": "Tot Natiu", "shop": "clothes"}}, {"type": "node", "id": 7563948533, "lat": 41.4018133, "lon": 2.2006141, "tags": {"name": "Onix", "shop": "clothes"}}, {"type": "node", "id": 7778052585, "lat": 41.4052837, "lon": 2.1907956, "tags": {"name": "Hollister", "name:en": "Hollister", "shop": "clothes"}}, {"type": "node", "id": 8035019186, "lat": 41.4002413, "lon": 2.1957979, "tags": {"name": "Systemaction outlet", "shop": "clothes"}}, {"type": "node", "id": 8049731596, "lat": 41.4020206, "lon": 2.2021008, "tags": {"name": "Ginkgo", "shop": "variety_store"}}, {"type": "node", "id": 8049731599, "lat": 41.4027089, "lon": 2.2008062, "tags": {"name": "de peus a terra", "shop": "clothes"}}, {"type": "node", "id": 8049731600, "lat": 41.4030518, "lon": 2.2005678, "tags": {"name": "Din\u00e0mic", "shop": "cosmetics"}}, {"type": "node", "id": 8049731609, "lat": 41.4071197, "lon": 2.1947997, "tags": {"name": "Backstage", "shop": "hairdresser"}}, {"type": "node", "id": 8049731796, "lat": 41.4021379, "lon": 2.2019121, "tags": {"name": "X Style", "shop": "hairdresser"}}, {"type": "node", "id": 8049732294, "lat": 41.4030638, "lon": 2.2001151, "tags": {"name": "M&Y", "shop": "hairdresser"}}, {"type": "node", "id": 8049732295, "lat": 41.4033782, "lon": 2.1997801, "tags": {"name": "A1 tattoo", "shop": "tattoo"}}, {"type": "node", "id": 8062015295, "lat": 41.4021215, "lon": 2.2010701, "tags": {"name": "Nail Art", "shop": "beauty"}}, {"type": "node", "id": 8062015591, "lat": 41.4028254, "lon": 2.2023889, "tags": {"name": "Basar", "shop": "variety_store"}}, {"type": "node", "id": 8062015592, "lat": 41.4027252, "lon": 2.201881, "tags": {"name": "Viv\u00f3 productes de perruqueria i bellesa", "shop": "hairdresser_supply"}}, {"type": "node", "id": 8062016190, "lat": 41.4029553, "lon": 2.2021719, "tags": {"shop": "hairdresser"}}, {"type": "node", "id": 8062016193, "lat": 41.4021501, "lon": 2.2015515, "tags": {"name": "Beauty depilnails", "shop": "beauty"}}, {"type": "node", "id": 8062016196, "lat": 41.4019682, "lon": 2.201272, "tags": {"name": "Manantial de Salud", "shop": "herbalist"}}, {"type": "node", "id": 8062016690, "lat": 41.4026577, "lon": 2.2017955, "tags": {"name": "Montse", "shop": "hairdresser"}}, {"type": "node", "id": 8090404618, "lat": 41.4062367, "lon": 2.1902063, "tags": {"name": "Moda Amiga. Fundaci\u00f2 Engrunes", "shop": "charity"}}, {"type": "node", "id": 8489754260, "lat": 41.404883, "lon": 2.1902253, "tags": {"name": "Primor", "shop": "clothes", "survey:date": "2022-01-19"}}, {"type": "node", "id": 8489754261, "lat": 41.4048848, "lon": 2.190645, "tags": {"name": "Pandora", "shop": "jewelry"}}, {"type": "node", "id": 8489754262, "lat": 41.4045882, "lon": 2.1903262, "tags": {"name": "Massimo Dutti", "shop": "clothes"}}, {"type": "node", "id": 8489754263, "lat": 41.40499, "lon": 2.1912247, "tags": {"name": "Uniqlo", "shop": "clothes", "survey:date": "2022-01-19"}}, {"type": "node", "id": 8489792523, "lat": 41.4047703, "lon": 2.1904961, "tags": {"brand": "Zara", "brand:wikidata": "Q147662", "brand:wikipedia": "en:Zara (retailer)", "name": "Zara", "shop": "clothes"}}, {"type": "node", "id": 8489792524, "lat": 41.4049742, "lon": 2.1903403, "tags": {"brand": "Oysho", "brand:wikidata": "Q3327046", "brand:wikipedia": "en:Oysho", "name": "Oysho", "shop": "clothes", "survey:date": "2022-01-19"}}, {"type": "node", "id": 8951444602, "lat": 41.3909047, "lon": 2.1798104, "tags": {"name": "Eivissa", "shop": "shoes"}}, {"type": "node", "id": 9431243718, "lat": 41.4051129, "lon": 2.1909634, "tags": {"brand": "L'Occitane", "brand:wikidata": "Q1880676", "brand:wikipedia": "en:L'Occitane en Provence", "name": "L'Occitane", "shop": "cosmetics", "survey:date": "2022-01-19"}}, {"type": "node", "id": 9431243719, "lat": 41.4050659, "lon": 2.1911432, "tags": {"name": "Nyx", "shop": "beauty", "survey:date": "2022-01-19"}}, {"type": "node", "id": 9431243720, "lat": 41.4051665, "lon": 2.1907309, "tags": {"level": "-1", "name": "Sfera", "shop": "clothes", "survey:date": "2022-01-19"}}, {"type": "node", "id": 9431243721, "lat": 41.4050609, "lon": 2.1905941, "tags": {"level": "-1", "name": "Scalpers", "shop": "clothes", "survey:date": "2022-01-19"}}, {"type": "node", "id": 9431243722, "lat": 41.4045861, "lon": 2.1904229, "tags": {"level": "-1", "name": "u-casas", "shop": "shoes", "survey:date": "2022-01-19"}}, {"type": "node", "id": 9431243723, "lat": 41.4052249, "lon": 2.1910089, "tags": {"level": "-1", "name": "Rituals...", "shop": "cosmetics", "survey:date": "2022-01-19"}}, {"type": "node", "id": 9431243818, "lat": 41.40506, "lon": 2.1908903, "tags": {"brand": "Bimba y Lola", "brand:wikidata": "Q54869493", "brand:wikipedia": "es:Bimba y Lola", "name": "Bimba y Lola", "shop": "clothes", "survey:date": "2022-01-19"}}, {"type": "node", "id": 9431243819, "lat": 41.405372, "lon": 2.1907099, "tags": {"name": "Tous", "shop": "bag", "survey:date": "2022-01-19"}}, {"type": "node", "id": 9431243820, "lat": 41.4052543, "lon": 2.1908356, "tags": {"brand": "Pull & Bear", "brand:wikidata": "Q691029", "brand:wikipedia": "en:Pull&Bear", "level": "-1", "name": "Pull & Bear", "shop": "clothes", "survey:date": "2022-01-19"}}, {"type": "node", "id": 9431243822, "lat": 41.4048712, "lon": 2.1900556, "tags": {"brand": "Jack & Jones", "brand:wikidata": "Q6077665", "brand:wikipedia": "en:Jack & Jones", "level": "-1", "name": "Jack & Jones", "shop": "clothes", "survey:date": "2022-01-19"}}, {"type": "node", "id": 9431243823, "lat": 41.4048482, "lon": 2.1904892, "tags": {"clothes": "underwear", "level": "-1", "name": "Women'secret", "shop": "clothes", "survey:date": "2022-01-19"}}, {"type": "node", "id": 9431243825, "lat": 41.4050659, "lon": 2.1907954, "tags": {"brand": "Celio", "brand:wikidata": "Q2672003", "brand:wikipedia": "en:Celio (retailer)", "level": "-1", "name": "Celio", "shop": "clothes", "survey:date": "2022-01-19"}}, {"type": "node", "id": 9431243917, "lat": 41.4051214, "lon": 2.1910556, "tags": {"name": "Munich", "shop": "shoes", "survey:date": "2022-01-19"}}, {"type": "node", "id": 9431243918, "lat": 41.4051255, "lon": 2.1908753, "tags": {"clothes": "underwear", "level": "-1", "name": "intimissi uomo", "shop": "clothes", "survey:date": "2022-01-19"}}, {"type": "node", "id": 9431243919, "lat": 41.4051727, "lon": 2.1909422, "tags": {"clothes": "underwear", "level": "-1", "name": "intimissi italian lingerie", "shop": "clothes", "survey:date": "2022-01-19"}}, {"type": "node", "id": 9431244118, "lat": 41.4049413, "lon": 2.1904467, "tags": {"level": "-1", "name": "JD", "shop": "clothes", "survey:date": "2022-01-19"}}, {"type": "node", "id": 9431244317, "lat": 41.4049061, "lon": 2.1901654, "tags": {"level": "-1", "name": "lefties", "shop": "clothes", "survey:date": "2022-01-19"}}, {"type": "node", "id": 9431244318, "lat": 41.4046463, "lon": 2.1904869, "tags": {"level": "-1", "name": "Cortefiel", "shop": "clothes", "survey:date": "2022-01-19"}}, {"type": "node", "id": 9431244319, "lat": 41.404933, "lon": 2.1906289, "tags": {"brand": "United Colors of Benetton", "brand:wikidata": "Q817139", "brand:wikipedia": "en:Benetton Group", "level": "-1", "name": "United Colors of Benetton", "shop": "clothes", "short_name": "Benetton", "survey:date": "2022-01-19"}}, {"type": "node", "id": 9460110914, "lat": 41.4012531, "lon": 2.1745135, "tags": {"addr:city": "Barcelona", "addr:housenumber": "397", "addr:postcode": "08013", "addr:street": "Carrer de Val\u00e8ncia", "name": "Red Rabbit Tattoo studio", "shop": "tattoo", "website": "https://tattooredrabbit.com/#studio"}}, {"type": "node", "id": 9866376977, "lat": 41.400731, "lon": 2.1720755, "tags": {"addr:city": "Barcelona", "addr:housenumber": "362", "addr:postcode": "08013", "addr:street": "Carrer de Mallorca", "name": "Khloe Perruqueria", "phone": "+34632843101", "shop": "hairdresser"}}, {"type": "way", "id": 655191292, "nodes": [6138972171, 6138972301, 6138972128, 6138972295, 6138972356, 6138972324, 6138972303, 6138972135, 6138972165, 6138972171], "tags": {"building": "industrial", "building:levels": "1", "name": "Outlet Leather Factory", "note": "The best leather factory-shop in Spain! Thousands of leather jackets for men and women. Real factory prices.", "opening_hours": "Mo-Sa 10:00-20:00", "phone": "+34 934855690", "shop": "clothes", "website": "https://www.olf.es/", "wheelchair": "yes"}}]}