{"version": 0.6, "generator": "Overpass API 0.7.58.5 b0c4acbb", "osm3s": {"timestamp_osm_base": "2022-09-12T19:58:58Z", "copyright": "The data included in this document is from www.openstreetmap.org. The data is made available under ODbL."}, "elements": [{"type": "node", "id": 1376826835, "lat": 41.8803538, "lon": -87.6280009, "tags": {"brand": "Men's Wearhouse", "brand:wikidata": "Q57405513", "brand:wikipedia": "en:Men's Wearhouse", "clothes": "suits", "name": "Men's Wearhouse", "shop": "clothes"}}, {"type": "node", "id": 1376826841, "lat": 41.8814494, "lon": -87.6280145, "tags": {"addr:city": "Chicago", "addr:country": "US", "addr:postcode": "60603", "addr:state": "IL", "addr:street": "South State Street", "brand": "Forever 21", "brand:wikidata": "Q1060537", "brand:wikipedia": "en:Forever 21", "name": "Forever 21", "shop": "clothes"}}, {"type": "node", "id": 1376826845, "lat": 41.8828614, "lon": -87.6282788, "tags": {"brand": "Nordstrom Rack", "brand:wikidata": "Q21463374", "brand:wikipedia": "en:Nordstrom Rack", "name": "Nordstrom Rack", "shop": "clothes"}}, {"type": "node", "id": 1376826849, "lat": 41.881546, "lon": -87.6276119, "tags": {"brand": "New York & Company", "brand:wikidata": "Q7012977", "brand:wikipedia": "en:New York & Company", "name": "New York & Company", "shop": "clothes"}}, {"type": "node", "id": 1376826853, "lat": 41.880236, "lon": -87.6280009, "tags": {"brand": "Ulta Beauty", "brand:wikidata": "Q7880076", "brand:wikipedia": "en:Ulta Beauty", "name": "Ulta Beauty", "shop": "cosmetics"}}, {"type": "node", "id": 1606934712, "lat": 41.8815499, "lon": -87.6259966}, {"type": "node", "id": 1606934716, "lat": 41.8815602, "lon": -87.6253826}, {"type": "node", "id": 1606934718, "lat": 41.8817154, "lon": -87.6256368}, {"type": "node", "id": 1606934725, "lat": 41.8817196, "lon": -87.6253874}, {"type": "node", "id": 1606934733, "lat": 41.8817093, "lon": -87.6260014}, {"type": "node", "id": 1609576469, "lat": 41.8828021, "lon": -87.6276479}, {"type": "node", "id": 1609576483, "lat": 41.8831104, "lon": -87.6276537}, {"type": "node", "id": 1609576486, "lat": 41.8827865, "lon": -87.6271178}, {"type": "node", "id": 1609576495, "lat": 41.8831152, "lon": -87.6270932}, {"type": "node", "id": 2578944089, "lat": 41.8809649, "lon": -87.6279664, "tags": {"addr:city": "Chicago", "addr:country": "US", "addr:housenumber": "42", "addr:postcode": "60603", "addr:state": "IL", "addr:street": "South State Street", "brand": "Five Below", "brand:wikidata": "Q5455836", "name": "Five Below", "shop": "variety_store"}}, {"type": "node", "id": 2578976749, "lat": 41.8827331, "lon": -87.6282665, "tags": {"addr:city": "Chicago", "addr:country": "US", "addr:housenumber": "22", "addr:postcode": "60602", "addr:state": "IL", "addr:street": "North State Street", "brand": "Uniqlo", "brand:wikidata": "Q26070", "brand:wikipedia": "en:Uniqlo", "name": "Uniqlo", "shop": "clothes", "wheelchair": "yes"}}, {"type": "node", "id": 2578976750, "lat": 41.8843064, "lon": -87.6283991, "tags": {"addr:city": "Chicago", "addr:country": "US", "addr:housenumber": "108", "addr:postcode": "60602", "addr:street": "North State Street", "brand": "Puma", "brand:wikidata": "Q157064", "brand:wikipedia": "en:Puma (brand)", "name": "Puma", "shop": "clothes"}}, {"type": "node", "id": 2578978126, "lat": 41.8846404, "lon": -87.628229, "tags": {"addr:city": "Chicago", "addr:country": "US", "addr:housenumber": "150", "addr:postcode": "60601", "addr:state": "IL", "addr:street": "North State Street", "brand": "Old Navy", "brand:wikidata": "Q2735242", "brand:wikipedia": "en:Old Navy", "name": "Old Navy", "shop": "clothes"}}, {"type": "node", "id": 2819117702, "lat": 41.8842756, "lon": -87.6259919, "tags": {"brand": "Loft", "brand:wikidata": "Q62075137", "brand:wikipedia": "en:Ann Inc.", "clothes": "women", "name": "Loft", "shop": "clothes"}}, {"type": "node", "id": 2819117705, "lat": 41.8846388, "lon": -87.6266445, "tags": {"brand": "Naturalizer", "brand:wikidata": "Q65012038", "name": "Naturalizer", "shop": "shoes"}}, {"type": "node", "id": 2819245982, "lat": 41.8825265, "lon": -87.6264729, "tags": {"name": "Pay/Half", "shop": "clothes"}}, {"type": "node", "id": 2819255356, "lat": 41.8825282, "lon": -87.6259604, "tags": {"name": "New York Jewelers", "shop": "jewelry"}}, {"type": "node", "id": 2819255357, "lat": 41.8824104, "lon": -87.6259604, "tags": {"name": "Prudential Jewelers", "shop": "jewelry"}}, {"type": "node", "id": 2819255358, "lat": 41.8822746, "lon": -87.625955, "tags": {"name": "Chicago Landmark Diamond Center", "shop": "jewelry"}}, {"type": "node", "id": 2819255359, "lat": 41.8819551, "lon": -87.6259148, "tags": {"name": "Windy City Diamonds", "shop": "jewelry"}}, {"type": "node", "id": 2819258500, "lat": 41.8828477, "lon": -87.6259496, "tags": {"name": "Fiancee Jewelry", "shop": "jewelry"}}, {"type": "node", "id": 2819262302, "lat": 41.8827679, "lon": -87.6259765, "tags": {"name": "Mon Ami Jewelers", "shop": "jewelry"}}, {"type": "node", "id": 2819262303, "lat": 41.8826181, "lon": -87.625963, "tags": {"name": "Luo M. Jewelers", "shop": "jewelry"}}, {"type": "node", "id": 2819285779, "lat": 41.8822347, "lon": -87.6267972, "tags": {"alt_name": "Sally Beauty Supply", "brand": "Sally Beauty", "brand:wikidata": "Q7405065", "brand:wikipedia": "en:Sally Beauty Holdings", "name": "Sally Beauty", "shop": "hairdresser_supply"}}, {"type": "node", "id": 2819325123, "lat": 41.8822773, "lon": -87.6275256, "tags": {"brand": "The Body Shop", "brand:wikidata": "Q837851", "brand:wikipedia": "en:The Body Shop", "name": "The Body Shop", "shop": "cosmetics"}}, {"type": "node", "id": 2819325124, "lat": 41.8823711, "lon": -87.6275368, "tags": {"brand": "claire's", "brand:wikidata": "Q2974996", "brand:wikipedia": "en:Claire's", "name": "claire's", "shop": "fashion_accessories"}}, {"type": "node", "id": 2819331002, "lat": 41.8822513, "lon": -87.6264587, "tags": {"name": "Wedding Bands & Co.", "shop": "jewelry"}}, {"type": "node", "id": 2819355818, "lat": 41.8830403, "lon": -87.6268032, "tags": {"brand": "JoS. A. Bank", "brand:wikidata": "Q6204078", "brand:wikipedia": "en:Jos. A. Bank", "name": "JoS. A. Bank", "official_name": "Jos. A. Bank Clothiers", "shop": "clothes"}}, {"type": "node", "id": 2819355819, "lat": 41.8837332, "lon": -87.6281925, "tags": {"brand": "Anthropologie", "brand:wikidata": "Q4773903", "brand:wikipedia": "en:Anthropologie", "clothes": "women", "name": "Anthropologie", "shop": "clothes"}}, {"type": "node", "id": 2819355820, "lat": 41.8840028, "lon": -87.6282113, "tags": {"brand": "Sephora", "brand:wikidata": "Q2408041", "brand:wikipedia": "en:Sephora", "name": "Sephora", "shop": "cosmetics"}}, {"type": "node", "id": 2882749200, "lat": 41.8822896, "lon": -87.6401675, "tags": {"name": "Arts & Artisians", "shop": "jewelry", "website": "http://artsartisans.com/"}}, {"type": "node", "id": 2882760090, "lat": 41.8823336, "lon": -87.640173, "tags": {"brand": "claire's", "brand:wikidata": "Q2974996", "brand:wikipedia": "en:Claire's", "name": "claire's", "shop": "fashion_accessories", "website": "https://www.claires.com/"}}, {"type": "node", "id": 2882848607, "lat": 41.8822827, "lon": -87.6403446, "tags": {"brand": "Bath & Body Works", "brand:wikidata": "Q810773", "brand:wikipedia": "en:Bath & Body Works", "level": "1", "name": "Bath & Body Works", "shop": "cosmetics"}}, {"type": "node", "id": 3762140908, "lat": 41.8843465, "lon": -87.6282187, "tags": {"addr:city": "Chicago", "addr:country": "US", "addr:housenumber": "108", "addr:postcode": "60602", "addr:street": "North State Street", "brand": "Zara", "brand:wikidata": "Q147662", "brand:wikipedia": "en:Zara (retailer)", "name": "Zara", "shop": "clothes"}}, {"type": "node", "id": 4458260787, "lat": 41.8811588, "lon": -87.6279779, "tags": {"brand": "Footaction", "brand:wikidata": "Q71022064", "name": "Footaction", "shop": "shoes"}}, {"type": "node", "id": 4461244868, "lat": 41.881893, "lon": -87.6257296, "tags": {"addr:city": "Chicago", "addr:housenumber": "5", "addr:postcode": "60603", "addr:state": "IL", "addr:street": "South Wabash Avenue", "addr:unit": "1708", "name": "Reuven Gitter Jewelers", "phone": "+1-312-263-1513", "shop": "jewelry", "website": "http://reuvengitter.com"}}, {"type": "node", "id": 5806991509, "lat": 41.8818773, "lon": -87.6257758, "tags": {"addr:city": "Chicago", "addr:housenumber": "5", "addr:postcode": "60603", "addr:state": "IL", "addr:street": "South Wabash Avenue", "addr:unit": "806", "facebook": "https://www.facebook.com/La-Ron-Jewelers-Chicago-Diamond-Wedding-Jeweler-191982250818678/", "name": "LaRon Jewelers", "opening_hours": "Mo-Tu 09:30-16:30; We-Fr 09:00-16:30, Sa 10:30-13:30", "payment:american_express": "yes", "payment:cash": "yes", "payment:cheque": "yes", "payment:discover_card": "yes", "payment:mastercard": "yes", "payment:visa": "yes", "phone": "+1-312-263-3898", "shop": "jewelry", "website": "http://www.laronjewelers.com"}}, {"type": "node", "id": 5838821212, "lat": 41.8822187, "lon": -87.6258049, "tags": {"addr:housenumber": "54 (B23)", "addr:street": "East Madison Street", "description": "watch repair shop", "name": "Jewels of Chicago", "opening_hours": "Mo-Sa 10:00-18:00", "phone": "773 703 3184", "shop": "watches", "website": "www.thejewelsofchicago.com"}}, {"type": "node", "id": 6842452396, "lat": 41.8798638, "lon": -87.6275, "tags": {"brand": "Journeys", "brand:wikidata": "Q61994838", "name": "Journeys", "shop": "shoes"}}, {"type": "node", "id": 6842452398, "lat": 41.8806279, "lon": -87.6274799, "tags": {"brand": "Kay Jewelers", "brand:wikidata": "Q62029290", "name": "Kay Jewelers", "shop": "jewelry"}}, {"type": "node", "id": 8118655887, "lat": 41.8809193, "lon": -87.6274817, "tags": {"addr:city": "Chicago", "addr:housenumber": "39", "addr:postcode": "60603", "addr:state": "IL", "addr:street": "South State Street", "brand": "Vans", "brand:wikidata": "Q1135366", "brand:wikipedia": "en:Vans", "name": "Vans", "shop": "shoes"}}, {"type": "node", "id": 8119861437, "lat": 41.8800655, "lon": -87.6274428, "tags": {"addr:city": "Chicago", "addr:housenumber": "125", "addr:postcode": "60603", "addr:state": "IL", "addr:street": "South State Street", "brand": "Lids", "brand:wikidata": "Q19841609", "brand:wikipedia": "en:Lids (store)", "clothes": "hats", "name": "Lids", "shop": "clothes"}}, {"type": "node", "id": 9015338546, "lat": 41.8827851, "lon": -87.6275591}, {"type": "node", "id": 9015338547, "lat": 41.8829212, "lon": -87.6271212}, {"type": "node", "id": 9015338548, "lat": 41.8829215, "lon": -87.6270904}, {"type": "node", "id": 9934535838, "lat": 41.881271, "lon": -87.6279923, "tags": {"addr:city": "Chicago", "addr:housenumber": "26-28", "addr:postcode": "60603", "addr:state": "IL", "addr:street": "South State Street", "brand": "Foot Locker", "brand:wikidata": "Q63335", "name": "Foot Locker", "shop": "shoes"}}, {"type": "node", "id": 9934535839, "lat": 41.881271, "lon": -87.628073, "tags": {"addr:city": "Chicago", "addr:housenumber": "26-28", "addr:postcode": "60603", "addr:state": "IL", "addr:street": "South State Street", "brand": "Foot Locker", "brand:wikidata": "Q63335", "name": "Kids Foot Locker", "shop": "shoes"}}, {"type": "node", "id": 9934535841, "lat": 41.8818762, "lon": -87.6280601, "tags": {"brand": "Zumiez", "brand:wikidata": "Q8075252", "name": "Zumiez", "shop": "clothes"}}, {"type": "node", "id": 9934535842, "lat": 41.8801835, "lon": -87.6274676, "tags": {"addr:city": "Chicago", "addr:housenumber": "123", "addr:postcode": "60603", "addr:state": "IL", "addr:street": "South State Street", "brand": "Crocs", "brand:wikidata": "Q926699", "name": "Crocs", "shop": "shoes"}}, {"type": "way", "id": 147478106, "nodes": [1606934733, 1606934712, 1606934716, 1606934725, 1606934718, 1606934733], "tags": {"addr:city": "Chicago", "addr:housenumber": "15", "addr:postcode": "60603", "addr:state": "IL", "addr:street": "South Wabash Avenue", "addr:street:name": "Wabash", "addr:street:prefix": "South", "addr:street:type": "Avenue", "building": "office", "building:levels": "5", "chicago:building_id": "814590", "ele": "183", "gnis:county_name": "Cook", "gnis:feature_id": "1830883", "gnis:import_uuid": "57871b70-0100-4405-bb30-88b2e001a944", "gnis:reviewed": "no", "heritage": "yes", "name": "Jewelers Building", "old_name": "Iwan Reis Building", "shop": "jewelry", "source": "USGS Geonames", "wikidata": "Q6189527", "wikipedia": "en:Jewelers Building (1882)"}}, {"type": "way", "id": 147776392, "nodes": [1609576469, 1609576483, 1609576495, 9015338548, 9015338547, 1609576486, 9015338546, 1609576469], "tags": {"addr:city": "Chicago", "addr:housenumber": "35", "addr:postcode": "60602", "addr:state": "IL", "addr:street": "North State Street", "addr:street:name": "State", "addr:street:prefix": "North", "addr:street:type": "Street", "brand": "Primark", "brand:wikidata": "Q137023", "brand:wikipedia": "en:Primark", "building": "retail", "building:levels": "1", "chicago:building_id": "868625", "name": "Primark", "shop": "clothes"}}]}