{"version": 0.6, "generator": "Overpass API 0.7.58.5 b0c4acbb", "osm3s": {"timestamp_osm_base": "2022-09-06T16:45:34Z", "copyright": "The data included in this document is from www.openstreetmap.org. The data is made available under ODbL."}, "elements": [{"type": "node", "id": 26472349, "lat": 40.4078419, "lon": -3.704522, "tags": {"access": "private", "amenity": "parking_entrance", "parking": "underground"}}, {"type": "node", "id": 26495410, "lat": 40.4064435, "lon": -3.7081711, "tags": {"amenity": "parking"}}, {"type": "node", "id": 614981405, "lat": 40.4052472, "lon": -3.7031098, "tags": {"amenity": "fuel", "brand": "Repsol", "brand:1992": "Campsa", "brand:wikidata": "Q174747", "brand:wikidata:1992": "Q1031623", "brand:wikipedia": "es:Repsol", "brand:wikipedia:1992": "es:Campsa", "name": "Repsol", "official_name:1992": "Compa\u00f1\u00eda Arrendataria del Monopolio del Petr\u00f3leo, S. A."}}, {"type": "node", "id": 1558636932, "lat": 40.40685, "lon": -3.7041761, "tags": {"access": "yes", "amenity": "parking", "fee": "yes", "layer": "-1", "name": "Casino de la Reina", "opening_hours": "24/7", "parking": "underground", "source": "knowledge"}}, {"type": "node", "id": 1558636939, "lat": 40.4069664, "lon": -3.7043274, "tags": {"access": "yes", "amenity": "parking_entrance", "maxheight": "2.1", "opening_hours": "24/7", "parking": "underground"}}, {"type": "node", "id": 1558636943, "lat": 40.4070201, "lon": -3.7041552, "tags": {"access": "yes", "amenity": "parking_entrance", "maxheight": "2.1", "opening_hours": "24/7", "parking": "underground"}}, {"type": "node", "id": 1624937183, "lat": 40.4089332, "lon": -3.6937217, "tags": {"amenity": "parking", "fee": "yes", "layer": "-1", "parking": "underground"}}, {"type": "node", "id": 2885884308, "lat": 40.4118527, "lon": -3.6994181, "tags": {"amenity": "bicycle_parking", "bicycle_parking": "stands", "covered": "no"}}, {"type": "node", "id": 2925397739, "lat": 40.4073962, "lon": -3.6958429}, {"type": "node", "id": 2925397754, "lat": 40.4076401, "lon": -3.6956688}, {"type": "node", "id": 2955144563, "lat": 40.4120614, "lon": -3.7035213}, {"type": "node", "id": 2971950464, "lat": 40.4118111, "lon": -3.7035611}, {"type": "node", "id": 3190384551, "lat": 40.4096841, "lon": -3.7031838, "tags": {"access": "private", "amenity": "parking", "layer": "-1", "parking": "underground"}}, {"type": "node", "id": 3275098886, "lat": 40.4086302, "lon": -3.7011758, "tags": {"addr:street": "Plaza de Lavapi\u00e9s", "amenity": "taxi", "capacity": "4", "operator": "Ayuntamiento de Madrid", "source": "living there", "source:addr": "Ayuntamiento de Madrid", "source:addr:date": "2016-10-27", "source:capacity": "Ayuntamiento de Madrid", "source:capacity:date": "2016-10-27"}}, {"type": "node", "id": 3285505478, "lat": 40.4077168, "lon": -3.7041873, "tags": {"access": "private", "amenity": "parking_entrance", "parking": "underground"}}, {"type": "node", "id": 3294675869, "lat": 40.4082524, "lon": -3.7035647, "tags": {"amenity": "parking", "layer": "-1", "parking": "underground"}}, {"type": "node", "id": 3358294504, "lat": 40.4066569, "lon": -3.703638, "tags": {"amenity": "parking_entrance"}}, {"type": "node", "id": 3770026468, "lat": 40.4096972, "lon": -3.6966399, "tags": {"amenity": "bicycle_parking", "capacity": "6"}}, {"type": "node", "id": 3801862431, "lat": 40.4088834, "lon": -3.7060845, "tags": {"amenity": "parking", "name": "Parking Cascorro"}}, {"type": "node", "id": 3895585355, "lat": 40.4068947, "lon": -3.710066}, {"type": "node", "id": 3895592657, "lat": 40.4069397, "lon": -3.710773}, {"type": "node", "id": 3895592661, "lat": 40.4072763, "lon": -3.7099818}, {"type": "node", "id": 3895592662, "lat": 40.4073213, "lon": -3.7106763}, {"type": "node", "id": 4054775628, "lat": 40.4046256, "lon": -3.7020619, "tags": {"addr:street": "Calle de Embajadores", "amenity": "taxi", "capacity": "6", "operator": "Ayuntamiento de Madrid", "source:addr": "Ayuntamiento de Madrid", "source:addr:date": "2016-10-27", "source:capacity": "Ayuntamiento de Madrid", "source:capacity:date": "2016-10-27"}}, {"type": "node", "id": 4099763610, "lat": 40.4059761, "lon": -3.699554, "tags": {"amenity": "bicycle_parking", "bicycle_parking": "stands", "capacity": "4", "covered": "no", "image": "http://www.infobicimadrid.es/fotos/aparcabicis/small/PBI_01001.jpg", "name": "Aparcabicis La Casa Encendida", "operator": "Ayuntamiento de Madrid", "source": "Ayuntamiento de Madrid / INFORMOMADRID", "source:image": "Central de Movilidad"}}, {"type": "node", "id": 4100810212, "lat": 40.4047976, "lon": -3.7037323, "tags": {"amenity": "bicycle_parking", "bicycle_parking": "stands", "capacity": "8", "covered": "no", "image": "http://www.infobicimadrid.es/fotos/aparcabicis/small/PBI_02010.jpg", "name": "Aparcabicis Colegio P\u00fablico Legado Crespo", "operator": "Ayuntamiento de Madrid", "source": "Ayuntamiento de Madrid / INFORMOMADRID", "source:image": "Central de Movilidad"}}, {"type": "node", "id": 4100810213, "lat": 40.4063271, "lon": -3.6974665, "tags": {"amenity": "bicycle_parking", "bicycle_parking": "stands", "capacity": "10", "covered": "no", "image": "http://www.infobicimadrid.es/fotos/aparcabicis/small/PBI_02011.jpg", "name": "Aparcabicis Colegio de los Salesianos", "operator": "Ayuntamiento de Madrid", "source": "Ayuntamiento de Madrid / INFORMOMADRID", "source:image": "Central de Movilidad"}}, {"type": "node", "id": 4100810214, "lat": 40.4067732, "lon": -3.695828, "tags": {"amenity": "bicycle_parking", "bicycle_parking": "stands", "capacity": "10", "covered": "no", "image": "http://www.infobicimadrid.es/fotos/aparcabicis/small/PBI_02012.jpg", "name": "Aparcabicis Consejer\u00eda de Medio Ambiente, Vivienda y Ordenaci\u00f3n del Territorio", "operator": "Ayuntamiento de Madrid", "source": "Ayuntamiento de Madrid / INFORMOMADRID", "source:image": "Central de Movilidad"}}, {"type": "node", "id": 4100810225, "lat": 40.406298, "lon": -3.6996757, "tags": {"amenity": "bicycle_parking", "bicycle_parking": "stands", "capacity": "10", "covered": "no", "image": "http://www.infobicimadrid.es/fotos/aparcabicis/small/PBI_01004.jpg", "name": "Aparcabicis La Casa Encendida", "source": "Ayuntamiento de Madrid / INFORMOMADRID", "source:image": "Central de Movilidad"}}, {"type": "node", "id": 4102457772, "lat": 40.4053324, "lon": -3.7007983, "tags": {"amenity": "bicycle_parking", "bicycle_parking": "stands", "capacity": "8", "covered": "no", "image": "http://www.infobicimadrid.es/fotos/aparcabicis/small/PBI_02017.jpg", "name": "Aparcabicis Escuela T\u00e9cnica Ingenieros Industriales", "operator": "Ayuntamiento de Madrid", "source": "Ayuntamiento de Madrid / INFORMOMADRID", "source:image": "Central de Movilidad"}}, {"type": "node", "id": 4102457773, "lat": 40.4054401, "lon": -3.7006361, "tags": {"amenity": "bicycle_parking", "bicycle_parking": "stands", "capacity": "10", "covered": "no", "image": "http://www.infobicimadrid.es/fotos/aparcabicis/small/PBI_02016.jpg", "name": "Aparcabicis Escuela T\u00e9cnica Ingenieros Industriales", "operator": "Ayuntamiento de Madrid", "source": "Ayuntamiento de Madrid / INFORMOMADRID", "source:image": "Central de Movilidad"}}, {"type": "node", "id": 4102457786, "lat": 40.405421, "lon": -3.7024449, "tags": {"amenity": "bicycle_parking", "bicycle_parking": "stands", "capacity": "10", "covered": "no", "image": "http://www.infobicimadrid.es/fotos/aparcabicis/small/PBI_01016.jpg", "name": "Aparcabicis Metro Embajadores", "operator": "Ayuntamiento de Madrid", "source": "Ayuntamiento de Madrid / INFORMOMADRID", "source:image": "Central de Movilidad"}}, {"type": "node", "id": 4102785090, "lat": 40.4069713, "lon": -3.710674, "tags": {"amenity": "bicycle_parking", "bicycle_parking": "stands", "capacity": "10", "covered": "no", "image": "http://www.infobicimadrid.es/fotos/aparcabicis/small/PBI_01011.jpg", "name": "Aparcabicis Biblioteca Centro Pedro Salinas", "operator": "Ayuntamiento de Madrid", "source": "Ayuntamiento de Madrid / INFORMOMADRID", "source:image": "Central de Movilidad"}}, {"type": "node", "id": 4102785127, "lat": 40.4083885, "lon": -3.6935511, "tags": {"amenity": "bicycle_parking", "bicycle_parking": "stands", "capacity": "14", "covered": "no", "image": "http://www.infobicimadrid.es/fotos/aparcabicis/small/PBI_01010.jpg", "operator": "Ayuntamiento de Madrid", "source": "Ayuntamiento de Madrid / INFORMOMADRID", "source:image": "Central de Movilidad"}}, {"type": "node", "id": 4102785128, "lat": 40.4087671, "lon": -3.6944259, "tags": {"amenity": "bicycle_parking", "bicycle_parking": "stands", "capacity": "18", "covered": "no", "image": "http://www.infobicimadrid.es/fotos/aparcabicis/small/PBI_01009.jpg", "operator": "Ayuntamiento de Madrid", "source": "Ayuntamiento de Madrid / INFORMOMADRID", "source:image": "Central de Movilidad"}}, {"type": "node", "id": 4103639939, "lat": 40.4076814, "lon": -3.6944193, "tags": {"amenity": "bicycle_parking", "bicycle_parking": "stands", "capacity": "20", "covered": "yes", "image": "http://www.infobicimadrid.es/fotos/aparcabicis/small/PBI_01026.jpg", "operator": "Ayuntamiento de Madrid", "source": "Ayuntamiento de Madrid / INFORMOMADRID", "source:image": "Central de Movilidad"}}, {"type": "node", "id": 4105183467, "lat": 40.4069841, "lon": -3.7038729, "tags": {"amenity": "bicycle_parking", "bicycle_parking": "stands", "capacity": "8", "covered": "no", "description": "Falta 1 arco y otro est\u00e1 suelto", "image": "http://www.infobicimadrid.es/fotos/aparcabicis/small/PBI_01027.jpg", "name": "Aparcabicis Parque Casino de la Reina", "operator": "Ayuntamiento de Madrid", "source": "Ayuntamiento de Madrid / INFORMOMADRID", "source:image": "Central de Movilidad"}}, {"type": "node", "id": 4105183473, "lat": 40.4106154, "lon": -3.7025448, "tags": {"amenity": "bicycle_parking", "bicycle_parking": "stands", "capacity": "10", "image": "http://www.infobicimadrid.es/fotos/aparcabicis/small/PBI_01035.jpg", "name": "Aparcabicis Plaza de Ministriles", "operator": "Ayuntamiento de Madrid", "source": "Ayuntamiento de Madrid / INFORMOMADRID", "source:image": "Central de Movilidad"}}, {"type": "node", "id": 4111605991, "lat": 40.4076445, "lon": -3.7116063, "tags": {"amenity": "bicycle_parking", "bicycle_parking": "stands", "capacity": "10", "covered": "no", "image": "http://www.infobicimadrid.es/fotos/aparcabicis/small/PBI_01054.jpg", "name": "Aparcabicis Centro de atenci\u00f3n a infancia", "operator": "Ayuntamiento de Madrid", "source": "Ayuntamiento de Madrid / DG PLANIFICACION", "source:image": "Central de Movilidad"}}, {"type": "node", "id": 4112236510, "lat": 40.4087346, "lon": -3.7083738, "tags": {"amenity": "bicycle_parking", "bicycle_parking": "stands", "capacity": "10", "image": "http://www.infobicimadrid.es/fotos/aparcabicis/small/Arniches_6.jpg", "name": "Aparcabicis Centro Cultural La Corrala", "operator": "Ayuntamiento de Madrid", "source": "Ayuntamiento de Madrid / CENTRAL MOVILIDAD", "source:image": "Central de Movilidad"}}, {"type": "node", "id": 4163360302, "lat": 40.4082487, "lon": -3.6929153, "tags": {"addr:street": "Plaza del Emperador Carlos V", "amenity": "taxi", "capacity": "6", "operator": "Ayuntamiento de Madrid", "source:addr": "Ayuntamiento de Madrid", "source:addr:date": "2016-10-27", "source:capacity": "Ayuntamiento de Madrid", "source:capacity:date": "2016-10-27"}}, {"type": "node", "id": 4490070128, "lat": 40.4097912, "lon": -3.6936151, "tags": {"addr:street": "Calle de Atocha", "amenity": "taxi", "capacity": "2", "operator": "Ayuntamiento de Madrid", "source": "Ayuntamiento de Madrid", "source:date": "2016-10-27"}}, {"type": "node", "id": 4490070129, "lat": 40.4116789, "lon": -3.6976891, "tags": {"addr:city": "Madrid", "addr:country": "ES", "addr:housenumber": "83", "addr:postcode": "28012", "addr:street": "Calle de Atocha", "amenity": "taxi", "capacity": "1", "operator": "Ayuntamiento de Madrid", "source": "Ayuntamiento de Madrid", "source:date": "2016-10-27"}}, {"type": "node", "id": 4725967141, "lat": 40.4115442, "lon": -3.6977507, "tags": {"addr:city": "Madrid", "addr:housenumber": "70", "addr:postcode": "28012", "addr:street": "Calle de Atocha", "amenity": "parking", "name": "Atocha 70"}}, {"type": "node", "id": 4818290657, "lat": 40.4057011, "lon": -3.6997728, "tags": {"addr:city": "Madrid", "addr:country": "ES", "addr:housenumber": "1", "addr:postcode": "28012", "addr:street": "Ronda de Valencia", "amenity": "charging_station", "authentication:membership_card": "yes", "capacity": "1", "fee": "yes", "motorcar": "yes", "opening_hours": "24/7", "operator": "GIC", "parking:fee": "no", "socket:schuko": "1", "socket:type2": "1"}}, {"type": "node", "id": 5181789822, "lat": 40.4065511, "lon": -3.6996655, "tags": {"amenity": "motorcycle_parking"}}, {"type": "node", "id": 6140940483, "lat": 40.4073181, "lon": -3.7100246, "tags": {"amenity": "parking_entrance", "maxheight": "2", "parking": "underground"}}, {"type": "node", "id": 6313090603, "lat": 40.405615, "lon": -3.6993511, "tags": {"amenity": "bicycle_parking", "bicycle_parking": "stands", "capacity": "8", "covered": "yes"}}, {"type": "node", "id": 6437074847, "lat": 40.4054586, "lon": -3.7006444, "tags": {"amenity": "motorcycle_parking", "capacity": "9", "covered": "no"}}, {"type": "node", "id": 6437074848, "lat": 40.4057109, "lon": -3.6997224, "tags": {"amenity": "motorcycle_parking", "capacity": "9", "covered": "no"}}, {"type": "node", "id": 6437074855, "lat": 40.405253, "lon": -3.7007404, "tags": {"amenity": "motorcycle_parking", "capacity": "9", "covered": "no"}}, {"type": "node", "id": 6437074877, "lat": 40.4053719, "lon": -3.705332, "tags": {"amenity": "motorcycle_parking", "capacity": "9", "covered": "no"}}, {"type": "node", "id": 6437074990, "lat": 40.4075318, "lon": -3.7030122, "tags": {"amenity": "motorcycle_parking", "capacity": "6", "covered": "no"}}, {"type": "node", "id": 6437074991, "lat": 40.4098689, "lon": -3.6989966, "tags": {"amenity": "motorcycle_parking", "capacity": "9"}}, {"type": "node", "id": 6437074992, "lat": 40.4091778, "lon": -3.6955346, "tags": {"amenity": "motorcycle_parking", "capacity": "18"}}, {"type": "node", "id": 6437074993, "lat": 40.4122072, "lon": -3.6995562, "tags": {"amenity": "motorcycle_parking", "capacity": "12", "covered": "no"}}, {"type": "node", "id": 6437074994, "lat": 40.4113868, "lon": -3.7078945, "tags": {"amenity": "motorcycle_parking", "capacity": "27"}}, {"type": "node", "id": 6437074995, "lat": 40.4103188, "lon": -3.7023086, "tags": {"amenity": "motorcycle_parking", "capacity": "4"}}, {"type": "node", "id": 6437074996, "lat": 40.4086924, "lon": -3.7073976, "tags": {"amenity": "motorcycle_parking", "capacity": "9"}}, {"type": "node", "id": 6437074997, "lat": 40.4061674, "lon": -3.7016893, "tags": {"amenity": "motorcycle_parking", "capacity": "9", "covered": "no"}}, {"type": "node", "id": 6437074998, "lat": 40.410086, "lon": -3.7024005, "tags": {"amenity": "motorcycle_parking", "capacity": "9"}}, {"type": "node", "id": 6437074999, "lat": 40.4109755, "lon": -3.7028074, "tags": {"amenity": "motorcycle_parking", "capacity": "9"}}, {"type": "node", "id": 6437075000, "lat": 40.4067773, "lon": -3.7035352, "tags": {"amenity": "motorcycle_parking", "capacity": "4", "covered": "no"}}, {"type": "node", "id": 6437075001, "lat": 40.4086757, "lon": -3.7050222, "tags": {"amenity": "motorcycle_parking", "capacity": "9", "covered": "no"}}, {"type": "node", "id": 6437075002, "lat": 40.4102486, "lon": -3.706479, "tags": {"amenity": "motorcycle_parking", "capacity": "11"}}, {"type": "node", "id": 6437075003, "lat": 40.4105818, "lon": -3.7067801, "tags": {"amenity": "motorcycle_parking", "capacity": "14", "covered": "no"}}, {"type": "node", "id": 6437075004, "lat": 40.4117796, "lon": -3.7061157, "tags": {"amenity": "motorcycle_parking", "capacity": "18"}}, {"type": "node", "id": 6437075005, "lat": 40.40711, "lon": -3.6988435, "tags": {"amenity": "motorcycle_parking", "capacity": "14", "covered": "no"}}, {"type": "node", "id": 6437075006, "lat": 40.4128089, "lon": -3.7050571, "tags": {"amenity": "motorcycle_parking", "capacity": "18"}}, {"type": "node", "id": 6437075010, "lat": 40.4108987, "lon": -3.7074144, "tags": {"amenity": "motorcycle_parking", "capacity": "9"}}, {"type": "node", "id": 6437075012, "lat": 40.4100192, "lon": -3.7010261, "tags": {"amenity": "motorcycle_parking", "capacity": "9"}}, {"type": "node", "id": 6437075013, "lat": 40.4107486, "lon": -3.7007626, "tags": {"amenity": "motorcycle_parking", "capacity": "13"}}, {"type": "node", "id": 6437075014, "lat": 40.4080042, "lon": -3.6982824, "tags": {"amenity": "motorcycle_parking", "capacity": "19", "covered": "no"}}, {"type": "node", "id": 6437075015, "lat": 40.4083391, "lon": -3.700426, "tags": {"amenity": "motorcycle_parking", "capacity": "13", "covered": "no"}}, {"type": "node", "id": 6437075016, "lat": 40.4082801, "lon": -3.7000412, "tags": {"amenity": "motorcycle_parking", "capacity": "18", "covered": "no"}}, {"type": "node", "id": 6945961486, "lat": 40.4069256, "lon": -3.6962837, "tags": {"access": "yes", "amenity": "parking", "fee": "yes", "parking": "multi-storey"}}, {"type": "node", "id": 7981605362, "lat": 40.4088565, "lon": -3.7014316, "tags": {"addr:street": "Plaza de Lavapi\u00e9s", "amenity": "bicycle_parking", "bicycle_parking": "stands", "capacity": "6", "covered": "no", "name": "Aparcabicis Plaza de Lavapies"}}, {"type": "node", "id": 7981613065, "lat": 40.4054323, "lon": -3.7024409, "tags": {"addr:street": "Glorieta de Embajadores", "amenity": "bicycle_parking", "bicycle_parking": "stands", "capacity": "10", "covered": "no", "name": "Aparcabicis Glorieta de Embajadores"}}, {"type": "node", "id": 7981620335, "lat": 40.4072889, "lon": -3.7036123, "tags": {"addr:housenumber": "25", "addr:street": "Calle de Tribulete", "amenity": "bicycle_parking", "bicycle_parking": "stands", "capacity": "7", "covered": "no", "name": "Aparcabicis Calle Tribulete"}}, {"type": "node", "id": 9160301694, "lat": 40.4075922, "lon": -3.6955716}, {"type": "node", "id": 9160301711, "lat": 40.4074943, "lon": -3.696041}, {"type": "node", "id": 9160301732, "lat": 40.4087581, "lon": -3.6949945}, {"type": "node", "id": 9160301733, "lat": 40.4086852, "lon": -3.6948238}, {"type": "node", "id": 9160301734, "lat": 40.4081668, "lon": -3.6952181}, {"type": "node", "id": 9160301735, "lat": 40.4081515, "lon": -3.6951843}, {"type": "node", "id": 9160301736, "lat": 40.4080097, "lon": -3.6952695}, {"type": "node", "id": 9160301739, "lat": 40.4086058, "lon": -3.6951205, "tags": {"access": "private", "entrance": "yes"}}, {"type": "node", "id": 9161060656, "lat": 40.4074306, "lon": -3.6959121, "tags": {"access": "private", "barrier": "gate"}}, {"type": "node", "id": 9161060681, "lat": 40.4082977, "lon": -3.6951186}, {"type": "node", "id": 9161060682, "lat": 40.4083998, "lon": -3.6950409}, {"type": "node", "id": 9161060683, "lat": 40.408266, "lon": -3.6950549}, {"type": "node", "id": 9161060684, "lat": 40.4083731, "lon": -3.6949766}, {"type": "node", "id": 9162649494, "lat": 40.4078315, "lon": -3.695758}, {"type": "node", "id": 9162649495, "lat": 40.4079513, "lon": -3.6953118}, {"type": "node", "id": 9162649496, "lat": 40.4080594, "lon": -3.6955704}, {"type": "node", "id": 9870968908, "lat": 40.4121101, "lon": -3.7037568}, {"type": "node", "id": 9870968909, "lat": 40.4121557, "lon": -3.7035814}, {"type": "node", "id": 9870968910, "lat": 40.4120358, "lon": -3.7036462}, {"type": "node", "id": 9870968911, "lat": 40.4118732, "lon": -3.7035373}, {"type": "node", "id": 9870968912, "lat": 40.4118184, "lon": -3.7035185}, {"type": "way", "id": 386233535, "nodes": [3895592662, 3895592657, 3895585355, 3895592661, 3895592662], "tags": {"access": "yes", "amenity": "parking", "fee": "yes", "layer": "-1", "maxheight": "2", "name": "Parking Puerta de Toledo", "parking": "underground"}}, {"type": "way", "id": 991444056, "nodes": [9160301732, 9160301733, 9161060682, 9161060684, 9161060683, 9161060681, 9160301734, 9160301735, 9160301736, 9162649495, 9160301694, 2925397754, 2925397739, 9161060656, 9160301711, 9162649494, 9162649496, 9160301739, 9160301732], "tags": {"access": "private", "amenity": "parking"}}, {"type": "way", "id": 1076414226, "nodes": [2971950464, 9870968908, 9870968909, 2955144563, 9870968910, 9870968911, 9870968912, 2971950464], "tags": {"access": "customers", "amenity": "parking", "capacity": "10", "charge": "20", "fee": "yes", "layer": "-1", "operator": "2060 The Newton Hostel", "operator:type": "private", "parking": "underground", "payment:cash": "yes", "payment:credit_cards": "yes", "surface": "concrete"}}]}