{"version": 0.6, "generator": "Overpass API 0.7.58.5 b0c4acbb", "osm3s": {"timestamp_osm_base": "2022-09-01T20:59:29Z", "copyright": "The data included in this document is from www.openstreetmap.org. The data is made available under ODbL."}, "elements": [{"type": "node", "id": 544908412, "lat": 41.3973501, "lon": 2.1883318, "tags": {"address": "C Sancho de \u00c1vila 12", "amenity": "taxi", "website": "www.taxibarcelona.cat"}}, {"type": "node", "id": 794423318, "lat": 41.3963994, "lon": 2.1873044, "tags": {"address": "Av Meridiana 42", "amenity": "bicycle_parking", "capacity": "5", "fee": "no", "operator": "http://ajuntament.barcelona.cat/bicicleta/ca", "website": "http://ajuntament.barcelona.cat/bicicleta/ca"}}, {"type": "node", "id": 794507178, "lat": 41.3965337, "lon": 2.1872208, "tags": {"address": "Av Meridiana 42", "amenity": "taxi", "website": "www.taxibarcelona.cat"}}, {"type": "node", "id": 839472023, "lat": 41.3994281, "lon": 2.1927937}, {"type": "node", "id": 860172649, "lat": 41.3972862, "lon": 2.1929844}, {"type": "node", "id": 1624262730, "lat": 41.3980767, "lon": 2.1890225, "tags": {"access": "yes", "amenity": "parking_entrance", "fee": "yes", "parking": "underground"}}, {"type": "node", "id": 2292699434, "lat": 41.3959375, "lon": 2.1951455}, {"type": "node", "id": 2292699438, "lat": 41.396129, "lon": 2.1949001}, {"type": "node", "id": 2292699441, "lat": 41.3961499, "lon": 2.1954347}, {"type": "node", "id": 2292699446, "lat": 41.3962689, "lon": 2.1946539}, {"type": "node", "id": 2292699447, "lat": 41.3963466, "lon": 2.1951866}, {"type": "node", "id": 2292699449, "lat": 41.3963469, "lon": 2.1947568}, {"type": "node", "id": 4280661017, "lat": 41.4001439, "lon": 2.1939931}, {"type": "node", "id": 4280661020, "lat": 41.400296, "lon": 2.1937936}, {"type": "node", "id": 4322556795, "lat": 41.397926, "lon": 2.1898136, "tags": {"amenity": "bicycle_parking", "capacity": "10"}}, {"type": "node", "id": 4327749892, "lat": 41.3967894, "lon": 2.1873167, "tags": {"address": "C Sancho de \u00c1vila 1", "amenity": "bicycle_parking", "capacity": "10", "operator": "http://ajuntament.barcelona.cat/bicicleta/ca", "website": "http://ajuntament.barcelona.cat/bicicleta/ca"}}, {"type": "node", "id": 4340445379, "lat": 41.4001482, "lon": 2.1935914}, {"type": "node", "id": 4340445383, "lat": 41.4000798, "lon": 2.193678}, {"type": "node", "id": 4340451032, "lat": 41.3994674, "lon": 2.1926912}, {"type": "node", "id": 4380551937, "lat": 41.4031087, "lon": 2.1901337, "tags": {"amenity": "parking_entrance", "fee": "yes", "maxheight": "2.2", "name": "BSM Aparcament. Dip\u00f3sit Grua", "parking": "underground"}}, {"type": "node", "id": 4393353435, "lat": 41.4029178, "lon": 2.1934191, "tags": {"amenity": "motorcycle_parking"}}, {"type": "node", "id": 4393356914, "lat": 41.4028072, "lon": 2.1931482, "tags": {"amenity": "motorcycle_parking"}}, {"type": "node", "id": 4454217711, "lat": 41.3966482, "lon": 2.1890806, "tags": {"access": "yes", "amenity": "parking_entrance", "fee": "yes", "parking": "underground"}}, {"type": "node", "id": 4687106878, "lat": 41.3965488, "lon": 2.1889534, "tags": {"amenity": "parking_entrance"}}, {"type": "node", "id": 4689134967, "lat": 41.402878, "lon": 2.1945576, "tags": {"amenity": "charging_station", "capacity": "2", "operator": "Ajuntament de Barcelona"}}, {"type": "node", "id": 4897577034, "lat": 41.3964008, "lon": 2.1950815}, {"type": "node", "id": 4897577035, "lat": 41.3964773, "lon": 2.1949334}, {"type": "node", "id": 4897577037, "lat": 41.3961838, "lon": 2.1948017}, {"type": "node", "id": 4965434428, "lat": 41.3972542, "lon": 2.1901924, "tags": {"amenity": "bicycle_parking", "capacity": "20"}}, {"type": "node", "id": 5192158722, "lat": 41.397048, "lon": 2.1947073, "tags": {"access": "yes", "address": "C Pujades 106", "amenity": "bicycle_parking", "bicycle_parking": "stands", "capacity": "10", "covered": "no", "fee": "no", "mapillary": "TETJcsH7afzQ5ylAIcPFAg", "operator": "http://ajuntament.barcelona.cat/bicicleta/ca", "survey:date": "2017-11-29", "website": "http://ajuntament.barcelona.cat/bicicleta/ca"}}, {"type": "node", "id": 5192190021, "lat": 41.3970845, "lon": 2.1953363, "tags": {"access": "yes", "address": "C \u00c0vila 71", "amenity": "bicycle_parking", "capacity": "10", "covered": "no", "fee": "no", "operator": "http://ajuntament.barcelona.cat/bicicleta/ca", "website": "http://ajuntament.barcelona.cat/bicicleta/ca"}}, {"type": "node", "id": 5772791454, "lat": 41.4000794, "lon": 2.1939126}, {"type": "node", "id": 6121342563, "lat": 41.3995754, "lon": 2.1958401, "tags": {"access": "private", "amenity": "parking_entrance"}}, {"type": "node", "id": 6123559746, "lat": 41.3968154, "lon": 2.1957433, "tags": {"access": "private", "amenity": "parking_entrance"}}, {"type": "node", "id": 6123559752, "lat": 41.3975341, "lon": 2.1953897, "tags": {"access": "private", "amenity": "parking_entrance"}}, {"type": "node", "id": 6123559784, "lat": 41.3978868, "lon": 2.1958603, "tags": {"access": "customers", "amenity": "parking_entrance"}}, {"type": "node", "id": 6124130632, "lat": 41.3974599, "lon": 2.1930592}, {"type": "node", "id": 6124130643, "lat": 41.3974424, "lon": 2.1930956}, {"type": "node", "id": 6124130644, "lat": 41.3974827, "lon": 2.1930115}, {"type": "node", "id": 6124130654, "lat": 41.397464, "lon": 2.1929859}, {"type": "node", "id": 6124130656, "lat": 41.3974066, "lon": 2.1931701}, {"type": "node", "id": 6124130664, "lat": 41.3972457, "lon": 2.1930382}, {"type": "node", "id": 6124160307, "lat": 41.3971901, "lon": 2.1946078, "tags": {"access": "private", "amenity": "parking_entrance", "entrance": "yes"}}, {"type": "node", "id": 6124160377, "lat": 41.3973987, "lon": 2.1934462, "tags": {"access": "private", "amenity": "parking_entrance"}}, {"type": "node", "id": 6124160379, "lat": 41.3969167, "lon": 2.1934792, "tags": {"access": "private", "addr:housenumber": "70-82", "addr:street": "Carrer d'\u00c0laba", "amenity": "parking_entrance"}}, {"type": "node", "id": 6124160380, "lat": 41.3967193, "lon": 2.1938593, "tags": {"access": "private", "addr:housenumber": "69-79", "addr:street": "Carrer de Pujades", "amenity": "parking_entrance"}}, {"type": "node", "id": 6124160381, "lat": 41.3968488, "lon": 2.1941555, "tags": {"access": "private", "amenity": "parking_entrance"}}, {"type": "node", "id": 6124160382, "lat": 41.3969279, "lon": 2.1942605, "tags": {"access": "private", "amenity": "parking_entrance"}}, {"type": "node", "id": 6124244285, "lat": 41.3966191, "lon": 2.194183, "tags": {"access": "private", "amenity": "parking_entrance"}}, {"type": "node", "id": 6124244305, "lat": 41.3961436, "lon": 2.1948733}, {"type": "node", "id": 6124244336, "lat": 41.3959946, "lon": 2.1952232, "tags": {"access": "private", "amenity": "parking_entrance"}}, {"type": "node", "id": 6124244337, "lat": 41.3960995, "lon": 2.1953661, "tags": {"access": "private", "amenity": "parking_entrance"}}, {"type": "node", "id": 6124244350, "lat": 41.3969521, "lon": 2.1952268, "tags": {"access": "private", "amenity": "parking_entrance"}}, {"type": "node", "id": 6124244351, "lat": 41.3970438, "lon": 2.1951038, "tags": {"access": "private", "amenity": "parking_entrance"}}, {"type": "node", "id": 6125106858, "lat": 41.3960126, "lon": 2.1943513, "tags": {"access": "private", "amenity": "parking_entrance"}}, {"type": "node", "id": 6125106860, "lat": 41.396216, "lon": 2.1940793, "tags": {"access": "private", "amenity": "parking_entrance"}}, {"type": "node", "id": 6125106862, "lat": 41.3960929, "lon": 2.1934841, "tags": {"access": "private", "amenity": "parking_entrance"}}, {"type": "node", "id": 6126818996, "lat": 41.396054, "lon": 2.1912658, "tags": {"access": "private", "amenity": "parking_entrance"}}, {"type": "node", "id": 6126847654, "lat": 41.397163, "lon": 2.1926623, "tags": {"access": "customers", "amenity": "parking_entrance"}}, {"type": "node", "id": 6133245833, "lat": 41.4009883, "lon": 2.1954538, "tags": {"access": "private", "amenity": "parking_entrance"}}, {"type": "node", "id": 6133245836, "lat": 41.4011593, "lon": 2.1962357, "tags": {"access": "customers", "amenity": "parking_entrance"}}, {"type": "node", "id": 6133307715, "lat": 41.3996455, "lon": 2.1942556, "tags": {"access": "private", "amenity": "parking_entrance"}}, {"type": "node", "id": 6133307721, "lat": 41.4002358, "lon": 2.1944528, "tags": {"access": "private", "amenity": "parking_entrance"}}, {"type": "node", "id": 6138968469, "lat": 41.3978975, "lon": 2.1921661, "tags": {"access": "customers", "amenity": "parking_entrance"}}, {"type": "node", "id": 6139033084, "lat": 41.3971824, "lon": 2.1908575, "tags": {"access": "private", "amenity": "parking_entrance"}}, {"type": "node", "id": 6139033202, "lat": 41.3971669, "lon": 2.1920955, "tags": {"access": "private", "amenity": "parking_entrance", "barrier": "gate"}}, {"type": "node", "id": 6139197919, "lat": 41.3961736, "lon": 2.1908686, "tags": {"access": "private", "amenity": "parking_entrance"}}, {"type": "node", "id": 6139197920, "lat": 41.3961144, "lon": 2.1908095, "tags": {"access": "private", "amenity": "parking_entrance"}}, {"type": "node", "id": 6139248231, "lat": 41.3957301, "lon": 2.189956, "tags": {"access": "private", "amenity": "parking_entrance"}}, {"type": "node", "id": 6139248440, "lat": 41.3956648, "lon": 2.1900394, "tags": {"access": "private", "amenity": "parking_entrance"}}, {"type": "node", "id": 6139343199, "lat": 41.3952616, "lon": 2.1884378, "tags": {"access": "private", "amenity": "parking_entrance"}}, {"type": "node", "id": 6139343200, "lat": 41.3952985, "lon": 2.1877859, "tags": {"access": "private", "amenity": "parking_entrance"}}, {"type": "node", "id": 6139343203, "lat": 41.3951304, "lon": 2.1875593, "tags": {"access": "private", "addr:housenumber": "68-70", "addr:postcode": "08018", "addr:street": "Carrer dels Almog\u00e0vers", "amenity": "parking_entrance"}}, {"type": "node", "id": 6181684795, "lat": 41.3954598, "lon": 2.1876646, "tags": {"access": "private", "amenity": "parking_entrance"}}, {"type": "node", "id": 6181684800, "lat": 41.3959973, "lon": 2.1874839, "tags": {"access": "private", "amenity": "parking_entrance"}}, {"type": "node", "id": 6181684801, "lat": 41.3960317, "lon": 2.1874392, "tags": {"access": "private", "amenity": "parking_entrance"}}, {"type": "node", "id": 6181746422, "lat": 41.3961477, "lon": 2.1876227, "tags": {"access": "private", "amenity": "parking_entrance"}}, {"type": "node", "id": 6407487943, "lat": 41.3968931, "lon": 2.1895981, "tags": {"access": "private", "amenity": "parking_entrance"}}, {"type": "node", "id": 6407487971, "lat": 41.3977082, "lon": 2.1890911, "tags": {"access": "private", "amenity": "parking_entrance"}}, {"type": "node", "id": 6407487973, "lat": 41.3975868, "lon": 2.1886607, "tags": {"access": "private", "amenity": "parking_entrance"}}, {"type": "node", "id": 6407520053, "lat": 41.3985536, "lon": 2.1899542, "tags": {"access": "private", "amenity": "parking_entrance"}}, {"type": "node", "id": 6416001331, "lat": 41.3995778, "lon": 2.1913254, "tags": {"access": "private", "amenity": "parking_entrance"}}, {"type": "node", "id": 6416001332, "lat": 41.3996325, "lon": 2.1916996, "tags": {"access": "private", "amenity": "parking_entrance"}}, {"type": "node", "id": 6416001333, "lat": 41.3994221, "lon": 2.1919743, "tags": {"access": "private", "amenity": "parking_entrance"}}, {"type": "node", "id": 6416001334, "lat": 41.3995003, "lon": 2.1918721, "tags": {"access": "private", "amenity": "parking_entrance"}}, {"type": "node", "id": 6416164463, "lat": 41.4001979, "lon": 2.193197, "tags": {"access": "private", "amenity": "parking_entrance"}}, {"type": "node", "id": 6416164483, "lat": 41.399272, "lon": 2.1928353}, {"type": "node", "id": 6416165585, "lat": 41.3993824, "lon": 2.1928403}, {"type": "node", "id": 6416165590, "lat": 41.3994217, "lon": 2.1926279}, {"type": "node", "id": 6416165593, "lat": 41.3994328, "lon": 2.1928351}, {"type": "node", "id": 6416165596, "lat": 41.3994599, "lon": 2.1926807}, {"type": "node", "id": 6416165604, "lat": 41.3993959, "lon": 2.1929255}, {"type": "node", "id": 6416165605, "lat": 41.3994221, "lon": 2.1927855}, {"type": "node", "id": 6416165609, "lat": 41.3993597, "lon": 2.1928927}, {"type": "node", "id": 6416165624, "lat": 41.3994213, "lon": 2.1928351}, {"type": "node", "id": 6416165639, "lat": 41.3993909, "lon": 2.1925856}, {"type": "node", "id": 6416165644, "lat": 41.3992347, "lon": 2.1927852}, {"type": "node", "id": 6416165648, "lat": 41.3992397, "lon": 2.1925821}, {"type": "node", "id": 6416471011, "lat": 41.4028435, "lon": 2.1968085, "tags": {"access": "private", "amenity": "parking_entrance"}}, {"type": "node", "id": 6535101485, "lat": 41.4013967, "lon": 2.1941375, "tags": {"amenity": "bicycle_parking", "bicycle_parking": "stands", "mapillary": "klw5aWOmLgPIbqcLz4lhoQ", "survey:date": "2020-05-03"}}, {"type": "node", "id": 6933373003, "lat": 41.40325, "lon": 2.18855, "tags": {"address": "Pl Santiago Pey 1", "amenity": "bicycle_parking", "capacity": "10", "operator": "http://ajuntament.barcelona.cat/bicicleta/ca", "website": "http://ajuntament.barcelona.cat/bicicleta/ca"}}, {"type": "node", "id": 6933374488, "lat": 41.40206, "lon": 2.1887, "tags": {"address": "C \u00c0vila 171", "amenity": "bicycle_parking", "bicycle_parking": "stands", "mapillary": "8xeTjocVj0lM2agen6VTOg", "operator": "http://ajuntament.barcelona.cat/bicicleta/ca", "survey:date": "2020-05-07", "website": "http://ajuntament.barcelona.cat/bicicleta/ca"}}, {"type": "node", "id": 6933374695, "lat": 41.40157, "lon": 2.19362, "tags": {"address": "C Sancho de \u00c1vila 115", "amenity": "bicycle_parking", "operator": "http://ajuntament.barcelona.cat/bicicleta/ca", "website": "http://ajuntament.barcelona.cat/bicicleta/ca"}}, {"type": "node", "id": 6933374995, "lat": 41.39584, "lon": 2.19076, "tags": {"address": "C Pallars 102", "amenity": "bicycle_parking", "operator": "http://ajuntament.barcelona.cat/bicicleta/ca", "website": "http://ajuntament.barcelona.cat/bicicleta/ca"}}, {"type": "node", "id": 6933376191, "lat": 41.40278, "lon": 2.19213, "tags": {"address": "C Ciutat de Granada 127", "amenity": "bicycle_parking", "bicycle_parking": "stands", "capacity": "14", "covered": "no", "operator": "http://ajuntament.barcelona.cat/bicicleta/ca", "website": "http://ajuntament.barcelona.cat/bicicleta/ca"}}, {"type": "node", "id": 6933487011, "lat": 41.40133, "lon": 2.19402, "tags": {"address": "C Ciutat de Granada 109", "amenity": "bicycle_parking", "bicycle_parking": "stands", "mapillary": "GgmvW9yJV5Q2S_WjVAgNzQ", "operator": "http://ajuntament.barcelona.cat/bicicleta/ca", "survey:date": "2019-04-26", "website": "http://ajuntament.barcelona.cat/bicicleta/ca"}}, {"type": "node", "id": 6933487086, "lat": 41.40233, "lon": 2.19475, "tags": {"address": "C Sancho de \u00c1vila 148", "amenity": "bicycle_parking", "operator": "http://ajuntament.barcelona.cat/bicicleta/ca", "website": "http://ajuntament.barcelona.cat/bicicleta/ca"}}, {"type": "node", "id": 6933487910, "lat": 41.40015, "lon": 2.18974, "tags": {"address": "C T\u00e0nger 44", "amenity": "bicycle_parking", "operator": "http://ajuntament.barcelona.cat/bicicleta/ca", "website": "http://ajuntament.barcelona.cat/bicicleta/ca"}}, {"type": "node", "id": 6933490619, "lat": 41.40117, "lon": 2.19113, "tags": {"address": "C T\u00e0nger 62", "amenity": "bicycle_parking", "operator": "http://ajuntament.barcelona.cat/bicicleta/ca", "website": "http://ajuntament.barcelona.cat/bicicleta/ca"}}, {"type": "node", "id": 6933490923, "lat": 41.40298, "lon": 2.19335, "tags": {"address": "C T\u00e0nger 97", "amenity": "bicycle_parking", "capacity": "10", "operator": "http://ajuntament.barcelona.cat/bicicleta/ca", "website": "http://ajuntament.barcelona.cat/bicicleta/ca"}}, {"type": "node", "id": 6933490924, "lat": 41.40174, "lon": 2.19153, "tags": {"address": "C Badajoz 144", "amenity": "bicycle_parking", "bicycle_parking": "stands", "covered": "no", "operator": "http://ajuntament.barcelona.cat/bicicleta/ca", "website": "http://ajuntament.barcelona.cat/bicicleta/ca"}}, {"type": "node", "id": 6933490925, "lat": 41.39758, "lon": 2.18861, "tags": {"address": "C Sancho de \u00c1vila 22", "amenity": "bicycle_parking", "operator": "http://ajuntament.barcelona.cat/bicicleta/ca", "website": "http://ajuntament.barcelona.cat/bicicleta/ca"}}, {"type": "node", "id": 6933490935, "lat": 41.40134, "lon": 2.19621, "tags": {"address": "C Roc Boronat 97", "amenity": "bicycle_parking", "operator": "http://ajuntament.barcelona.cat/bicicleta/ca", "website": "http://ajuntament.barcelona.cat/bicicleta/ca"}}, {"type": "node", "id": 6933490938, "lat": 41.3967, "lon": 2.19344, "tags": {"address": "C \u00c0laba 67", "amenity": "bicycle_parking", "operator": "http://ajuntament.barcelona.cat/bicicleta/ca", "website": "http://ajuntament.barcelona.cat/bicicleta/ca"}}, {"type": "node", "id": 6933490940, "lat": 41.39717, "lon": 2.19323, "tags": {"address": "C \u00c0laba 84", "amenity": "bicycle_parking", "bicycle_parking": "ground_slots", "mapillary": "H_Y1BF1UHbyWIr6sfGMiWg", "operator": "http://ajuntament.barcelona.cat/bicicleta/ca", "survey:date": "2019-04-26", "website": "http://ajuntament.barcelona.cat/bicicleta/ca"}}, {"type": "node", "id": 6933492826, "lat": 41.3972149, "lon": 2.1902649, "tags": {"addr:full": "C Almog\u00e0vers 119", "amenity": "bicycle_parking", "operator": "http://ajuntament.barcelona.cat/bicicleta/ca", "website": "http://ajuntament.barcelona.cat/bicicleta/ca"}}, {"type": "node", "id": 6933492976, "lat": 41.40182, "lon": 2.19403, "tags": {"address": "C Sancho de \u00c1vila 123", "amenity": "bicycle_parking", "operator": "http://ajuntament.barcelona.cat/bicicleta/ca", "website": "http://ajuntament.barcelona.cat/bicicleta/ca"}}, {"type": "node", "id": 6933494029, "lat": 41.40255, "lon": 2.18924, "tags": {"address": "C Badajoz 187", "amenity": "bicycle_parking", "bicycle_parking": "stands", "capacity": "10", "covered": "no", "mapillary": "3uxQ4jWQ0OD_yQvxhh6mYw", "operator": "http://ajuntament.barcelona.cat/bicicleta/ca", "survey:date": "2020-05-07", "website": "http://ajuntament.barcelona.cat/bicicleta/ca"}}, {"type": "node", "id": 6933494030, "lat": 41.40246, "lon": 2.18912, "tags": {"address": "C Badajoz 187", "amenity": "bicycle_parking", "bicycle_parking": "stands", "capacity": "10", "covered": "no", "mapillary": "j4sFILSsRnQc6IW5FeaiiQ", "operator": "http://ajuntament.barcelona.cat/bicicleta/ca", "survey:date": "2020-05-07", "website": "http://ajuntament.barcelona.cat/bicicleta/ca"}}, {"type": "node", "id": 6933494031, "lat": 41.4022, "lon": 2.18877, "tags": {"address": "C \u00c0vila 164", "amenity": "bicycle_parking", "bicycle_parking": "stands", "mapillary": "zSWM6cnIIYBe7vEfb3aXYQ", "operator": "http://ajuntament.barcelona.cat/bicicleta/ca", "survey:date": "2020-05-07", "website": "http://ajuntament.barcelona.cat/bicicleta/ca"}}, {"type": "node", "id": 6933494086, "lat": 41.40038, "lon": 2.19009, "tags": {"address": "C T\u00e0nger 50", "amenity": "bicycle_parking", "operator": "http://ajuntament.barcelona.cat/bicicleta/ca", "website": "http://ajuntament.barcelona.cat/bicicleta/ca"}}, {"type": "node", "id": 6933494689, "lat": 41.40182, "lon": 2.19404, "tags": {"address": "C Sancho de \u00c1vila 123", "amenity": "bicycle_parking", "capacity": "8", "operator": "http://ajuntament.barcelona.cat/bicicleta/ca", "website": "http://ajuntament.barcelona.cat/bicicleta/ca"}}, {"type": "node", "id": 6933494695, "lat": 41.40222, "lon": 2.18892, "tags": {"address": "C \u00c0vila 164", "amenity": "bicycle_parking", "bicycle_parking": "stands", "capacity": "10", "mapillary": "8hZ_A8tjGq0Dh-xqKK2NJQ", "operator": "http://ajuntament.barcelona.cat/bicicleta/ca", "survey:date": "2020-05-07", "website": "http://ajuntament.barcelona.cat/bicicleta/ca"}}, {"type": "node", "id": 6933502326, "lat": 41.40315, "lon": 2.18868, "tags": {"address": "Pl Santiago Pey 1", "amenity": "bicycle_parking", "operator": "http://ajuntament.barcelona.cat/bicicleta/ca", "website": "http://ajuntament.barcelona.cat/bicicleta/ca"}}, {"type": "node", "id": 6933502327, "lat": 41.40237, "lon": 2.189, "tags": {"address": "Pl Gl\u00f2ries Catalanes 25", "amenity": "bicycle_parking", "bicycle_parking": "stands", "capacity": "10", "covered": "no", "mapillary": "w-fvEqhlfLCW0UFRuoXZDg", "operator": "http://ajuntament.barcelona.cat/bicicleta/ca", "survey:date": "2020-05-07", "website": "http://ajuntament.barcelona.cat/bicicleta/ca"}}, {"type": "node", "id": 6933502328, "lat": 41.40229, "lon": 2.18889, "tags": {"address": "C \u00c0vila 164", "amenity": "bicycle_parking", "bicycle_parking": "stands", "capacity": "10", "mapillary": "8hZ_A8tjGq0Dh-xqKK2NJQ", "operator": "http://ajuntament.barcelona.cat/bicicleta/ca", "survey:date": "2020-05-07", "website": "http://ajuntament.barcelona.cat/bicicleta/ca"}}, {"type": "node", "id": 6933502329, "lat": 41.40178, "lon": 2.18705, "tags": {"address": "C \u00c0laba 160", "amenity": "bicycle_parking", "operator": "http://ajuntament.barcelona.cat/bicicleta/ca", "website": "http://ajuntament.barcelona.cat/bicicleta/ca"}}, {"type": "node", "id": 6933504185, "lat": 41.40205, "lon": 2.18841, "tags": {"address": "C \u00c0vila 171", "amenity": "bicycle_parking", "capacity": "20", "operator": "http://ajuntament.barcelona.cat/bicicleta/ca", "website": "http://ajuntament.barcelona.cat/bicicleta/ca"}}, {"type": "node", "id": 6933504534, "lat": 41.40183, "lon": 2.1943, "tags": {"address": "C Sancho de \u00c1vila 134", "amenity": "bicycle_parking", "bicycle_parking": "stands", "capacity": "10", "covered": "no", "operator": "http://ajuntament.barcelona.cat/bicicleta/ca", "website": "http://ajuntament.barcelona.cat/bicicleta/ca"}}, {"type": "node", "id": 6933504706, "lat": 41.39868, "lon": 2.19101, "tags": {"address": "C \u00c0laba 108", "amenity": "bicycle_parking", "operator": "http://ajuntament.barcelona.cat/bicicleta/ca", "website": "http://ajuntament.barcelona.cat/bicicleta/ca"}}, {"type": "node", "id": 6933504715, "lat": 41.39643, "lon": 2.19261, "tags": {"address": "C Pere IV 62", "amenity": "bicycle_parking", "operator": "http://ajuntament.barcelona.cat/bicicleta/ca", "website": "http://ajuntament.barcelona.cat/bicicleta/ca"}}, {"type": "node", "id": 6933504716, "lat": 41.39799, "lon": 2.18967, "tags": {"address": "C Pamplona 104", "amenity": "bicycle_parking", "bicycle_parking": "stands", "mapillary": "5lFsDOG_9e354GNzhl1fJA", "operator": "http://ajuntament.barcelona.cat/bicicleta/ca", "survey:date": "2019-04-26", "website": "http://ajuntament.barcelona.cat/bicicleta/ca"}}, {"type": "node", "id": 6933504756, "lat": 41.40038, "lon": 2.19072, "tags": {"address": "C \u00c0vila 141", "amenity": "bicycle_parking", "operator": "http://ajuntament.barcelona.cat/bicicleta/ca", "website": "http://ajuntament.barcelona.cat/bicicleta/ca"}}, {"type": "node", "id": 6933504757, "lat": 41.39847, "lon": 2.19344, "tags": {"address": "C \u00c0vila 99", "amenity": "bicycle_parking", "bicycle_parking": "ground_slots", "mapillary": "VrmtdIilzxuX15I2vF_nuw", "operator": "http://ajuntament.barcelona.cat/bicicleta/ca", "survey:date": "2019-04-26", "website": "http://ajuntament.barcelona.cat/bicicleta/ca"}}, {"type": "node", "id": 6933504776, "lat": 41.40076, "lon": 2.19015, "tags": {"address": "C \u00c0vila 145", "amenity": "bicycle_parking", "operator": "http://ajuntament.barcelona.cat/bicicleta/ca", "website": "http://ajuntament.barcelona.cat/bicicleta/ca"}}, {"type": "node", "id": 6933505033, "lat": 41.40286, "lon": 2.19668, "tags": {"address": "C Llacuna 96", "amenity": "bicycle_parking", "operator": "http://ajuntament.barcelona.cat/bicicleta/ca", "website": "http://ajuntament.barcelona.cat/bicicleta/ca"}}, {"type": "node", "id": 6933505034, "lat": 41.39526, "lon": 2.18865, "tags": {"address": "C Joan d'\u00c0ustria 110", "amenity": "bicycle_parking", "operator": "http://ajuntament.barcelona.cat/bicicleta/ca", "website": "http://ajuntament.barcelona.cat/bicicleta/ca"}}, {"type": "node", "id": 6933505041, "lat": 41.40052, "lon": 2.19529, "tags": {"address": "C Ciutat de Granada 91", "amenity": "bicycle_parking", "operator": "http://ajuntament.barcelona.cat/bicicleta/ca", "website": "http://ajuntament.barcelona.cat/bicicleta/ca"}}, {"type": "node", "id": 6933505045, "lat": 41.40269, "lon": 2.19069, "tags": {"address": "C Bol\u00edvia 45", "amenity": "bicycle_parking", "operator": "http://ajuntament.barcelona.cat/bicicleta/ca", "website": "http://ajuntament.barcelona.cat/bicicleta/ca"}}, {"type": "node", "id": 6933505048, "lat": 41.39933, "lon": 2.19232, "tags": {"address": "C \u00c0vila 110", "amenity": "bicycle_parking", "bicycle_parking": "stands", "mapillary": "tLrmSDc_vY_wZIPa-4VfAw", "operator": "http://ajuntament.barcelona.cat/bicicleta/ca", "survey:date": "2019-04-26", "website": "http://ajuntament.barcelona.cat/bicicleta/ca"}}, {"type": "node", "id": 6933505068, "lat": 41.3963776, "lon": 2.1915537, "tags": {"address": "C Pamplona 83", "amenity": "bicycle_parking", "operator": "http://ajuntament.barcelona.cat/bicicleta/ca", "website": "http://ajuntament.barcelona.cat/bicicleta/ca"}}, {"type": "node", "id": 6933505082, "lat": 41.3955, "lon": 2.19001, "tags": {"address": "C Pallars 91", "amenity": "bicycle_parking", "operator": "http://ajuntament.barcelona.cat/bicicleta/ca", "website": "http://ajuntament.barcelona.cat/bicicleta/ca"}}, {"type": "node", "id": 6933505129, "lat": 41.3961, "lon": 2.19446, "tags": {"address": "C \u00c0laba 60", "amenity": "bicycle_parking", "capacity": "10", "operator": "http://ajuntament.barcelona.cat/bicicleta/ca", "website": "http://ajuntament.barcelona.cat/bicicleta/ca"}}, {"type": "node", "id": 6933505404, "lat": 41.40291, "lon": 2.19446, "tags": {"address": "C Roc Boronat 124", "amenity": "bicycle_parking", "bicycle_parking": "stands", "capacity": "10", "covered": "no", "operator": "http://ajuntament.barcelona.cat/bicicleta/ca", "website": "http://ajuntament.barcelona.cat/bicicleta/ca"}}, {"type": "node", "id": 6933505424, "lat": 41.39946, "lon": 2.18975, "tags": {"address": "C \u00c0laba 123", "amenity": "bicycle_parking", "capacity": "6", "operator": "http://ajuntament.barcelona.cat/bicicleta/ca", "website": "http://ajuntament.barcelona.cat/bicicleta/ca"}}, {"type": "node", "id": 6933505431, "lat": 41.40009, "lon": 2.19649, "tags": {"address": "C Pallars 172", "amenity": "bicycle_parking", "operator": "http://ajuntament.barcelona.cat/bicicleta/ca", "website": "http://ajuntament.barcelona.cat/bicicleta/ca"}}, {"type": "node", "id": 6933505496, "lat": 41.39788, "lon": 2.19558, "tags": {"address": "C Pujades 93", "amenity": "bicycle_parking", "operator": "http://ajuntament.barcelona.cat/bicicleta/ca", "website": "http://ajuntament.barcelona.cat/bicicleta/ca"}}, {"type": "node", "id": 6933505497, "lat": 41.3957, "lon": 2.19247, "tags": {"address": "C Pujades 57", "amenity": "bicycle_parking", "operator": "http://ajuntament.barcelona.cat/bicicleta/ca", "website": "http://ajuntament.barcelona.cat/bicicleta/ca"}}, {"type": "node", "id": 6933505529, "lat": 41.40012, "lon": 2.19581, "tags": {"address": "C Ciutat de Granada 90", "amenity": "bicycle_parking", "operator": "http://ajuntament.barcelona.cat/bicicleta/ca", "website": "http://ajuntament.barcelona.cat/bicicleta/ca"}}, {"type": "node", "id": 6933505550, "lat": 41.40337, "lon": 2.18863, "tags": {"address": "C Badajoz 175", "amenity": "bicycle_parking", "bicycle_parking": "stands", "capacity": "8", "covered": "no", "operator": "http://ajuntament.barcelona.cat/bicicleta/ca", "website": "http://ajuntament.barcelona.cat/bicicleta/ca"}}, {"type": "node", "id": 6933505576, "lat": 41.39976, "lon": 2.19627, "tags": {"address": "C Ciutat de Granada 81", "amenity": "bicycle_parking", "operator": "http://ajuntament.barcelona.cat/bicicleta/ca", "website": "http://ajuntament.barcelona.cat/bicicleta/ca"}}, {"type": "node", "id": 6933509486, "lat": 41.3962019, "lon": 2.1895817, "tags": {"address": "C Zamora 90", "amenity": "bicycle_parking", "operator": "http://ajuntament.barcelona.cat/bicicleta/ca", "website": "http://ajuntament.barcelona.cat/bicicleta/ca"}}, {"type": "node", "id": 6933509488, "lat": 41.39929, "lon": 2.19543, "tags": {"address": "C Pallars 156", "amenity": "bicycle_parking", "operator": "http://ajuntament.barcelona.cat/bicicleta/ca", "website": "http://ajuntament.barcelona.cat/bicicleta/ca"}}, {"type": "node", "id": 6933509489, "lat": 41.39785, "lon": 2.19355, "tags": {"address": "C Pallars 138", "amenity": "bicycle_parking", "operator": "http://ajuntament.barcelona.cat/bicicleta/ca", "website": "http://ajuntament.barcelona.cat/bicicleta/ca"}}, {"type": "node", "id": 6933509503, "lat": 41.40098, "lon": 2.18863, "tags": {"address": "C Bol\u00edvia 12", "amenity": "bicycle_parking", "operator": "http://ajuntament.barcelona.cat/bicicleta/ca", "website": "http://ajuntament.barcelona.cat/bicicleta/ca"}}, {"type": "node", "id": 6933509507, "lat": 41.40183, "lon": 2.19339, "tags": {"address": "C Ciutat de Granada 113", "amenity": "bicycle_parking", "bicycle_parking": "stands", "capacity": "8", "covered": "no", "operator": "http://ajuntament.barcelona.cat/bicicleta/ca", "website": "http://ajuntament.barcelona.cat/bicicleta/ca"}}, {"type": "node", "id": 6933509872, "lat": 41.39918, "lon": 2.19051, "tags": {"address": "C \u00c0laba 122", "amenity": "bicycle_parking", "operator": "http://ajuntament.barcelona.cat/bicicleta/ca", "website": "http://ajuntament.barcelona.cat/bicicleta/ca"}}, {"type": "node", "id": 6933511586, "lat": 41.39682, "lon": 2.19101, "tags": {"address": "C Pamplona 91", "amenity": "bicycle_parking", "operator": "http://ajuntament.barcelona.cat/bicicleta/ca", "website": "http://ajuntament.barcelona.cat/bicicleta/ca"}}, {"type": "node", "id": 6933511617, "lat": 41.39918, "lon": 2.19052, "tags": {"address": "C \u00c0laba 122", "amenity": "bicycle_parking", "capacity": "6", "operator": "http://ajuntament.barcelona.cat/bicicleta/ca", "website": "http://ajuntament.barcelona.cat/bicicleta/ca"}}, {"type": "node", "id": 6933520093, "lat": 41.39616, "lon": 2.19551, "tags": {"address": "C Llull 93", "amenity": "bicycle_parking", "bicycle_parking": "stands", "capacity": "10", "covered": "no", "operator": "http://ajuntament.barcelona.cat/bicicleta/ca", "website": "http://ajuntament.barcelona.cat/bicicleta/ca"}}, {"type": "node", "id": 6933521893, "lat": 41.40085, "lon": 2.19276, "tags": {"address": "C Badajoz 126", "amenity": "bicycle_parking", "operator": "http://ajuntament.barcelona.cat/bicicleta/ca", "website": "http://ajuntament.barcelona.cat/bicicleta/ca"}}, {"type": "node", "id": 6933522087, "lat": 41.40001, "lon": 2.19596, "tags": {"address": "C Ciutat de Granada 88", "amenity": "bicycle_parking", "operator": "http://ajuntament.barcelona.cat/bicicleta/ca", "website": "http://ajuntament.barcelona.cat/bicicleta/ca"}}, {"type": "node", "id": 6973951286, "lat": 41.39771, "lon": 2.1908, "tags": {"address": "C Almog\u00e0vers 125", "amenity": "taxi", "website": "www.taxibarcelona.cat"}}, {"type": "node", "id": 6973988507, "lat": 41.40345, "lon": 2.19127, "tags": {"address": "C Ciutat de Granada 143", "amenity": "taxi", "website": "www.taxibarcelona.cat"}}, {"type": "node", "id": 6974004802, "lat": 41.40242, "lon": 2.19249, "tags": {"address": "C T\u00e0nger 89", "amenity": "taxi", "website": "www.taxibarcelona.cat"}}, {"type": "node", "id": 6974004803, "lat": 41.39719, "lon": 2.19271, "tags": {"address": "C \u00c0laba 75", "amenity": "taxi", "website": "www.taxibarcelona.cat"}}, {"type": "node", "id": 6974009312, "lat": 41.4032, "lon": 2.19628, "tags": {"address": "C Sancho de \u00c1vila 172", "amenity": "taxi", "website": "www.taxibarcelona.cat"}}, {"type": "node", "id": 6974013791, "lat": 41.40112, "lon": 2.19435, "tags": {"address": "C Ciutat de Granada 99", "amenity": "taxi", "website": "www.taxibarcelona.cat"}}, {"type": "node", "id": 6974014301, "lat": 41.40072, "lon": 2.19286, "tags": {"address": "C Badajoz 126", "amenity": "taxi", "website": "www.taxibarcelona.cat"}}, {"type": "node", "id": 8199236060, "lat": 41.4031635, "lon": 2.1899525, "tags": {"access": "yes", "amenity": "parking_entrance", "fee": "yes", "maxheight": "2.2", "name": "Torre Gl\u00f2ries", "parking": "underground"}}, {"type": "node", "id": 8199236065, "lat": 41.4031521, "lon": 2.1900738, "tags": {"amenity": "parking_entrance", "fee": "yes", "maxheight": "2.2", "name": "Gates Diagonal Barcelona", "parking": "underground"}}, {"type": "node", "id": 8440966163, "lat": 41.4030315, "lon": 2.1902477}, {"type": "node", "id": 8440966164, "lat": 41.4030888, "lon": 2.1903232}, {"type": "node", "id": 8440966165, "lat": 41.4031089, "lon": 2.1902961}, {"type": "node", "id": 8440966166, "lat": 41.4030516, "lon": 2.1902206}, {"type": "node", "id": 8814389010, "lat": 41.4015604, "lon": 2.1955269, "tags": {"access": "private", "amenity": "parking_entrance"}}, {"type": "node", "id": 8814389013, "lat": 41.4019809, "lon": 2.1949341, "tags": {"access": "private", "amenity": "parking_entrance"}}, {"type": "node", "id": 9124916756, "lat": 41.3966, "lon": 2.1889242, "tags": {"access": "yes", "amenity": "bicycle_parking", "bicycle_parking": "stands", "capacity": "2", "covered": "no", "fee": "no"}}, {"type": "node", "id": 9124939130, "lat": 41.39666, "lon": 2.1889966, "tags": {"access": "yes", "amenity": "bicycle_parking", "bicycle_parking": "stands", "capacity": "2", "covered": "no", "fee": "no"}}, {"type": "node", "id": 9135497010, "lat": 41.3964853, "lon": 2.1888584, "tags": {"access": "yes", "amenity": "bicycle_parking", "bicycle_parking": "stands", "capacity": "7", "covered": "no", "fee": "no"}}, {"type": "node", "id": 9533086081, "lat": 41.3962039, "lon": 2.1888825, "tags": {"access": "yes", "amenity": "bicycle_parking", "bicycle_parking": "stands", "capacity": "7", "covered": "no", "fee": "no"}}, {"type": "node", "id": 9575418291, "lat": 41.3958088, "lon": 2.1900885, "tags": {"address": "C Zamora 90", "amenity": "bicycle_parking", "operator": "http://ajuntament.barcelona.cat/bicicleta/ca", "website": "http://ajuntament.barcelona.cat/bicicleta/ca"}}, {"type": "way", "id": 436166611, "nodes": [4340445379, 4280661020, 4280661017, 5772791454, 4340445383, 4340445379], "tags": {"amenity": "fuel", "brand": "Petroprix", "name": "Petroprix", "opening_hours": "Mo-Su,PH 12:00+", "operator": "Petroprix"}}, {"type": "way", "id": 436167068, "nodes": [6416165590, 6416165596, 4340451032, 839472023, 6416165605, 6416165624, 6416165593, 6416165604, 6416165609, 6416165585, 6416164483, 6416165644, 6416165648, 6416165639, 6416165590], "tags": {"amenity": "fuel", "brand": "BP", "brand:wikidata": "Q152057", "brand:wikipedia": "es:BP", "building": "industrial", "building:levels": "2", "fuel:GTL_diesel": "yes", "fuel:diesel": "yes", "fuel:octane_95": "yes", "fuel:octane_98": "yes", "name": "BP", "opening_hours": "Mo-Fr 06:00-23:00; Sa 06:00-00:00; Su 06:00-22:00", "source": "Ministerio de Industria, Turismo y Comercio", "source:date": "2010-08-06"}}, {"type": "way", "id": 498307439, "nodes": [4897577034, 4897577035]}, {"type": "way", "id": 498307445, "nodes": [2292699441, 2292699447, 4897577034]}, {"type": "way", "id": 498307447, "nodes": [2292699438, 2292699434]}, {"type": "way", "id": 498307448, "nodes": [2292699449, 2292699446]}, {"type": "way", "id": 498307449, "nodes": [2292699449, 4897577035]}, {"type": "way", "id": 498307450, "nodes": [2292699434, 6124244336, 6124244337, 2292699441], "tags": {"barrier": "wall"}}, {"type": "way", "id": 498307452, "nodes": [4897577037, 6124244305, 2292699438]}, {"type": "way", "id": 498307454, "nodes": [2292699446, 4897577037]}, {"type": "way", "id": 653464313, "nodes": [6124130654, 6124130644, 6124130632, 6124130643, 6124130656, 6124130664, 860172649, 6124130654], "tags": {"addr:housenumber": "79", "addr:street": "Carrer de Pere IV", "amenity": "fuel", "brand": "Evolution Oil", "building": "roof", "building:levels": "1", "email": "info@evolutionoil.es", "fuel:GTL_diesel": "yes", "fuel:diesel": "yes", "fuel:octane_95": "yes", "fuel:octane_98": "yes", "name": "Evolution - Pere IV", "opening_hours": "24/7", "phone": "+34 600 22 18 58", "self_service": "yes", "source": "https://www.evolutionoil.es/pedro-iv"}}, {"type": "way", "id": 909097450, "nodes": [8440966166, 8440966165, 8440966164, 8440966163, 8440966166], "tags": {"access": "customers", "amenity": "parking_entrance", "building": "yes", "foot": "yes", "wheelchair": "yes"}}, {"type": "relation", "id": 7312209, "members": [{"type": "way", "ref": 498307449, "role": "outer"}, {"type": "way", "ref": 498307439, "role": "outer"}, {"type": "way", "ref": 498307445, "role": "outer"}, {"type": "way", "ref": 498307450, "role": "outer"}, {"type": "way", "ref": 498307447, "role": "outer"}, {"type": "way", "ref": 498307452, "role": "outer"}, {"type": "way", "ref": 498307454, "role": "outer"}, {"type": "way", "ref": 498307448, "role": "outer"}], "tags": {"access": "private", "amenity": "parking", "parking": "surface", "type": "multipolygon"}}]}