{"version": 0.6, "generator": "Overpass API 0.7.58.5 b0c4acbb", "osm3s": {"timestamp_osm_base": "2022-09-05T10:30:39Z", "copyright": "The data included in this document is from www.openstreetmap.org. The data is made available under ODbL."}, "elements": [{"type": "node", "id": 839472023, "lat": 41.3994281, "lon": 2.1927937}, {"type": "node", "id": 839473605, "lat": 41.399889, "lon": 2.198611, "tags": {"addr:housenumber": "154", "addr:street": "CALLE PUJADES", "amenity": "fuel", "brand": "Repsol", "brand:wikidata": "Q174747", "brand:wikipedia": "es:Repsol", "fuel:diesel": "yes", "fuel:octane_95": "yes", "fuel:octane_98": "yes", "name": "Repsol", "opening_hours": "Mo-Su 06:00-20:00", "operator": "Repsol"}}, {"type": "node", "id": 860172649, "lat": 41.3972862, "lon": 2.1929844}, {"type": "node", "id": 1624262730, "lat": 41.3980767, "lon": 2.1890225, "tags": {"access": "yes", "amenity": "parking_entrance", "fee": "yes", "parking": "underground"}}, {"type": "node", "id": 2292699434, "lat": 41.3959375, "lon": 2.1951455}, {"type": "node", "id": 2292699438, "lat": 41.396129, "lon": 2.1949001}, {"type": "node", "id": 2292699441, "lat": 41.3961499, "lon": 2.1954347}, {"type": "node", "id": 2292699446, "lat": 41.3962689, "lon": 2.1946539}, {"type": "node", "id": 2292699447, "lat": 41.3963466, "lon": 2.1951866}, {"type": "node", "id": 2292699449, "lat": 41.3963469, "lon": 2.1947568}, {"type": "node", "id": 3068392432, "lat": 41.4017899, "lon": 2.1982655, "tags": {"address": "C Pallars 207", "amenity": "bicycle_parking", "bicycle_parking": "stands", "capacity": "20", "covered": "no", "operator": "http://ajuntament.barcelona.cat/bicicleta/ca", "website": "http://ajuntament.barcelona.cat/bicicleta/ca"}}, {"type": "node", "id": 3068393033, "lat": 41.4018178, "lon": 2.1984281, "tags": {"address": "C Pallars 207", "amenity": "bicycle_parking", "bicycle_parking": "stands", "capacity": "10", "operator": "http://ajuntament.barcelona.cat/bicicleta/ca", "website": "http://ajuntament.barcelona.cat/bicicleta/ca"}}, {"type": "node", "id": 3975480054, "lat": 41.4034989, "lon": 2.1934917, "tags": {"amenity": "bicycle_parking", "bicycle_parking": "stands", "capacity": "14", "covered": "no"}}, {"type": "node", "id": 4280661017, "lat": 41.4001439, "lon": 2.1939931}, {"type": "node", "id": 4280661020, "lat": 41.400296, "lon": 2.1937936}, {"type": "node", "id": 4322556795, "lat": 41.397926, "lon": 2.1898136, "tags": {"amenity": "bicycle_parking", "capacity": "10"}}, {"type": "node", "id": 4340445379, "lat": 41.4001482, "lon": 2.1935914}, {"type": "node", "id": 4340445383, "lat": 41.4000798, "lon": 2.193678}, {"type": "node", "id": 4340451032, "lat": 41.3994674, "lon": 2.1926912}, {"type": "node", "id": 4393353435, "lat": 41.4029178, "lon": 2.1934191, "tags": {"amenity": "motorcycle_parking"}}, {"type": "node", "id": 4393356914, "lat": 41.4028072, "lon": 2.1931482, "tags": {"amenity": "motorcycle_parking"}}, {"type": "node", "id": 4689134967, "lat": 41.402878, "lon": 2.1945576, "tags": {"amenity": "charging_station", "capacity": "2", "operator": "Ajuntament de Barcelona"}}, {"type": "node", "id": 4897577034, "lat": 41.3964008, "lon": 2.1950815}, {"type": "node", "id": 4897577035, "lat": 41.3964773, "lon": 2.1949334}, {"type": "node", "id": 4897577037, "lat": 41.3961838, "lon": 2.1948017}, {"type": "node", "id": 4965434428, "lat": 41.3972542, "lon": 2.1901924, "tags": {"amenity": "bicycle_parking", "capacity": "20"}}, {"type": "node", "id": 5192158624, "lat": 41.3974606, "lon": 2.1968683, "tags": {"access": "yes", "amenity": "bicycle_parking", "bicycle_parking": "stands", "capacity": "10", "covered": "no", "fee": "no"}}, {"type": "node", "id": 5192158625, "lat": 41.3982831, "lon": 2.1983717, "tags": {"access": "yes", "amenity": "bicycle_parking", "capacity": "10", "covered": "no", "fee": "no"}}, {"type": "node", "id": 5192158722, "lat": 41.397048, "lon": 2.1947073, "tags": {"access": "yes", "address": "C Pujades 106", "amenity": "bicycle_parking", "bicycle_parking": "stands", "capacity": "10", "covered": "no", "fee": "no", "mapillary": "TETJcsH7afzQ5ylAIcPFAg", "operator": "http://ajuntament.barcelona.cat/bicicleta/ca", "survey:date": "2017-11-29", "website": "http://ajuntament.barcelona.cat/bicicleta/ca"}}, {"type": "node", "id": 5192190021, "lat": 41.3970845, "lon": 2.1953363, "tags": {"access": "yes", "address": "C \u00c0vila 71", "amenity": "bicycle_parking", "capacity": "10", "covered": "no", "fee": "no", "operator": "http://ajuntament.barcelona.cat/bicicleta/ca", "website": "http://ajuntament.barcelona.cat/bicicleta/ca"}}, {"type": "node", "id": 5772791454, "lat": 41.4000794, "lon": 2.1939126}, {"type": "node", "id": 6055668323, "lat": 41.400385, "lon": 2.200032, "tags": {"access": "private", "amenity": "parking_entrance"}}, {"type": "node", "id": 6055669726, "lat": 41.4006122, "lon": 2.1997316, "tags": {"access": "private", "amenity": "parking_entrance"}}, {"type": "node", "id": 6111551193, "lat": 41.4011787, "lon": 2.197307, "tags": {"access": "private", "amenity": "parking_entrance"}}, {"type": "node", "id": 6119733503, "lat": 41.3993502, "lon": 2.1977892, "tags": {"access": "private", "addr:housenumber": "142", "addr:postcode": "08005", "addr:street": "Carrer de Pujades", "amenity": "parking_entrance", "entrance": "yes"}}, {"type": "node", "id": 6119733506, "lat": 41.399087, "lon": 2.1981816, "tags": {"access": "private", "addr:housenumber": "27", "addr:postcode": "08005", "addr:street": "Passatge de Masoliver", "amenity": "parking_entrance"}}, {"type": "node", "id": 6119733507, "lat": 41.3990428, "lon": 2.1982406, "tags": {"access": "private", "amenity": "parking_entrance"}}, {"type": "node", "id": 6119733510, "lat": 41.3983983, "lon": 2.1981593, "tags": {"access": "private", "amenity": "parking_entrance"}}, {"type": "node", "id": 6119800668, "lat": 41.398257, "lon": 2.199269, "tags": {"access": "private", "amenity": "parking_entrance"}}, {"type": "node", "id": 6119838165, "lat": 41.3986735, "lon": 2.1992506, "tags": {"access": "private", "amenity": "parking_entrance"}}, {"type": "node", "id": 6121342548, "lat": 41.3987637, "lon": 2.1966734, "tags": {"access": "private", "amenity": "parking_entrance"}}, {"type": "node", "id": 6121342563, "lat": 41.3995754, "lon": 2.1958401, "tags": {"access": "private", "amenity": "parking_entrance"}}, {"type": "node", "id": 6121414659, "lat": 41.3987436, "lon": 2.1969785, "tags": {"access": "private", "amenity": "parking_entrance", "entrance": "yes"}}, {"type": "node", "id": 6123559746, "lat": 41.3968154, "lon": 2.1957433, "tags": {"access": "private", "amenity": "parking_entrance"}}, {"type": "node", "id": 6123559752, "lat": 41.3975341, "lon": 2.1953897, "tags": {"access": "private", "amenity": "parking_entrance"}}, {"type": "node", "id": 6123559777, "lat": 41.3978451, "lon": 2.1962852, "tags": {"access": "private", "amenity": "parking_entrance"}}, {"type": "node", "id": 6123559784, "lat": 41.3978868, "lon": 2.1958603, "tags": {"access": "customers", "amenity": "parking_entrance"}}, {"type": "node", "id": 6124130632, "lat": 41.3974599, "lon": 2.1930592}, {"type": "node", "id": 6124130643, "lat": 41.3974424, "lon": 2.1930956}, {"type": "node", "id": 6124130644, "lat": 41.3974827, "lon": 2.1930115}, {"type": "node", "id": 6124130654, "lat": 41.397464, "lon": 2.1929859}, {"type": "node", "id": 6124130656, "lat": 41.3974066, "lon": 2.1931701}, {"type": "node", "id": 6124130664, "lat": 41.3972457, "lon": 2.1930382}, {"type": "node", "id": 6124160307, "lat": 41.3971901, "lon": 2.1946078, "tags": {"access": "private", "amenity": "parking_entrance", "entrance": "yes"}}, {"type": "node", "id": 6124160377, "lat": 41.3973987, "lon": 2.1934462, "tags": {"access": "private", "amenity": "parking_entrance"}}, {"type": "node", "id": 6124160379, "lat": 41.3969167, "lon": 2.1934792, "tags": {"access": "private", "addr:housenumber": "70-82", "addr:street": "Carrer d'\u00c0laba", "amenity": "parking_entrance"}}, {"type": "node", "id": 6124160380, "lat": 41.3967193, "lon": 2.1938593, "tags": {"access": "private", "addr:housenumber": "69-79", "addr:street": "Carrer de Pujades", "amenity": "parking_entrance"}}, {"type": "node", "id": 6124160381, "lat": 41.3968488, "lon": 2.1941555, "tags": {"access": "private", "amenity": "parking_entrance"}}, {"type": "node", "id": 6124160382, "lat": 41.3969279, "lon": 2.1942605, "tags": {"access": "private", "amenity": "parking_entrance"}}, {"type": "node", "id": 6124244285, "lat": 41.3966191, "lon": 2.194183, "tags": {"access": "private", "amenity": "parking_entrance"}}, {"type": "node", "id": 6124244305, "lat": 41.3961436, "lon": 2.1948733}, {"type": "node", "id": 6124244334, "lat": 41.3958946, "lon": 2.1949583, "tags": {"access": "private", "amenity": "parking_entrance"}}, {"type": "node", "id": 6124244336, "lat": 41.3959946, "lon": 2.1952232, "tags": {"access": "private", "amenity": "parking_entrance"}}, {"type": "node", "id": 6124244337, "lat": 41.3960995, "lon": 2.1953661, "tags": {"access": "private", "amenity": "parking_entrance"}}, {"type": "node", "id": 6124244350, "lat": 41.3969521, "lon": 2.1952268, "tags": {"access": "private", "amenity": "parking_entrance"}}, {"type": "node", "id": 6124244351, "lat": 41.3970438, "lon": 2.1951038, "tags": {"access": "private", "amenity": "parking_entrance"}}, {"type": "node", "id": 6125106856, "lat": 41.3954508, "lon": 2.1944743, "tags": {"access": "private", "amenity": "parking_entrance"}}, {"type": "node", "id": 6125106858, "lat": 41.3960126, "lon": 2.1943513, "tags": {"access": "private", "amenity": "parking_entrance"}}, {"type": "node", "id": 6125106860, "lat": 41.396216, "lon": 2.1940793, "tags": {"access": "private", "amenity": "parking_entrance"}}, {"type": "node", "id": 6125106862, "lat": 41.3960929, "lon": 2.1934841, "tags": {"access": "private", "amenity": "parking_entrance"}}, {"type": "node", "id": 6125222580, "lat": 41.395532, "lon": 2.1924105, "tags": {"access": "private", "amenity": "parking_entrance"}}, {"type": "node", "id": 6125602215, "lat": 41.3945562, "lon": 2.1940567, "tags": {"access": "private", "amenity": "parking_entrance"}}, {"type": "node", "id": 6126847654, "lat": 41.397163, "lon": 2.1926623, "tags": {"access": "customers", "amenity": "parking_entrance"}}, {"type": "node", "id": 6133245833, "lat": 41.4009883, "lon": 2.1954538, "tags": {"access": "private", "amenity": "parking_entrance"}}, {"type": "node", "id": 6133245836, "lat": 41.4011593, "lon": 2.1962357, "tags": {"access": "customers", "amenity": "parking_entrance"}}, {"type": "node", "id": 6133307715, "lat": 41.3996455, "lon": 2.1942556, "tags": {"access": "private", "amenity": "parking_entrance"}}, {"type": "node", "id": 6133307721, "lat": 41.4002358, "lon": 2.1944528, "tags": {"access": "private", "amenity": "parking_entrance"}}, {"type": "node", "id": 6138968469, "lat": 41.3978975, "lon": 2.1921661, "tags": {"access": "customers", "amenity": "parking_entrance"}}, {"type": "node", "id": 6139033084, "lat": 41.3971824, "lon": 2.1908575, "tags": {"access": "private", "amenity": "parking_entrance"}}, {"type": "node", "id": 6139033202, "lat": 41.3971669, "lon": 2.1920955, "tags": {"access": "private", "amenity": "parking_entrance", "barrier": "gate"}}, {"type": "node", "id": 6407520053, "lat": 41.3985536, "lon": 2.1899542, "tags": {"access": "private", "amenity": "parking_entrance"}}, {"type": "node", "id": 6416001331, "lat": 41.3995778, "lon": 2.1913254, "tags": {"access": "private", "amenity": "parking_entrance"}}, {"type": "node", "id": 6416001332, "lat": 41.3996325, "lon": 2.1916996, "tags": {"access": "private", "amenity": "parking_entrance"}}, {"type": "node", "id": 6416001333, "lat": 41.3994221, "lon": 2.1919743, "tags": {"access": "private", "amenity": "parking_entrance"}}, {"type": "node", "id": 6416001334, "lat": 41.3995003, "lon": 2.1918721, "tags": {"access": "private", "amenity": "parking_entrance"}}, {"type": "node", "id": 6416164463, "lat": 41.4001979, "lon": 2.193197, "tags": {"access": "private", "amenity": "parking_entrance"}}, {"type": "node", "id": 6416164483, "lat": 41.399272, "lon": 2.1928353}, {"type": "node", "id": 6416165585, "lat": 41.3993824, "lon": 2.1928403}, {"type": "node", "id": 6416165590, "lat": 41.3994217, "lon": 2.1926279}, {"type": "node", "id": 6416165593, "lat": 41.3994328, "lon": 2.1928351}, {"type": "node", "id": 6416165596, "lat": 41.3994599, "lon": 2.1926807}, {"type": "node", "id": 6416165604, "lat": 41.3993959, "lon": 2.1929255}, {"type": "node", "id": 6416165605, "lat": 41.3994221, "lon": 2.1927855}, {"type": "node", "id": 6416165609, "lat": 41.3993597, "lon": 2.1928927}, {"type": "node", "id": 6416165624, "lat": 41.3994213, "lon": 2.1928351}, {"type": "node", "id": 6416165639, "lat": 41.3993909, "lon": 2.1925856}, {"type": "node", "id": 6416165644, "lat": 41.3992347, "lon": 2.1927852}, {"type": "node", "id": 6416165648, "lat": 41.3992397, "lon": 2.1925821}, {"type": "node", "id": 6416471011, "lat": 41.4028435, "lon": 2.1968085, "tags": {"access": "private", "amenity": "parking_entrance"}}, {"type": "node", "id": 6416529644, "lat": 41.4035509, "lon": 2.1958715, "tags": {"access": "private", "amenity": "parking_entrance"}}, {"type": "node", "id": 6416529647, "lat": 41.4038555, "lon": 2.1954695, "tags": {"access": "private", "amenity": "parking_entrance"}}, {"type": "node", "id": 6535101485, "lat": 41.4013967, "lon": 2.1941375, "tags": {"amenity": "bicycle_parking", "bicycle_parking": "stands", "mapillary": "klw5aWOmLgPIbqcLz4lhoQ", "survey:date": "2020-05-03"}}, {"type": "node", "id": 6933374695, "lat": 41.40157, "lon": 2.19362, "tags": {"address": "C Sancho de \u00c1vila 115", "amenity": "bicycle_parking", "operator": "http://ajuntament.barcelona.cat/bicicleta/ca", "website": "http://ajuntament.barcelona.cat/bicicleta/ca"}}, {"type": "node", "id": 6933377285, "lat": 41.39447, "lon": 2.19417, "tags": {"address": "C Pamplona 45", "amenity": "bicycle_parking", "operator": "http://ajuntament.barcelona.cat/bicicleta/ca", "website": "http://ajuntament.barcelona.cat/bicicleta/ca"}}, {"type": "node", "id": 6933487008, "lat": 41.39752, "lon": 2.1967, "tags": {"address": "C Badajoz 65", "amenity": "bicycle_parking", "operator": "http://ajuntament.barcelona.cat/bicicleta/ca", "website": "http://ajuntament.barcelona.cat/bicicleta/ca"}}, {"type": "node", "id": 6933487011, "lat": 41.40133, "lon": 2.19402, "tags": {"address": "C Ciutat de Granada 109", "amenity": "bicycle_parking", "bicycle_parking": "stands", "mapillary": "GgmvW9yJV5Q2S_WjVAgNzQ", "operator": "http://ajuntament.barcelona.cat/bicicleta/ca", "survey:date": "2019-04-26", "website": "http://ajuntament.barcelona.cat/bicicleta/ca"}}, {"type": "node", "id": 6933487086, "lat": 41.40233, "lon": 2.19475, "tags": {"address": "C Sancho de \u00c1vila 148", "amenity": "bicycle_parking", "operator": "http://ajuntament.barcelona.cat/bicicleta/ca", "website": "http://ajuntament.barcelona.cat/bicicleta/ca"}}, {"type": "node", "id": 6933487115, "lat": 41.40007, "lon": 2.19839, "tags": {"address": "C Pujades 137", "amenity": "bicycle_parking", "operator": "http://ajuntament.barcelona.cat/bicicleta/ca", "website": "http://ajuntament.barcelona.cat/bicicleta/ca"}}, {"type": "node", "id": 6933490619, "lat": 41.40117, "lon": 2.19113, "tags": {"address": "C T\u00e0nger 62", "amenity": "bicycle_parking", "operator": "http://ajuntament.barcelona.cat/bicicleta/ca", "website": "http://ajuntament.barcelona.cat/bicicleta/ca"}}, {"type": "node", "id": 6933490923, "lat": 41.40298, "lon": 2.19335, "tags": {"address": "C T\u00e0nger 97", "amenity": "bicycle_parking", "capacity": "10", "operator": "http://ajuntament.barcelona.cat/bicicleta/ca", "website": "http://ajuntament.barcelona.cat/bicicleta/ca"}}, {"type": "node", "id": 6933490924, "lat": 41.40174, "lon": 2.19153, "tags": {"address": "C Badajoz 144", "amenity": "bicycle_parking", "bicycle_parking": "stands", "covered": "no", "operator": "http://ajuntament.barcelona.cat/bicicleta/ca", "website": "http://ajuntament.barcelona.cat/bicicleta/ca"}}, {"type": "node", "id": 6933490935, "lat": 41.40134, "lon": 2.19621, "tags": {"address": "C Roc Boronat 97", "amenity": "bicycle_parking", "operator": "http://ajuntament.barcelona.cat/bicicleta/ca", "website": "http://ajuntament.barcelona.cat/bicicleta/ca"}}, {"type": "node", "id": 6933490938, "lat": 41.3967, "lon": 2.19344, "tags": {"address": "C \u00c0laba 67", "amenity": "bicycle_parking", "operator": "http://ajuntament.barcelona.cat/bicicleta/ca", "website": "http://ajuntament.barcelona.cat/bicicleta/ca"}}, {"type": "node", "id": 6933490939, "lat": 41.39533, "lon": 2.19526, "tags": {"address": "C \u00c0laba 43", "amenity": "bicycle_parking", "capacity": "10", "operator": "http://ajuntament.barcelona.cat/bicicleta/ca", "website": "http://ajuntament.barcelona.cat/bicicleta/ca"}}, {"type": "node", "id": 6933490940, "lat": 41.39717, "lon": 2.19323, "tags": {"address": "C \u00c0laba 84", "amenity": "bicycle_parking", "bicycle_parking": "ground_slots", "mapillary": "H_Y1BF1UHbyWIr6sfGMiWg", "operator": "http://ajuntament.barcelona.cat/bicicleta/ca", "survey:date": "2019-04-26", "website": "http://ajuntament.barcelona.cat/bicicleta/ca"}}, {"type": "node", "id": 6933492826, "lat": 41.3972149, "lon": 2.1902649, "tags": {"addr:full": "C Almog\u00e0vers 119", "amenity": "bicycle_parking", "operator": "http://ajuntament.barcelona.cat/bicicleta/ca", "website": "http://ajuntament.barcelona.cat/bicicleta/ca"}}, {"type": "node", "id": 6933492976, "lat": 41.40182, "lon": 2.19403, "tags": {"address": "C Sancho de \u00c1vila 123", "amenity": "bicycle_parking", "operator": "http://ajuntament.barcelona.cat/bicicleta/ca", "website": "http://ajuntament.barcelona.cat/bicicleta/ca"}}, {"type": "node", "id": 6933494086, "lat": 41.40038, "lon": 2.19009, "tags": {"address": "C T\u00e0nger 50", "amenity": "bicycle_parking", "operator": "http://ajuntament.barcelona.cat/bicicleta/ca", "website": "http://ajuntament.barcelona.cat/bicicleta/ca"}}, {"type": "node", "id": 6933494689, "lat": 41.40182, "lon": 2.19404, "tags": {"address": "C Sancho de \u00c1vila 123", "amenity": "bicycle_parking", "capacity": "8", "operator": "http://ajuntament.barcelona.cat/bicicleta/ca", "website": "http://ajuntament.barcelona.cat/bicicleta/ca"}}, {"type": "node", "id": 6933504534, "lat": 41.40183, "lon": 2.1943, "tags": {"address": "C Sancho de \u00c1vila 134", "amenity": "bicycle_parking", "bicycle_parking": "stands", "capacity": "10", "covered": "no", "operator": "http://ajuntament.barcelona.cat/bicicleta/ca", "website": "http://ajuntament.barcelona.cat/bicicleta/ca"}}, {"type": "node", "id": 6933504706, "lat": 41.39868, "lon": 2.19101, "tags": {"address": "C \u00c0laba 108", "amenity": "bicycle_parking", "operator": "http://ajuntament.barcelona.cat/bicicleta/ca", "website": "http://ajuntament.barcelona.cat/bicicleta/ca"}}, {"type": "node", "id": 6933504715, "lat": 41.39643, "lon": 2.19261, "tags": {"address": "C Pere IV 62", "amenity": "bicycle_parking", "operator": "http://ajuntament.barcelona.cat/bicicleta/ca", "website": "http://ajuntament.barcelona.cat/bicicleta/ca"}}, {"type": "node", "id": 6933504716, "lat": 41.39799, "lon": 2.18967, "tags": {"address": "C Pamplona 104", "amenity": "bicycle_parking", "bicycle_parking": "stands", "mapillary": "5lFsDOG_9e354GNzhl1fJA", "operator": "http://ajuntament.barcelona.cat/bicicleta/ca", "survey:date": "2019-04-26", "website": "http://ajuntament.barcelona.cat/bicicleta/ca"}}, {"type": "node", "id": 6933504720, "lat": 41.4012, "lon": 2.19798, "tags": {"address": "C Pallars 202", "amenity": "bicycle_parking", "operator": "http://ajuntament.barcelona.cat/bicicleta/ca", "website": "http://ajuntament.barcelona.cat/bicicleta/ca"}}, {"type": "node", "id": 6933504748, "lat": 41.40023, "lon": 2.19991, "tags": {"address": "C Llacuna 49", "amenity": "bicycle_parking", "capacity": "10", "operator": "http://ajuntament.barcelona.cat/bicicleta/ca", "website": "http://ajuntament.barcelona.cat/bicicleta/ca"}}, {"type": "node", "id": 6933504756, "lat": 41.40038, "lon": 2.19072, "tags": {"address": "C \u00c0vila 141", "amenity": "bicycle_parking", "operator": "http://ajuntament.barcelona.cat/bicicleta/ca", "website": "http://ajuntament.barcelona.cat/bicicleta/ca"}}, {"type": "node", "id": 6933504757, "lat": 41.39847, "lon": 2.19344, "tags": {"address": "C \u00c0vila 99", "amenity": "bicycle_parking", "bicycle_parking": "ground_slots", "mapillary": "VrmtdIilzxuX15I2vF_nuw", "operator": "http://ajuntament.barcelona.cat/bicicleta/ca", "survey:date": "2019-04-26", "website": "http://ajuntament.barcelona.cat/bicicleta/ca"}}, {"type": "node", "id": 6933504776, "lat": 41.40076, "lon": 2.19015, "tags": {"address": "C \u00c0vila 145", "amenity": "bicycle_parking", "operator": "http://ajuntament.barcelona.cat/bicicleta/ca", "website": "http://ajuntament.barcelona.cat/bicicleta/ca"}}, {"type": "node", "id": 6933504998, "lat": 41.3995, "lon": 2.19772, "tags": {"address": "C Pujades 127", "amenity": "bicycle_parking", "covered": "no", "operator": "http://ajuntament.barcelona.cat/bicicleta/ca", "website": "http://ajuntament.barcelona.cat/bicicleta/ca"}}, {"type": "node", "id": 6933504999, "lat": 41.39852, "lon": 2.19641, "tags": {"address": "C Pujades 105", "amenity": "bicycle_parking", "operator": "http://ajuntament.barcelona.cat/bicicleta/ca", "website": "http://ajuntament.barcelona.cat/bicicleta/ca"}}, {"type": "node", "id": 6933505033, "lat": 41.40286, "lon": 2.19668, "tags": {"address": "C Llacuna 96", "amenity": "bicycle_parking", "operator": "http://ajuntament.barcelona.cat/bicicleta/ca", "website": "http://ajuntament.barcelona.cat/bicicleta/ca"}}, {"type": "node", "id": 6933505041, "lat": 41.40052, "lon": 2.19529, "tags": {"address": "C Ciutat de Granada 91", "amenity": "bicycle_parking", "operator": "http://ajuntament.barcelona.cat/bicicleta/ca", "website": "http://ajuntament.barcelona.cat/bicicleta/ca"}}, {"type": "node", "id": 6933505042, "lat": 41.39846, "lon": 2.19797, "tags": {"address": "C Ciutat de Granada 50", "amenity": "bicycle_parking", "bicycle_parking": "stands", "covered": "no", "operator": "http://ajuntament.barcelona.cat/bicicleta/ca", "website": "http://ajuntament.barcelona.cat/bicicleta/ca"}}, {"type": "node", "id": 6933505048, "lat": 41.39933, "lon": 2.19232, "tags": {"address": "C \u00c0vila 110", "amenity": "bicycle_parking", "bicycle_parking": "stands", "mapillary": "tLrmSDc_vY_wZIPa-4VfAw", "operator": "http://ajuntament.barcelona.cat/bicicleta/ca", "survey:date": "2019-04-26", "website": "http://ajuntament.barcelona.cat/bicicleta/ca"}}, {"type": "node", "id": 6933505068, "lat": 41.3963776, "lon": 2.1915537, "tags": {"address": "C Pamplona 83", "amenity": "bicycle_parking", "operator": "http://ajuntament.barcelona.cat/bicicleta/ca", "website": "http://ajuntament.barcelona.cat/bicicleta/ca"}}, {"type": "node", "id": 6933505129, "lat": 41.3961, "lon": 2.19446, "tags": {"address": "C \u00c0laba 60", "amenity": "bicycle_parking", "capacity": "10", "operator": "http://ajuntament.barcelona.cat/bicicleta/ca", "website": "http://ajuntament.barcelona.cat/bicicleta/ca"}}, {"type": "node", "id": 6933505404, "lat": 41.40291, "lon": 2.19446, "tags": {"address": "C Roc Boronat 124", "amenity": "bicycle_parking", "bicycle_parking": "stands", "capacity": "10", "covered": "no", "operator": "http://ajuntament.barcelona.cat/bicicleta/ca", "website": "http://ajuntament.barcelona.cat/bicicleta/ca"}}, {"type": "node", "id": 6933505421, "lat": 41.39828, "lon": 2.19821, "tags": {"address": "C Ciutat de Granada 44", "amenity": "bicycle_parking", "bicycle_parking": "stands", "capacity": "10", "covered": "no", "mapillary": "RTnc0y9D2RHMZ7-Kxrrd3Q", "operator": "http://ajuntament.barcelona.cat/bicicleta/ca", "survey:date": "2019-04-30", "website": "http://ajuntament.barcelona.cat/bicicleta/ca"}}, {"type": "node", "id": 6933505424, "lat": 41.39946, "lon": 2.18975, "tags": {"address": "C \u00c0laba 123", "amenity": "bicycle_parking", "capacity": "6", "operator": "http://ajuntament.barcelona.cat/bicicleta/ca", "website": "http://ajuntament.barcelona.cat/bicicleta/ca"}}, {"type": "node", "id": 6933505431, "lat": 41.40009, "lon": 2.19649, "tags": {"address": "C Pallars 172", "amenity": "bicycle_parking", "operator": "http://ajuntament.barcelona.cat/bicicleta/ca", "website": "http://ajuntament.barcelona.cat/bicicleta/ca"}}, {"type": "node", "id": 6933505496, "lat": 41.39788, "lon": 2.19558, "tags": {"address": "C Pujades 93", "amenity": "bicycle_parking", "operator": "http://ajuntament.barcelona.cat/bicicleta/ca", "website": "http://ajuntament.barcelona.cat/bicicleta/ca"}}, {"type": "node", "id": 6933505497, "lat": 41.3957, "lon": 2.19247, "tags": {"address": "C Pujades 57", "amenity": "bicycle_parking", "operator": "http://ajuntament.barcelona.cat/bicicleta/ca", "website": "http://ajuntament.barcelona.cat/bicicleta/ca"}}, {"type": "node", "id": 6933505526, "lat": 41.40364, "lon": 2.19565, "tags": {"address": "C Llacuna 103", "amenity": "bicycle_parking", "operator": "http://ajuntament.barcelona.cat/bicicleta/ca", "website": "http://ajuntament.barcelona.cat/bicicleta/ca"}}, {"type": "node", "id": 6933505529, "lat": 41.40012, "lon": 2.19581, "tags": {"address": "C Ciutat de Granada 90", "amenity": "bicycle_parking", "operator": "http://ajuntament.barcelona.cat/bicicleta/ca", "website": "http://ajuntament.barcelona.cat/bicicleta/ca"}}, {"type": "node", "id": 6933505576, "lat": 41.39976, "lon": 2.19627, "tags": {"address": "C Ciutat de Granada 81", "amenity": "bicycle_parking", "operator": "http://ajuntament.barcelona.cat/bicicleta/ca", "website": "http://ajuntament.barcelona.cat/bicicleta/ca"}}, {"type": "node", "id": 6933509488, "lat": 41.39929, "lon": 2.19543, "tags": {"address": "C Pallars 156", "amenity": "bicycle_parking", "operator": "http://ajuntament.barcelona.cat/bicicleta/ca", "website": "http://ajuntament.barcelona.cat/bicicleta/ca"}}, {"type": "node", "id": 6933509489, "lat": 41.39785, "lon": 2.19355, "tags": {"address": "C Pallars 138", "amenity": "bicycle_parking", "operator": "http://ajuntament.barcelona.cat/bicicleta/ca", "website": "http://ajuntament.barcelona.cat/bicicleta/ca"}}, {"type": "node", "id": 6933509504, "lat": 41.3961836, "lon": 2.1963204, "tags": {"address": "C \u00c0vila 47", "amenity": "bicycle_parking", "operator": "http://ajuntament.barcelona.cat/bicicleta/ca", "website": "http://ajuntament.barcelona.cat/bicicleta/ca"}}, {"type": "node", "id": 6933509507, "lat": 41.40183, "lon": 2.19339, "tags": {"address": "C Ciutat de Granada 113", "amenity": "bicycle_parking", "bicycle_parking": "stands", "capacity": "8", "covered": "no", "operator": "http://ajuntament.barcelona.cat/bicicleta/ca", "website": "http://ajuntament.barcelona.cat/bicicleta/ca"}}, {"type": "node", "id": 6933509786, "lat": 41.39803, "lon": 2.19855, "tags": {"address": "C Ciutat de Granada 42", "amenity": "bicycle_parking", "operator": "http://ajuntament.barcelona.cat/bicicleta/ca", "website": "http://ajuntament.barcelona.cat/bicicleta/ca"}}, {"type": "node", "id": 6933509818, "lat": 41.39925, "lon": 2.19694, "tags": {"address": "C Ciutat de Granada 74", "amenity": "bicycle_parking", "operator": "http://ajuntament.barcelona.cat/bicicleta/ca", "website": "http://ajuntament.barcelona.cat/bicicleta/ca"}}, {"type": "node", "id": 6933509872, "lat": 41.39918, "lon": 2.19051, "tags": {"address": "C \u00c0laba 122", "amenity": "bicycle_parking", "operator": "http://ajuntament.barcelona.cat/bicicleta/ca", "website": "http://ajuntament.barcelona.cat/bicicleta/ca"}}, {"type": "node", "id": 6933511586, "lat": 41.39682, "lon": 2.19101, "tags": {"address": "C Pamplona 91", "amenity": "bicycle_parking", "operator": "http://ajuntament.barcelona.cat/bicicleta/ca", "website": "http://ajuntament.barcelona.cat/bicicleta/ca"}}, {"type": "node", "id": 6933511617, "lat": 41.39918, "lon": 2.19052, "tags": {"address": "C \u00c0laba 122", "amenity": "bicycle_parking", "capacity": "6", "operator": "http://ajuntament.barcelona.cat/bicicleta/ca", "website": "http://ajuntament.barcelona.cat/bicicleta/ca"}}, {"type": "node", "id": 6933513692, "lat": 41.40099, "lon": 2.19892, "tags": {"address": "C Llacuna 63", "amenity": "bicycle_parking", "operator": "http://ajuntament.barcelona.cat/bicicleta/ca", "website": "http://ajuntament.barcelona.cat/bicicleta/ca"}}, {"type": "node", "id": 6933520093, "lat": 41.39616, "lon": 2.19551, "tags": {"address": "C Llull 93", "amenity": "bicycle_parking", "bicycle_parking": "stands", "capacity": "10", "covered": "no", "operator": "http://ajuntament.barcelona.cat/bicicleta/ca", "website": "http://ajuntament.barcelona.cat/bicicleta/ca"}}, {"type": "node", "id": 6933521893, "lat": 41.40085, "lon": 2.19276, "tags": {"address": "C Badajoz 126", "amenity": "bicycle_parking", "operator": "http://ajuntament.barcelona.cat/bicicleta/ca", "website": "http://ajuntament.barcelona.cat/bicicleta/ca"}}, {"type": "node", "id": 6933522087, "lat": 41.40001, "lon": 2.19596, "tags": {"address": "C Ciutat de Granada 88", "amenity": "bicycle_parking", "operator": "http://ajuntament.barcelona.cat/bicicleta/ca", "website": "http://ajuntament.barcelona.cat/bicicleta/ca"}}, {"type": "node", "id": 6933528285, "lat": 41.39777, "lon": 2.19638, "tags": {"address": "C Badajoz 73", "amenity": "bicycle_parking", "operator": "http://ajuntament.barcelona.cat/bicicleta/ca", "website": "http://ajuntament.barcelona.cat/bicicleta/ca"}}, {"type": "node", "id": 6973951286, "lat": 41.39771, "lon": 2.1908, "tags": {"address": "C Almog\u00e0vers 125", "amenity": "taxi", "website": "www.taxibarcelona.cat"}}, {"type": "node", "id": 6974004802, "lat": 41.40242, "lon": 2.19249, "tags": {"address": "C T\u00e0nger 89", "amenity": "taxi", "website": "www.taxibarcelona.cat"}}, {"type": "node", "id": 6974004803, "lat": 41.39719, "lon": 2.19271, "tags": {"address": "C \u00c0laba 75", "amenity": "taxi", "website": "www.taxibarcelona.cat"}}, {"type": "node", "id": 6974007087, "lat": 41.39727, "lon": 2.19694, "tags": {"address": "C Llull 111", "amenity": "taxi", "website": "www.taxibarcelona.cat"}}, {"type": "node", "id": 6974009312, "lat": 41.4032, "lon": 2.19628, "tags": {"address": "C Sancho de \u00c1vila 172", "amenity": "taxi", "website": "www.taxibarcelona.cat"}}, {"type": "node", "id": 6974013790, "lat": 41.395, "lon": 2.19348, "tags": {"address": "C Pamplona 53", "amenity": "taxi", "website": "www.taxibarcelona.cat"}}, {"type": "node", "id": 6974013791, "lat": 41.40112, "lon": 2.19435, "tags": {"address": "C Ciutat de Granada 99", "amenity": "taxi", "website": "www.taxibarcelona.cat"}}, {"type": "node", "id": 6974014301, "lat": 41.40072, "lon": 2.19286, "tags": {"address": "C Badajoz 126", "amenity": "taxi", "website": "www.taxibarcelona.cat"}}, {"type": "node", "id": 6974014305, "lat": 41.40133, "lon": 2.19795, "tags": {"address": "C Pallars 205", "amenity": "taxi", "website": "www.taxibarcelona.cat"}}, {"type": "node", "id": 7056232785, "lat": 41.4035753, "lon": 2.1943631, "tags": {"amenity": "motorcycle_parking"}}, {"type": "node", "id": 7476306042, "lat": 41.4034935, "lon": 2.1938842, "tags": {"amenity": "bicycle_parking"}}, {"type": "node", "id": 8062388108, "lat": 41.4009572, "lon": 2.1976733, "tags": {"amenity": "parking_entrance", "name": "Platinum@BCN"}}, {"type": "node", "id": 8814389010, "lat": 41.4015604, "lon": 2.1955269, "tags": {"access": "private", "amenity": "parking_entrance"}}, {"type": "node", "id": 8814389013, "lat": 41.4019809, "lon": 2.1949341, "tags": {"access": "private", "amenity": "parking_entrance"}}, {"type": "way", "id": 436166611, "nodes": [4340445379, 4280661020, 4280661017, 5772791454, 4340445383, 4340445379], "tags": {"amenity": "fuel", "brand": "Petroprix", "name": "Petroprix", "opening_hours": "Mo-Su,PH 12:00+", "operator": "Petroprix"}}, {"type": "way", "id": 436167068, "nodes": [6416165590, 6416165596, 4340451032, 839472023, 6416165605, 6416165624, 6416165593, 6416165604, 6416165609, 6416165585, 6416164483, 6416165644, 6416165648, 6416165639, 6416165590], "tags": {"amenity": "fuel", "brand": "BP", "brand:wikidata": "Q152057", "brand:wikipedia": "es:BP", "building": "industrial", "building:levels": "2", "fuel:GTL_diesel": "yes", "fuel:diesel": "yes", "fuel:octane_95": "yes", "fuel:octane_98": "yes", "name": "BP", "opening_hours": "Mo-Fr 06:00-23:00; Sa 06:00-00:00; Su 06:00-22:00", "source": "Ministerio de Industria, Turismo y Comercio", "source:date": "2010-08-06"}}, {"type": "way", "id": 498307439, "nodes": [4897577034, 4897577035]}, {"type": "way", "id": 498307445, "nodes": [2292699441, 2292699447, 4897577034]}, {"type": "way", "id": 498307447, "nodes": [2292699438, 2292699434]}, {"type": "way", "id": 498307448, "nodes": [2292699449, 2292699446]}, {"type": "way", "id": 498307449, "nodes": [2292699449, 4897577035]}, {"type": "way", "id": 498307450, "nodes": [2292699434, 6124244336, 6124244337, 2292699441], "tags": {"barrier": "wall"}}, {"type": "way", "id": 498307452, "nodes": [4897577037, 6124244305, 2292699438]}, {"type": "way", "id": 498307454, "nodes": [2292699446, 4897577037]}, {"type": "way", "id": 653464313, "nodes": [6124130654, 6124130644, 6124130632, 6124130643, 6124130656, 6124130664, 860172649, 6124130654], "tags": {"addr:housenumber": "79", "addr:street": "Carrer de Pere IV", "amenity": "fuel", "brand": "Evolution Oil", "building": "roof", "building:levels": "1", "email": "info@evolutionoil.es", "fuel:GTL_diesel": "yes", "fuel:diesel": "yes", "fuel:octane_95": "yes", "fuel:octane_98": "yes", "name": "Evolution - Pere IV", "opening_hours": "24/7", "phone": "+34 600 22 18 58", "self_service": "yes", "source": "https://www.evolutionoil.es/pedro-iv"}}, {"type": "relation", "id": 7312209, "members": [{"type": "way", "ref": 498307449, "role": "outer"}, {"type": "way", "ref": 498307439, "role": "outer"}, {"type": "way", "ref": 498307445, "role": "outer"}, {"type": "way", "ref": 498307450, "role": "outer"}, {"type": "way", "ref": 498307447, "role": "outer"}, {"type": "way", "ref": 498307452, "role": "outer"}, {"type": "way", "ref": 498307454, "role": "outer"}, {"type": "way", "ref": 498307448, "role": "outer"}], "tags": {"access": "private", "amenity": "parking", "parking": "surface", "type": "multipolygon"}}]}