{"version": 0.6, "generator": "Overpass API 0.7.58.5 b0c4acbb", "osm3s": {"timestamp_osm_base": "2022-08-30T19:57:46Z", "copyright": "The data included in this document is from www.openstreetmap.org. The data is made available under ODbL."}, "elements": [{"type": "node", "id": 664051458, "lat": 41.4046193, "lon": 2.1931174, "tags": {"amenity": "fuel", "branch": "Shell", "branch:website": "https://www.shell.es", "branch:wikidata": "Q154950", "branch:wikipedia": "es:Royal Dutch Shell", "brand": "Disa", "brand:website": "https://www.disagrupo.es", "brand:wikidata": "Q5797102", "brand:wikipedia": "es:DISA (empresa)", "name": "Shell"}}, {"type": "node", "id": 839472023, "lat": 41.3994281, "lon": 2.1927937}, {"type": "node", "id": 3975480054, "lat": 41.4034989, "lon": 2.1934917, "tags": {"amenity": "bicycle_parking", "bicycle_parking": "stands", "capacity": "14", "covered": "no"}}, {"type": "node", "id": 3975480055, "lat": 41.4036105, "lon": 2.1933526, "tags": {"address": "C Roc Boronat 134", "amenity": "bicycle_parking", "bicycle_parking": "stands", "capacity": "22", "covered": "no", "operator": "http://ajuntament.barcelona.cat/bicicleta/ca", "website": "http://ajuntament.barcelona.cat/bicicleta/ca"}}, {"type": "node", "id": 3975480056, "lat": 41.4036905, "lon": 2.1932373, "tags": {"address": "C Roc Boronat 135", "amenity": "bicycle_parking", "bicycle_parking": "stands", "capacity": "16", "covered": "no", "operator": "http://ajuntament.barcelona.cat/bicicleta/ca", "website": "http://ajuntament.barcelona.cat/bicicleta/ca"}}, {"type": "node", "id": 3975481857, "lat": 41.4038021, "lon": 2.1930934, "tags": {"amenity": "bicycle_parking", "bicycle_parking": "stands", "capacity": "14"}}, {"type": "node", "id": 3975481858, "lat": 41.4038573, "lon": 2.1930188, "tags": {"amenity": "bicycle_parking", "bicycle_parking": "stands", "capacity": "16"}}, {"type": "node", "id": 4280661017, "lat": 41.4001439, "lon": 2.1939931}, {"type": "node", "id": 4280661020, "lat": 41.400296, "lon": 2.1937936}, {"type": "node", "id": 4340445379, "lat": 41.4001482, "lon": 2.1935914}, {"type": "node", "id": 4340445383, "lat": 41.4000798, "lon": 2.193678}, {"type": "node", "id": 4340451032, "lat": 41.3994674, "lon": 2.1926912}, {"type": "node", "id": 4380551937, "lat": 41.4031087, "lon": 2.1901337, "tags": {"amenity": "parking_entrance", "fee": "yes", "maxheight": "2.2", "name": "BSM Aparcament. Dip\u00f3sit Grua", "parking": "underground"}}, {"type": "node", "id": 4386935841, "lat": 41.4037708, "lon": 2.1932608, "tags": {"amenity": "motorcycle_parking"}}, {"type": "node", "id": 4386936015, "lat": 41.4039862, "lon": 2.1928908, "tags": {"amenity": "motorcycle_parking"}}, {"type": "node", "id": 4393353435, "lat": 41.4029178, "lon": 2.1934191, "tags": {"amenity": "motorcycle_parking"}}, {"type": "node", "id": 4393356914, "lat": 41.4028072, "lon": 2.1931482, "tags": {"amenity": "motorcycle_parking"}}, {"type": "node", "id": 4689134967, "lat": 41.402878, "lon": 2.1945576, "tags": {"amenity": "charging_station", "capacity": "2", "operator": "Ajuntament de Barcelona"}}, {"type": "node", "id": 5772791454, "lat": 41.4000794, "lon": 2.1939126}, {"type": "node", "id": 6111551193, "lat": 41.4011787, "lon": 2.197307, "tags": {"access": "private", "amenity": "parking_entrance"}}, {"type": "node", "id": 6133245833, "lat": 41.4009883, "lon": 2.1954538, "tags": {"access": "private", "amenity": "parking_entrance"}}, {"type": "node", "id": 6133245836, "lat": 41.4011593, "lon": 2.1962357, "tags": {"access": "customers", "amenity": "parking_entrance"}}, {"type": "node", "id": 6133307715, "lat": 41.3996455, "lon": 2.1942556, "tags": {"access": "private", "amenity": "parking_entrance"}}, {"type": "node", "id": 6133307721, "lat": 41.4002358, "lon": 2.1944528, "tags": {"access": "private", "amenity": "parking_entrance"}}, {"type": "node", "id": 6416164463, "lat": 41.4001979, "lon": 2.193197, "tags": {"access": "private", "amenity": "parking_entrance"}}, {"type": "node", "id": 6416164483, "lat": 41.399272, "lon": 2.1928353}, {"type": "node", "id": 6416165585, "lat": 41.3993824, "lon": 2.1928403}, {"type": "node", "id": 6416165590, "lat": 41.3994217, "lon": 2.1926279}, {"type": "node", "id": 6416165593, "lat": 41.3994328, "lon": 2.1928351}, {"type": "node", "id": 6416165596, "lat": 41.3994599, "lon": 2.1926807}, {"type": "node", "id": 6416165604, "lat": 41.3993959, "lon": 2.1929255}, {"type": "node", "id": 6416165605, "lat": 41.3994221, "lon": 2.1927855}, {"type": "node", "id": 6416165609, "lat": 41.3993597, "lon": 2.1928927}, {"type": "node", "id": 6416165624, "lat": 41.3994213, "lon": 2.1928351}, {"type": "node", "id": 6416165639, "lat": 41.3993909, "lon": 2.1925856}, {"type": "node", "id": 6416165644, "lat": 41.3992347, "lon": 2.1927852}, {"type": "node", "id": 6416165648, "lat": 41.3992397, "lon": 2.1925821}, {"type": "node", "id": 6416471011, "lat": 41.4028435, "lon": 2.1968085, "tags": {"access": "private", "amenity": "parking_entrance"}}, {"type": "node", "id": 6416529644, "lat": 41.4035509, "lon": 2.1958715, "tags": {"access": "private", "amenity": "parking_entrance"}}, {"type": "node", "id": 6416529647, "lat": 41.4038555, "lon": 2.1954695, "tags": {"access": "private", "amenity": "parking_entrance"}}, {"type": "node", "id": 6535101485, "lat": 41.4013967, "lon": 2.1941375, "tags": {"amenity": "bicycle_parking", "bicycle_parking": "stands", "mapillary": "klw5aWOmLgPIbqcLz4lhoQ", "survey:date": "2020-05-03"}}, {"type": "node", "id": 6933374695, "lat": 41.40157, "lon": 2.19362, "tags": {"address": "C Sancho de \u00c1vila 115", "amenity": "bicycle_parking", "operator": "http://ajuntament.barcelona.cat/bicicleta/ca", "website": "http://ajuntament.barcelona.cat/bicicleta/ca"}}, {"type": "node", "id": 6933375011, "lat": 41.40357, "lon": 2.1916, "tags": {"address": "C Bol\u00edvia 67", "amenity": "bicycle_parking", "operator": "http://ajuntament.barcelona.cat/bicicleta/ca", "website": "http://ajuntament.barcelona.cat/bicicleta/ca"}}, {"type": "node", "id": 6933376191, "lat": 41.40278, "lon": 2.19213, "tags": {"address": "C Ciutat de Granada 127", "amenity": "bicycle_parking", "bicycle_parking": "stands", "capacity": "14", "covered": "no", "operator": "http://ajuntament.barcelona.cat/bicicleta/ca", "website": "http://ajuntament.barcelona.cat/bicicleta/ca"}}, {"type": "node", "id": 6933487011, "lat": 41.40133, "lon": 2.19402, "tags": {"address": "C Ciutat de Granada 109", "amenity": "bicycle_parking", "bicycle_parking": "stands", "mapillary": "GgmvW9yJV5Q2S_WjVAgNzQ", "operator": "http://ajuntament.barcelona.cat/bicicleta/ca", "survey:date": "2019-04-26", "website": "http://ajuntament.barcelona.cat/bicicleta/ca"}}, {"type": "node", "id": 6933487086, "lat": 41.40233, "lon": 2.19475, "tags": {"address": "C Sancho de \u00c1vila 148", "amenity": "bicycle_parking", "operator": "http://ajuntament.barcelona.cat/bicicleta/ca", "website": "http://ajuntament.barcelona.cat/bicicleta/ca"}}, {"type": "node", "id": 6933487895, "lat": 41.40404, "lon": 2.19176, "tags": {"address": "Av Diagonal 197", "amenity": "bicycle_parking", "bicycle_parking": "wall_loops", "capacity": "80", "covered": "no", "operator": "http://ajuntament.barcelona.cat/bicicleta/ca", "website": "http://ajuntament.barcelona.cat/bicicleta/ca"}}, {"type": "node", "id": 6933490923, "lat": 41.40298, "lon": 2.19335, "tags": {"address": "C T\u00e0nger 97", "amenity": "bicycle_parking", "capacity": "10", "operator": "http://ajuntament.barcelona.cat/bicicleta/ca", "website": "http://ajuntament.barcelona.cat/bicicleta/ca"}}, {"type": "node", "id": 6933490924, "lat": 41.40174, "lon": 2.19153, "tags": {"address": "C Badajoz 144", "amenity": "bicycle_parking", "bicycle_parking": "stands", "covered": "no", "operator": "http://ajuntament.barcelona.cat/bicicleta/ca", "website": "http://ajuntament.barcelona.cat/bicicleta/ca"}}, {"type": "node", "id": 6933490935, "lat": 41.40134, "lon": 2.19621, "tags": {"address": "C Roc Boronat 97", "amenity": "bicycle_parking", "operator": "http://ajuntament.barcelona.cat/bicicleta/ca", "website": "http://ajuntament.barcelona.cat/bicicleta/ca"}}, {"type": "node", "id": 6933491093, "lat": 41.40394, "lon": 2.19147, "tags": {"address": "C Ciutat de Granada 152", "amenity": "bicycle_parking", "bicycle_parking": "wall_loops", "capacity": "15", "covered": "no", "operator": "http://ajuntament.barcelona.cat/bicicleta/ca", "website": "http://ajuntament.barcelona.cat/bicicleta/ca"}}, {"type": "node", "id": 6933492904, "lat": 41.40399, "lon": 2.19263, "tags": {"address": "C Bol\u00edvia 79", "amenity": "bicycle_parking", "operator": "http://ajuntament.barcelona.cat/bicicleta/ca", "website": "http://ajuntament.barcelona.cat/bicicleta/ca"}}, {"type": "node", "id": 6933492976, "lat": 41.40182, "lon": 2.19403, "tags": {"address": "C Sancho de \u00c1vila 123", "amenity": "bicycle_parking", "operator": "http://ajuntament.barcelona.cat/bicicleta/ca", "website": "http://ajuntament.barcelona.cat/bicicleta/ca"}}, {"type": "node", "id": 6933494689, "lat": 41.40182, "lon": 2.19404, "tags": {"address": "C Sancho de \u00c1vila 123", "amenity": "bicycle_parking", "capacity": "8", "operator": "http://ajuntament.barcelona.cat/bicicleta/ca", "website": "http://ajuntament.barcelona.cat/bicicleta/ca"}}, {"type": "node", "id": 6933502353, "lat": 41.4038321, "lon": 2.1898071, "tags": {"addr:description": "Av Diagonal 209", "amenity": "bicycle_parking", "capacity": "8", "covered": "no", "operator": "http://ajuntament.barcelona.cat/bicicleta/ca", "website": "http://ajuntament.barcelona.cat/bicicleta/ca"}}, {"type": "node", "id": 6933504534, "lat": 41.40183, "lon": 2.1943, "tags": {"address": "C Sancho de \u00c1vila 134", "amenity": "bicycle_parking", "bicycle_parking": "stands", "capacity": "10", "covered": "no", "operator": "http://ajuntament.barcelona.cat/bicicleta/ca", "website": "http://ajuntament.barcelona.cat/bicicleta/ca"}}, {"type": "node", "id": 6933505033, "lat": 41.40286, "lon": 2.19668, "tags": {"address": "C Llacuna 96", "amenity": "bicycle_parking", "operator": "http://ajuntament.barcelona.cat/bicicleta/ca", "website": "http://ajuntament.barcelona.cat/bicicleta/ca"}}, {"type": "node", "id": 6933505041, "lat": 41.40052, "lon": 2.19529, "tags": {"address": "C Ciutat de Granada 91", "amenity": "bicycle_parking", "operator": "http://ajuntament.barcelona.cat/bicicleta/ca", "website": "http://ajuntament.barcelona.cat/bicicleta/ca"}}, {"type": "node", "id": 6933505045, "lat": 41.40269, "lon": 2.19069, "tags": {"address": "C Bol\u00edvia 45", "amenity": "bicycle_parking", "operator": "http://ajuntament.barcelona.cat/bicicleta/ca", "website": "http://ajuntament.barcelona.cat/bicicleta/ca"}}, {"type": "node", "id": 6933505404, "lat": 41.40291, "lon": 2.19446, "tags": {"address": "C Roc Boronat 124", "amenity": "bicycle_parking", "bicycle_parking": "stands", "capacity": "10", "covered": "no", "operator": "http://ajuntament.barcelona.cat/bicicleta/ca", "website": "http://ajuntament.barcelona.cat/bicicleta/ca"}}, {"type": "node", "id": 6933505526, "lat": 41.40364, "lon": 2.19565, "tags": {"address": "C Llacuna 103", "amenity": "bicycle_parking", "operator": "http://ajuntament.barcelona.cat/bicicleta/ca", "website": "http://ajuntament.barcelona.cat/bicicleta/ca"}}, {"type": "node", "id": 6933505529, "lat": 41.40012, "lon": 2.19581, "tags": {"address": "C Ciutat de Granada 90", "amenity": "bicycle_parking", "operator": "http://ajuntament.barcelona.cat/bicicleta/ca", "website": "http://ajuntament.barcelona.cat/bicicleta/ca"}}, {"type": "node", "id": 6933509507, "lat": 41.40183, "lon": 2.19339, "tags": {"address": "C Ciutat de Granada 113", "amenity": "bicycle_parking", "bicycle_parking": "stands", "capacity": "8", "covered": "no", "operator": "http://ajuntament.barcelona.cat/bicicleta/ca", "website": "http://ajuntament.barcelona.cat/bicicleta/ca"}}, {"type": "node", "id": 6933521893, "lat": 41.40085, "lon": 2.19276, "tags": {"address": "C Badajoz 126", "amenity": "bicycle_parking", "operator": "http://ajuntament.barcelona.cat/bicicleta/ca", "website": "http://ajuntament.barcelona.cat/bicicleta/ca"}}, {"type": "node", "id": 6933524088, "lat": 41.40451, "lon": 2.19428, "tags": {"address": "C Llacuna 129", "amenity": "bicycle_parking", "bicycle_parking": "stands", "mapillary": "pzLSH3mVUcJNE9OGu87bwQ", "operator": "http://ajuntament.barcelona.cat/bicicleta/ca", "survey:date": "2019-05-31", "website": "http://ajuntament.barcelona.cat/bicicleta/ca"}}, {"type": "node", "id": 6973988507, "lat": 41.40345, "lon": 2.19127, "tags": {"address": "C Ciutat de Granada 143", "amenity": "taxi", "website": "www.taxibarcelona.cat"}}, {"type": "node", "id": 6974004802, "lat": 41.40242, "lon": 2.19249, "tags": {"address": "C T\u00e0nger 89", "amenity": "taxi", "website": "www.taxibarcelona.cat"}}, {"type": "node", "id": 6974009312, "lat": 41.4032, "lon": 2.19628, "tags": {"address": "C Sancho de \u00c1vila 172", "amenity": "taxi", "website": "www.taxibarcelona.cat"}}, {"type": "node", "id": 6974013791, "lat": 41.40112, "lon": 2.19435, "tags": {"address": "C Ciutat de Granada 99", "amenity": "taxi", "website": "www.taxibarcelona.cat"}}, {"type": "node", "id": 6974014301, "lat": 41.40072, "lon": 2.19286, "tags": {"address": "C Badajoz 126", "amenity": "taxi", "website": "www.taxibarcelona.cat"}}, {"type": "node", "id": 7056232785, "lat": 41.4035753, "lon": 2.1943631, "tags": {"amenity": "motorcycle_parking"}}, {"type": "node", "id": 7476306042, "lat": 41.4034935, "lon": 2.1938842, "tags": {"amenity": "bicycle_parking"}}, {"type": "node", "id": 7476333790, "lat": 41.403577, "lon": 2.1916707, "tags": {"access": "customers", "amenity": "parking", "parking": "underground"}}, {"type": "node", "id": 8199236060, "lat": 41.4031635, "lon": 2.1899525, "tags": {"access": "yes", "amenity": "parking_entrance", "fee": "yes", "maxheight": "2.2", "name": "Torre Gl\u00f2ries", "parking": "underground"}}, {"type": "node", "id": 8199236065, "lat": 41.4031521, "lon": 2.1900738, "tags": {"amenity": "parking_entrance", "fee": "yes", "maxheight": "2.2", "name": "Gates Diagonal Barcelona", "parking": "underground"}}, {"type": "node", "id": 8440966163, "lat": 41.4030315, "lon": 2.1902477}, {"type": "node", "id": 8440966164, "lat": 41.4030888, "lon": 2.1903232}, {"type": "node", "id": 8440966165, "lat": 41.4031089, "lon": 2.1902961}, {"type": "node", "id": 8440966166, "lat": 41.4030516, "lon": 2.1902206}, {"type": "node", "id": 8814389010, "lat": 41.4015604, "lon": 2.1955269, "tags": {"access": "private", "amenity": "parking_entrance"}}, {"type": "node", "id": 8814389013, "lat": 41.4019809, "lon": 2.1949341, "tags": {"access": "private", "amenity": "parking_entrance"}}, {"type": "way", "id": 436166611, "nodes": [4340445379, 4280661020, 4280661017, 5772791454, 4340445383, 4340445379], "tags": {"amenity": "fuel", "brand": "Petroprix", "name": "Petroprix", "opening_hours": "Mo-Su,PH 12:00+", "operator": "Petroprix"}}, {"type": "way", "id": 436167068, "nodes": [6416165590, 6416165596, 4340451032, 839472023, 6416165605, 6416165624, 6416165593, 6416165604, 6416165609, 6416165585, 6416164483, 6416165644, 6416165648, 6416165639, 6416165590], "tags": {"amenity": "fuel", "brand": "BP", "brand:wikidata": "Q152057", "brand:wikipedia": "es:BP", "building": "industrial", "building:levels": "2", "fuel:GTL_diesel": "yes", "fuel:diesel": "yes", "fuel:octane_95": "yes", "fuel:octane_98": "yes", "name": "BP", "opening_hours": "Mo-Fr 06:00-23:00; Sa 06:00-00:00; Su 06:00-22:00", "source": "Ministerio de Industria, Turismo y Comercio", "source:date": "2010-08-06"}}, {"type": "way", "id": 909097450, "nodes": [8440966166, 8440966165, 8440966164, 8440966163, 8440966166], "tags": {"access": "customers", "amenity": "parking_entrance", "building": "yes", "foot": "yes", "wheelchair": "yes"}}]}