{"version": 0.6, "generator": "Overpass API 0.7.58.5 b0c4acbb", "osm3s": {"timestamp_osm_base": "2022-09-12T18:35:39Z", "copyright": "The data included in this document is from www.openstreetmap.org. The data is made available under ODbL."}, "elements": [{"type": "node", "id": 1802909198, "lat": 37.3937267, "lon": -5.9840314, "tags": {"addr:country": "ES", "addr:housenumber": "6", "addr:street": "Mu\u00f1oz Torrero", "name": "Isa\u00edas Peluqueros", "shop": "hairdresser", "website": "http://isaiaspeluqueros.es/"}}, {"type": "node", "id": 1905508083, "lat": 37.3938616, "lon": -5.9825896, "tags": {"addr:country": "ES", "shop": "hairdresser"}}, {"type": "node", "id": 1905508124, "lat": 37.3938271, "lon": -5.9825135, "tags": {"name": "aromas", "shop": "beauty"}}, {"type": "node", "id": 2447103099, "lat": 37.383406, "lon": -5.973292, "tags": {"addr:city": "Sevilla", "addr:housenumber": "32", "addr:postcode": "41018", "addr:street": "Avenida Luis de Morales", "name": "Cex", "opening_hours": "Mo-Sa 08:30-20:00; Su 17:00-22:00", "shop": "second_hand", "website": "https://es.webuy.com/"}}, {"type": "node", "id": 3150440365, "lat": 37.3889977, "lon": -5.9847221, "tags": {"name": "Top Mage", "opening_hours": "Mo-Sa 09:30-14:00,16:30-20:00", "phone": "+34 954414971", "shop": "hairdresser", "wheelchair": "limited"}}, {"type": "node", "id": 3150531546, "lat": 37.3889495, "lon": -5.9847368, "tags": {"name": "Florida Importaciones", "opening_hours": "Mo-Sa 09:15-14:00,17:00-21:00", "shop": "variety_store", "wheelchair": "no"}}, {"type": "node", "id": 3150531550, "lat": 37.3886881, "lon": -5.9848392, "tags": {"addr:city": "Sevilla", "addr:country": "ES", "addr:housenumber": "57", "addr:province": "Sevilla", "addr:street": "Calle Recaredo", "name": "Rastro Remar", "opening_hours": "Mo-Fr 09:30-14:00,16:00-20:30; Sa 10:00-14:00", "phone": "+34 954999480", "shop": "charity", "website": "https://www.remar.org", "wheelchair": "limited"}}, {"type": "node", "id": 3161051617, "lat": 37.3857124, "lon": -5.9865881, "tags": {"name": "Artesanos en cuero", "opening_hours": "Mo-Fr 10:00-22:00; Sa 10:00-14:00", "organic": "no", "second_hand": "no", "shop": "shoes", "wheelchair": "no"}}, {"type": "node", "id": 3164416885, "lat": 37.3859956, "lon": -5.9868231, "tags": {"name": "Caballeros", "opening_hours": "Mo-Fr 09:00-14:00, 17:00-21:00; Sa 09:00-14:00", "shop": "hairdresser", "wheelchair": "no"}}, {"type": "node", "id": 3164416894, "lat": 37.3857558, "lon": -5.986239, "tags": {"name": "Plater\u00eda", "shop": "jewelry", "wheelchair": "limited"}}, {"type": "node", "id": 3164416895, "lat": 37.3858258, "lon": -5.9863249, "tags": {"contact:email": "sangrespanolafashion@gmail.com", "contact:facebook": "sangrespanola", "contact:phone": "+34 95 4535551", "name": "Sangrespa\u00f1ola", "opening_hours": "Mo-Sa 09:30-22:00", "organic": "no", "second_hand": "no", "shop": "clothes", "website": "http://www.sangrespanola.com", "wheelchair": "limited"}}, {"type": "node", "id": 4827216651, "lat": 37.3772684, "lon": -5.9747424, "tags": {"addr:city": "Sevilla", "addr:postcode": "41005", "addr:street": "Avenida San Francisco Javier", "name": "Zapatos Pasarela", "opening_hours": "Mo-Sa 09:00-20:30", "operator": "Pasarela", "phone": "+34 954 63 85 34", "shop": "shoes", "website": "http://www.zapatospasarela.com"}}, {"type": "node", "id": 5347945191, "lat": 37.3891296, "lon": -5.9811676, "tags": {"shop": "hairdresser"}}, {"type": "node", "id": 5799717567, "lat": 37.3944147, "lon": -5.9837848, "tags": {"name": "Nuva", "shop": "clothes"}}, {"type": "node", "id": 6044778403, "lat": 37.3908016, "lon": -5.9820919, "tags": {"name": "herborister\u00eda Biotienda", "shop": "herbalist"}}, {"type": "node", "id": 6061790918, "lat": 37.3921129, "lon": -5.981208, "tags": {"name": "MAO", "shop": "variety_store"}}, {"type": "node", "id": 6061790919, "lat": 37.3910715, "lon": -5.9793804, "tags": {"name": "Maxi MAO", "shop": "variety_store"}}, {"type": "node", "id": 6061790922, "lat": 37.3913449, "lon": -5.9817317, "tags": {"name": "Recreo", "shop": "fabric"}}, {"type": "node", "id": 6061790934, "lat": 37.3915029, "lon": -5.9799522, "tags": {"shop": "herbalist"}}, {"type": "node", "id": 6061790947, "lat": 37.3927083, "lon": -5.9825831, "tags": {"name": "Low cost", "shop": "hairdresser"}}, {"type": "node", "id": 6061790949, "lat": 37.3926967, "lon": -5.9830228, "tags": {"shop": "variety_store"}}, {"type": "node", "id": 6061790964, "lat": 37.3902345, "lon": -5.9827756, "tags": {"shop": "variety_store"}}, {"type": "node", "id": 6061813210, "lat": 37.3912811, "lon": -5.9825859, "tags": {"shop": "variety_store"}}, {"type": "node", "id": 6061813213, "lat": 37.3924219, "lon": -5.9822, "tags": {"name": "Valkiria", "shop": "hairdresser"}}, {"type": "node", "id": 6061813215, "lat": 37.3923666, "lon": -5.9822556, "tags": {"name": "Peluqueria 52", "shop": "hairdresser"}}, {"type": "node", "id": 6939702137, "lat": 37.3831591, "lon": -5.972763, "tags": {"brand": "Pull & Bear", "brand:wikidata": "Q691029", "brand:wikipedia": "en:Pull&Bear", "name": "Pull & Bear", "shop": "clothes"}}, {"type": "node", "id": 6939702142, "lat": 37.3830288, "lon": -5.9727832, "tags": {"brand": "Oysho", "brand:wikidata": "Q3327046", "brand:wikipedia": "en:Oysho", "name": "Oysho", "shop": "clothes"}}, {"type": "node", "id": 6939702154, "lat": 37.3801239, "lon": -5.9745821, "tags": {"name": "Farmacia I+", "opening_hours": "24/7", "shop": "chemist"}}, {"type": "node", "id": 7205676202, "lat": 37.3938302, "lon": -5.983534, "tags": {"addr:city": "Sevilla", "addr:housenumber": "2", "addr:street": "Calle Jos\u00e9 Laguillo", "name": "Audiocenter", "shop": "hearing_aids"}}, {"type": "node", "id": 9149441917, "lat": 37.3856835, "lon": -5.9858288, "tags": {"name": "Halos Secret", "shop": "clothes"}}, {"type": "node", "id": 9152309017, "lat": 37.3861488, "lon": -5.9856195, "tags": {"name": "Halo", "shop": "clothes"}}, {"type": "node", "id": 9152309117, "lat": 37.3876785, "lon": -5.984897, "tags": {"name": "Victoria", "shop": "clothes"}}, {"type": "node", "id": 9350671875, "lat": 37.3876068, "lon": -5.9746875, "tags": {"name": "Sal\u00f3n de belleza", "shop": "beauty"}}, {"type": "node", "id": 9350671876, "lat": 37.3875531, "lon": -5.9746049, "tags": {"name": "Sal\u00f3n de belleza", "shop": "beauty"}}]}