{"version": 0.6, "generator": "Overpass API 0.7.58.5 b0c4acbb", "osm3s": {"timestamp_osm_base": "2022-09-04T18:58:09Z", "copyright": "The data included in this document is from www.openstreetmap.org. The data is made available under ODbL."}, "elements": [{"type": "node", "id": 6535101485, "lat": 41.4013967, "lon": 2.1941375, "tags": {"amenity": "bicycle_parking", "bicycle_parking": "stands", "mapillary": "klw5aWOmLgPIbqcLz4lhoQ", "survey:date": "2020-05-03"}}, {"type": "node", "id": 6933374695, "lat": 41.40157, "lon": 2.19362, "tags": {"address": "C Sancho de \u00c1vila 115", "amenity": "bicycle_parking", "operator": "http://ajuntament.barcelona.cat/bicicleta/ca", "website": "http://ajuntament.barcelona.cat/bicicleta/ca"}}, {"type": "node", "id": 6933487011, "lat": 41.40133, "lon": 2.19402, "tags": {"address": "C Ciutat de Granada 109", "amenity": "bicycle_parking", "bicycle_parking": "stands", "mapillary": "GgmvW9yJV5Q2S_WjVAgNzQ", "operator": "http://ajuntament.barcelona.cat/bicicleta/ca", "survey:date": "2019-04-26", "website": "http://ajuntament.barcelona.cat/bicicleta/ca"}}, {"type": "node", "id": 6933509507, "lat": 41.40183, "lon": 2.19339, "tags": {"address": "C Ciutat de Granada 113", "amenity": "bicycle_parking", "bicycle_parking": "stands", "capacity": "8", "covered": "no", "operator": "http://ajuntament.barcelona.cat/bicicleta/ca", "website": "http://ajuntament.barcelona.cat/bicicleta/ca"}}, {"type": "node", "id": 6933521893, "lat": 41.40085, "lon": 2.19276, "tags": {"address": "C Badajoz 126", "amenity": "bicycle_parking", "operator": "http://ajuntament.barcelona.cat/bicicleta/ca", "website": "http://ajuntament.barcelona.cat/bicicleta/ca"}}, {"type": "node", "id": 6974004802, "lat": 41.40242, "lon": 2.19249, "tags": {"address": "C T\u00e0nger 89", "amenity": "taxi", "website": "www.taxibarcelona.cat"}}, {"type": "node", "id": 6974014301, "lat": 41.40072, "lon": 2.19286, "tags": {"address": "C Badajoz 126", "amenity": "taxi", "website": "www.taxibarcelona.cat"}}]}