{"version": 0.6, "generator": "Overpass API 0.7.58.5 b0c4acbb", "osm3s": {"timestamp_osm_base": "2022-09-05T10:31:39Z", "copyright": "The data included in this document is from www.openstreetmap.org. The data is made available under ODbL."}, "elements": [{"type": "node", "id": 4361915993, "lat": 41.3993722, "lon": 2.1919911, "tags": {"addr:housenumber": "121", "addr:postcode": "08018", "addr:street": "Carrer de \u00c1vila", "email": "hola@perfumeriassanremo.es", "name": "Perfumerias San Remo", "name:es": "Perfumerias San Remo", "phone": "+34 902102305", "shop": "beauty", "website": "https://www.perfumeriassanremo.es/"}}, {"type": "node", "id": 6138972128, "lat": 41.3986272, "lon": 2.1930161}, {"type": "node", "id": 6138972135, "lat": 41.398322, "lon": 2.1926353}, {"type": "node", "id": 6138972165, "lat": 41.3983289, "lon": 2.1926184}, {"type": "node", "id": 6138972171, "lat": 41.3983401, "lon": 2.1926333}, {"type": "node", "id": 6138972295, "lat": 41.3985806, "lon": 2.1930773, "tags": {"addr:city": "Barcelona", "addr:housenumber": "105", "addr:postcode": "08018", "addr:street": "Carrer \u00c1vila", "entrance": "yes"}}, {"type": "node", "id": 6138972301, "lat": 41.3984522, "lon": 2.192783}, {"type": "node", "id": 6138972303, "lat": 41.3983059, "lon": 2.1926749}, {"type": "node", "id": 6138972324, "lat": 41.3982758, "lon": 2.192749}, {"type": "node", "id": 6138972356, "lat": 41.3985503, "lon": 2.1931171}, {"type": "node", "id": 7556742391, "lat": 41.4026637, "lon": 2.19726, "tags": {"name": "Jean Louis David", "shop": "hairdresser"}}, {"type": "node", "id": 7616011485, "lat": 41.399701, "lon": 2.2002314, "tags": {"name": "Le Salon", "shop": "hairdresser"}}, {"type": "node", "id": 8035019186, "lat": 41.4002413, "lon": 2.1957979, "tags": {"name": "Systemaction outlet", "shop": "clothes"}}, {"type": "node", "id": 8062016200, "lat": 41.3995696, "lon": 2.2000674, "tags": {"addr:housenumber": "155", "addr:postcode": "08005", "addr:street": "Carrer de Llull", "email": "nostrecos@yahoo.es", "healthcare": "alternative", "name": "Nostre Cos - dermoest\u00e8tica, ter\u00e0pies naturals", "phone": "+34 933094646", "shop": "beauty"}}, {"type": "node", "id": 9810769219, "lat": 41.3983754, "lon": 2.1983412, "tags": {"name:en": "Blow Hair Salon", "opening_hours": "Mo-Fr 10:00-19:00", "phone": "+34 930268734", "shop": "hairdresser"}}, {"type": "way", "id": 655191292, "nodes": [6138972171, 6138972301, 6138972128, 6138972295, 6138972356, 6138972324, 6138972303, 6138972135, 6138972165, 6138972171], "tags": {"building": "industrial", "building:levels": "1", "name": "Outlet Leather Factory", "note": "The best leather factory-shop in Spain! Thousands of leather jackets for men and women. Real factory prices.", "opening_hours": "Mo-Sa 10:00-20:00", "phone": "+34 934855690", "shop": "clothes", "website": "https://www.olf.es/", "wheelchair": "yes"}}]}