{"version": 0.6, "generator": "Overpass API 0.7.58.5 b0c4acbb", "osm3s": {"timestamp_osm_base": "2022-09-03T10:28:24Z", "copyright": "The data included in this document is from www.openstreetmap.org. The data is made available under ODbL."}, "elements": [{"type": "node", "id": 664051458, "lat": 41.4046193, "lon": 2.1931174, "tags": {"amenity": "fuel", "branch": "Shell", "branch:website": "https://www.shell.es", "branch:wikidata": "Q154950", "branch:wikipedia": "es:Royal Dutch Shell", "brand": "Disa", "brand:website": "https://www.disagrupo.es", "brand:wikidata": "Q5797102", "brand:wikipedia": "es:DISA (empresa)", "name": "Shell"}}, {"type": "node", "id": 2292951787, "lat": 41.4044951, "lon": 2.1898151}, {"type": "node", "id": 2921504439, "lat": 41.4065751, "lon": 2.1989016}, {"type": "node", "id": 2921504440, "lat": 41.4066308, "lon": 2.198975}, {"type": "node", "id": 2921504441, "lat": 41.4066958, "lon": 2.1986899}, {"type": "node", "id": 2921504442, "lat": 41.4067276, "lon": 2.1986475}, {"type": "node", "id": 2921504443, "lat": 41.406715, "lon": 2.1987151}, {"type": "node", "id": 2921504444, "lat": 41.4067832, "lon": 2.198798}, {"type": "node", "id": 2921504446, "lat": 41.4068, "lon": 2.1988773}, {"type": "node", "id": 2921504447, "lat": 41.4068216, "lon": 2.1988485}, {"type": "node", "id": 2921504448, "lat": 41.4068125, "lon": 2.198759}, {"type": "node", "id": 2921504450, "lat": 41.4068634, "lon": 2.1989615}, {"type": "node", "id": 3679449094, "lat": 41.4045631, "lon": 2.1901144, "tags": {"amenity": "parking_entrance", "operator": "Centre Comercial Gl\u00f2ries"}}, {"type": "node", "id": 3679449095, "lat": 41.4046178, "lon": 2.190015, "tags": {"access": "customers", "amenity": "parking_entrance", "lit": "yes", "maxheight": "2.10", "operator": "Centre Comercial Gl\u00f2ries", "parking": "underground", "smoothness": "excellent", "supervised": "no", "surface": "asphalt"}}, {"type": "node", "id": 3975481864, "lat": 41.4045038, "lon": 2.1909886, "tags": {"address": "Av Diagonal 230", "amenity": "bicycle_parking", "bicycle_parking": "stands", "capacity": "8", "operator": "http://ajuntament.barcelona.cat/bicicleta/ca", "website": "http://ajuntament.barcelona.cat/bicicleta/ca"}}, {"type": "node", "id": 3975481865, "lat": 41.4046048, "lon": 2.1913946, "tags": {"address": "Av Diagonal 220", "amenity": "bicycle_parking", "bicycle_parking": "stands", "capacity": "10", "covered": "no", "operator": "http://ajuntament.barcelona.cat/bicicleta/ca", "website": "http://ajuntament.barcelona.cat/bicicleta/ca"}}, {"type": "node", "id": 3975481866, "lat": 41.4046498, "lon": 2.1915553, "tags": {"address": "Av Diagonal 220", "amenity": "bicycle_parking", "bicycle_parking": "stands", "capacity": "10", "covered": "no", "operator": "http://ajuntament.barcelona.cat/bicicleta/ca", "website": "http://ajuntament.barcelona.cat/bicicleta/ca"}}, {"type": "node", "id": 4222047289, "lat": 41.4043355, "lon": 2.1889878}, {"type": "node", "id": 4222047290, "lat": 41.4043206, "lon": 2.1894346}, {"type": "node", "id": 4222047291, "lat": 41.4044037, "lon": 2.1896917}, {"type": "node", "id": 4222047292, "lat": 41.4048958, "lon": 2.1892971}, {"type": "node", "id": 4267976989, "lat": 41.4043792, "lon": 2.1898675, "tags": {"amenity": "bicycle_parking", "bicycle_parking": "informal", "covered": "no"}}, {"type": "node", "id": 4267986396, "lat": 41.404845, "lon": 2.1902037, "tags": {"access": "permissive", "amenity": "parking", "capacity": "500", "fee": "yes", "level": "-4", "name": "P\u00e0rking Centre Comercial Gl\u00f2ries", "operator": "Centre Comercial Gl\u00f2ries", "parking": "underground", "supervised": "yes", "surface": "asphalt"}}, {"type": "node", "id": 4267989768, "lat": 41.405609, "lon": 2.1924294, "tags": {"access": "customers", "amenity": "parking_entrance", "lit": "yes", "maxheight": "2.10", "operator": "Centre Comercial Gl\u00f2ries", "parking": "underground", "smoothness": "excellent", "supervised": "no", "surface": "asphalt"}}, {"type": "node", "id": 4267990357, "lat": 41.4056721, "lon": 2.1923664, "tags": {"amenity": "parking_entrance", "operator": "Centre Comercial Gl\u00f2ries"}}, {"type": "node", "id": 4336108005, "lat": 41.406966, "lon": 2.193526, "tags": {"address": "Rbla Poblenou 162", "amenity": "bicycle_parking", "bicycle_parking": "stands", "capacity": "10", "covered": "no", "operator": "http://ajuntament.barcelona.cat/bicicleta/ca", "website": "http://ajuntament.barcelona.cat/bicicleta/ca"}}, {"type": "node", "id": 4338082584, "lat": 41.4065007, "lon": 2.1987466}, {"type": "node", "id": 4338082585, "lat": 41.4065912, "lon": 2.1986294, "tags": {"addr:housenumber": "130", "addr:postcode": "08018", "addr:street": "Avinguda Diagonal", "barrier": "gate", "entrance": "main"}}, {"type": "node", "id": 4338082586, "lat": 41.4066805, "lon": 2.1985087}, {"type": "node", "id": 4338083544, "lat": 41.4066431, "lon": 2.1992551}, {"type": "node", "id": 4338083545, "lat": 41.4067045, "lon": 2.1991629}, {"type": "node", "id": 4338083546, "lat": 41.4069417, "lon": 2.198854}, {"type": "node", "id": 4346142921, "lat": 41.4064606, "lon": 2.1936016, "tags": {"amenity": "motorcycle_parking", "capacity": "19", "covered": "no"}}, {"type": "node", "id": 4374355159, "lat": 41.404621, "lon": 2.1895844, "tags": {"access": "customers", "address": "C Ciutat de Granada 173", "amenity": "parking", "fee": "yes", "maxheight": "2.20", "name": "Aparcament Ona Gl\u00f2ries", "parking": "car_sharing", "phone": "+34 933092345", "website": "https://www.aparcamentsbsm.cat"}}, {"type": "node", "id": 4386947823, "lat": 41.40601, "lon": 2.1929448, "tags": {"amenity": "motorcycle_parking", "capacity": "30", "covered": "no"}}, {"type": "node", "id": 4554656606, "lat": 41.4044711, "lon": 2.1888355}, {"type": "node", "id": 4736014160, "lat": 41.4057213, "lon": 2.1928104, "tags": {"amenity": "charging_station", "capacity": "2", "operator": "Ajuntament de Barcelona"}}, {"type": "node", "id": 5012308440, "lat": 41.4075097, "lon": 2.1940952, "tags": {"amenity": "motorcycle_parking", "capacity": "15", "covered": "no"}}, {"type": "node", "id": 5486057722, "lat": 41.4066196, "lon": 2.1915884, "tags": {"amenity": "bicycle_parking"}}, {"type": "node", "id": 6418198345, "lat": 41.4057958, "lon": 2.1978223, "tags": {"access": "private", "amenity": "parking_entrance"}}, {"type": "node", "id": 6933374636, "lat": 41.4058602, "lon": 2.1978618, "tags": {"address": "Av Diagonal 149", "amenity": "bicycle_parking", "bicycle_parking": "anchors", "capacity": "14", "operator": "http://ajuntament.barcelona.cat/bicicleta/ca", "website": "http://ajuntament.barcelona.cat/bicicleta/ca"}}, {"type": "node", "id": 6933374643, "lat": 41.40602, "lon": 2.19491, "tags": {"addr:description": "C Bol\u00edvia 122", "amenity": "bicycle_parking", "bicycle_parking": "stands", "capacity": "12", "covered": "no", "mapillary": "1pBulfz5boXLq14mLaen_A", "operator": "http://ajuntament.barcelona.cat/bicicleta/ca", "survey:date": "2019-09-16", "website": "http://ajuntament.barcelona.cat/bicicleta/ca"}}, {"type": "node", "id": 6933374654, "lat": 41.40616, "lon": 2.19472, "tags": {"addr:description": "Rbla Poblenou 141", "amenity": "bicycle_parking", "bicycle_parking": "stands", "capacity": "8", "covered": "no", "operator": "http://ajuntament.barcelona.cat/bicicleta/ca", "website": "http://ajuntament.barcelona.cat/bicicleta/ca"}}, {"type": "node", "id": 6933375121, "lat": 41.40761, "lon": 2.19492, "tags": {"address": "C Per\u00fa 73", "amenity": "bicycle_parking", "operator": "http://ajuntament.barcelona.cat/bicicleta/ca", "website": "http://ajuntament.barcelona.cat/bicicleta/ca"}}, {"type": "node", "id": 6933375122, "lat": 41.40779, "lon": 2.1969, "tags": {"addr:description": "C Bilbao 165", "amenity": "bicycle_parking", "bicycle_parking": "stands", "capacity": "10", "covered": "no", "operator": "http://ajuntament.barcelona.cat/bicicleta/ca", "website": "http://ajuntament.barcelona.cat/bicicleta/ca"}}, {"type": "node", "id": 6933487192, "lat": 41.40485, "lon": 2.1922, "tags": {"address": "Av Diagonal 210", "amenity": "bicycle_parking", "operator": "http://ajuntament.barcelona.cat/bicicleta/ca", "website": "http://ajuntament.barcelona.cat/bicicleta/ca"}}, {"type": "node", "id": 6933487204, "lat": 41.4047, "lon": 2.18983, "tags": {"address": "C Ciutat de Granada 170", "amenity": "bicycle_parking", "bicycle_parking": "stands", "capacity": "24", "covered": "no", "operator": "http://ajuntament.barcelona.cat/bicicleta/ca", "website": "http://ajuntament.barcelona.cat/bicicleta/ca"}}, {"type": "node", "id": 6933487790, "lat": 41.404636, "lon": 2.1897134, "tags": {"address": "C Ciutat de Granada 167", "amenity": "bicycle_parking", "operator": "http://ajuntament.barcelona.cat/bicicleta/ca", "website": "http://ajuntament.barcelona.cat/bicicleta/ca"}}, {"type": "node", "id": 6933487890, "lat": 41.40651, "lon": 2.19154, "tags": {"address": "C Llacuna 161", "amenity": "bicycle_parking", "operator": "http://ajuntament.barcelona.cat/bicicleta/ca", "website": "http://ajuntament.barcelona.cat/bicicleta/ca"}}, {"type": "node", "id": 6933490970, "lat": 41.40526, "lon": 2.19503, "tags": {"address": "Av Diagonal 165", "amenity": "bicycle_parking", "operator": "http://ajuntament.barcelona.cat/bicicleta/ca", "website": "http://ajuntament.barcelona.cat/bicicleta/ca"}}, {"type": "node", "id": 6933490972, "lat": 41.40599, "lon": 2.19531, "tags": {"address": "C Bol\u00edvia 124", "amenity": "bicycle_parking", "operator": "http://ajuntament.barcelona.cat/bicicleta/ca", "website": "http://ajuntament.barcelona.cat/bicicleta/ca"}}, {"type": "node", "id": 6933490973, "lat": 41.4068562, "lon": 2.1982801, "tags": {"address": "C Bilbao 145", "amenity": "bicycle_parking", "capacity": "8", "operator": "http://ajuntament.barcelona.cat/bicicleta/ca", "website": "http://ajuntament.barcelona.cat/bicicleta/ca"}}, {"type": "node", "id": 6933490974, "lat": 41.40862, "lon": 2.19582, "tags": {"address": "C Bilbao 181", "amenity": "bicycle_parking", "operator": "http://ajuntament.barcelona.cat/bicicleta/ca", "website": "http://ajuntament.barcelona.cat/bicicleta/ca"}}, {"type": "node", "id": 6933494043, "lat": 41.40508, "lon": 2.19494, "tags": {"address": "Av Diagonal 165", "amenity": "bicycle_parking", "operator": "http://ajuntament.barcelona.cat/bicicleta/ca", "website": "http://ajuntament.barcelona.cat/bicicleta/ca"}}, {"type": "node", "id": 6933502353, "lat": 41.4038321, "lon": 2.1898071, "tags": {"addr:description": "Av Diagonal 209", "amenity": "bicycle_parking", "capacity": "8", "covered": "no", "operator": "http://ajuntament.barcelona.cat/bicicleta/ca", "website": "http://ajuntament.barcelona.cat/bicicleta/ca"}}, {"type": "node", "id": 6933502365, "lat": 41.40428, "lon": 2.18981, "tags": {"addr:description": "Av Diagonal 254", "amenity": "bicycle_parking", "bicycle_parking": "stands", "covered": "no", "operator": "http://ajuntament.barcelona.cat/bicicleta/ca", "website": "http://ajuntament.barcelona.cat/bicicleta/ca"}}, {"type": "node", "id": 6933504491, "lat": 41.4088027, "lon": 2.1945221, "tags": {"address": "G.V. Corts Catalanes 936", "amenity": "bicycle_parking", "operator": "http://ajuntament.barcelona.cat/bicicleta/ca", "website": "http://ajuntament.barcelona.cat/bicicleta/ca"}}, {"type": "node", "id": 6933504750, "lat": 41.40637, "lon": 2.19205, "tags": {"address": "C Llacuna 157", "amenity": "bicycle_parking", "covered": "no", "operator": "http://ajuntament.barcelona.cat/bicicleta/ca", "website": "http://ajuntament.barcelona.cat/bicicleta/ca"}}, {"type": "node", "id": 6933504754, "lat": 41.4062, "lon": 2.1966, "tags": {"address": "C Castella 31", "amenity": "bicycle_parking", "operator": "http://ajuntament.barcelona.cat/bicicleta/ca", "website": "http://ajuntament.barcelona.cat/bicicleta/ca"}}, {"type": "node", "id": 6933505036, "lat": 41.4071073, "lon": 2.1914849, "tags": {"addr:description": "G.V. Corts Catalanes 859", "amenity": "bicycle_parking", "covered": "no", "operator": "http://ajuntament.barcelona.cat/bicicleta/ca", "website": "http://ajuntament.barcelona.cat/bicicleta/ca"}}, {"type": "node", "id": 6933505530, "lat": 41.4071, "lon": 2.19543, "tags": {"address": "C Castella 45", "amenity": "bicycle_parking", "operator": "http://ajuntament.barcelona.cat/bicicleta/ca", "website": "http://ajuntament.barcelona.cat/bicicleta/ca"}}, {"type": "node", "id": 6933505531, "lat": 41.40693, "lon": 2.19632, "tags": {"address": "C Bol\u00edvia 121", "amenity": "bicycle_parking", "bicycle_parking": "stands", "mapillary": "VtTWam8GeUhqRUzhCbtrXg", "operator": "http://ajuntament.barcelona.cat/bicicleta/ca", "survey:date": "2019-01-14", "website": "http://ajuntament.barcelona.cat/bicicleta/ca"}}, {"type": "node", "id": 6933505559, "lat": 41.40638, "lon": 2.19444, "tags": {"address": "Rbla Poblenou 152", "amenity": "bicycle_parking", "operator": "http://ajuntament.barcelona.cat/bicicleta/ca", "website": "http://ajuntament.barcelona.cat/bicicleta/ca"}}, {"type": "node", "id": 6933509499, "lat": 41.40557, "lon": 2.19311, "tags": {"address": "C Llacuna 148", "amenity": "bicycle_parking", "bicycle_parking": "stands", "capacity": "10", "operator": "http://ajuntament.barcelona.cat/bicicleta/ca", "website": "http://ajuntament.barcelona.cat/bicicleta/ca"}}, {"type": "node", "id": 6933509811, "lat": 41.40621, "lon": 2.19764, "tags": {"address": "Av Diagonal 152", "amenity": "bicycle_parking", "bicycle_parking": "stands", "capacity": "10", "covered": "no", "operator": "http://ajuntament.barcelona.cat/bicicleta/ca", "website": "http://ajuntament.barcelona.cat/bicicleta/ca"}}, {"type": "node", "id": 6933509832, "lat": 41.40773, "lon": 2.19508, "tags": {"address": "C Per\u00fa 73", "amenity": "bicycle_parking", "operator": "http://ajuntament.barcelona.cat/bicicleta/ca", "website": "http://ajuntament.barcelona.cat/bicicleta/ca"}}, {"type": "node", "id": 6974010188, "lat": 41.4044, "lon": 2.18999, "tags": {"address": "C Ciutat de Granada 164", "amenity": "taxi", "website": "www.taxibarcelona.cat"}}, {"type": "node", "id": 8913451444, "lat": 41.4062818, "lon": 2.195385, "tags": {"access": "private", "amenity": "parking_entrance", "parking": "underground"}}, {"type": "way", "id": 288596881, "nodes": [4338083545, 2921504440, 2921504439, 2921504443, 2921504441, 2921504442, 2921504448, 2921504444, 2921504447, 2921504446, 2921504450]}, {"type": "way", "id": 422451473, "nodes": [4554656606, 4222047289, 4222047290, 4222047291, 2292951787, 4222047292, 4554656606], "tags": {"access": "customers", "amenity": "parking", "fee": "yes", "operator": "BSM", "parking": "garage"}}, {"type": "way", "id": 435914483, "nodes": [4338083545, 4338083544], "tags": {"barrier": "wall"}}, {"type": "way", "id": 435914484, "nodes": [2921504450, 4338083546], "tags": {"barrier": "wall"}}, {"type": "way", "id": 643425402, "nodes": [4338083544, 4338082584, 4338082585, 4338082586, 4338083546], "tags": {"barrier": "wall"}}, {"type": "relation", "id": 8916227, "members": [{"type": "way", "ref": 643425402, "role": "outer"}, {"type": "way", "ref": 435914483, "role": "outer"}, {"type": "way", "ref": 288596881, "role": "outer"}, {"type": "way", "ref": 435914484, "role": "outer"}], "tags": {"access": "private", "amenity": "parking", "parking": "surface", "type": "multipolygon"}}]}