{"version": 0.6, "generator": "Overpass API 0.7.58.5 b0c4acbb", "osm3s": {"timestamp_osm_base": "2022-09-01T21:30:59Z", "copyright": "The data included in this document is from www.openstreetmap.org. The data is made available under ODbL."}, "elements": [{"type": "node", "id": 2065469522, "lat": 41.3997461, "lon": 2.2003004, "tags": {"addr:housenumber": "159", "addr:street": "Carrer de Llull", "amenity": "pub", "name": "Restaurant Pipa", "opening_hours": "Mo-Su 12:30-00:00"}}, {"type": "node", "id": 2075453725, "lat": 41.4012569, "lon": 2.1966826, "tags": {"addr:housenumber": "92", "addr:street": "Carrer Roc Boronat", "amenity": "restaurant", "cuisine": "spanish", "name": "La Mossegada del Poblenou", "smoking": "outside"}}, {"type": "node", "id": 2400689820, "lat": 41.4006365, "lon": 2.1961225, "tags": {"addr:city": "Barcelona", "addr:housenumber": "132", "addr:postcode": "08005", "addr:street": "Carrer de Pere IV", "amenity": "restaurant", "cuisine": "international", "name": "L\u00facuma", "phone": "+34 933569310", "smoking": "outside", "takeaway": "yes"}}, {"type": "node", "id": 2528521163, "lat": 41.4003612, "lon": 2.1959358, "tags": {"name": "Alimentacion", "shop": "convenience"}}, {"type": "node", "id": 2703829256, "lat": 41.4007421, "lon": 2.1991334, "tags": {"addr:city": "Barcelona", "addr:housenumber": "155", "addr:postcode": "08005", "addr:street": "Carrer de Pujades", "amenity": "cafe", "cuisine": "regional", "name": "Bon Gust"}}, {"type": "node", "id": 2781788371, "lat": 41.3994356, "lon": 2.197621, "tags": {"addr:city": "Barcelona", "addr:housenumber": "127", "addr:street": "Carrer de Pujades", "building": "kiosk", "building:levels": "1", "shop": "kiosk"}}, {"type": "node", "id": 2921806501, "lat": 41.4011887, "lon": 2.1998376, "tags": {"addr:city": "Barcelona", "addr:housenumber": "161", "addr:street": "Carrer de Pujades", "amenity": "restaurant", "name": "Spoon factory"}}, {"type": "node", "id": 3023964339, "lat": 41.4007199, "lon": 2.1997229, "tags": {"addr:city": "Barcelona", "addr:housenumber": "168", "addr:postcode": "08005", "addr:street": "Carrer de Pujades", "amenity": "fast_food", "branch": "Poblenou", "contact:phone": "+34933285188", "cuisine": "burger", "name": "Timesburg", "smoking": "outside", "website": "https://www.timesburg.com/"}}, {"type": "node", "id": 3058169648, "lat": 41.3973403, "lon": 2.1997469, "tags": {"amenity": "restaurant", "name": "Ivan"}}, {"type": "node", "id": 3058169649, "lat": 41.397535, "lon": 2.199655, "tags": {"amenity": "cafe", "name": "Granja"}}, {"type": "node", "id": 3940588323, "lat": 41.3974371, "lon": 2.1990673, "tags": {"addr:city": "Barcelona", "addr:housenumber": "33", "addr:postcode": "08005", "addr:street": "Carrer de la Ciutat de Granada", "amenity": "restaurant", "name": "Rac\u00f3 de la Vila"}}, {"type": "node", "id": 3955968257, "lat": 41.3986109, "lon": 2.1978895, "tags": {"addr:city": "Barcelona", "addr:housenumber": "54", "addr:postcode": "08005", "addr:street": "Carrer de la Ciutat de Granada", "amenity": "restaurant", "name": "El rac\u00f3 de les Gl\u00f2ries", "opening_hours": "Mo-Fr 06:30-23:00; Sa-Su 08:00-23:00"}}, {"type": "node", "id": 4060217594, "lat": 41.3993348, "lon": 2.1997769, "tags": {"addr:city": "Barcelona", "addr:housenumber": "147", "addr:postcode": "08005", "addr:street": "Carrer de Llull", "amenity": "restaurant", "name": "La Taverna del Poblenou"}}, {"type": "node", "id": 4254686706, "lat": 41.3970854, "lon": 2.1928808, "tags": {"amenity": "cafe"}}, {"type": "node", "id": 4254743609, "lat": 41.4013499, "lon": 2.2010764, "tags": {"addr:housenumber": "78", "addr:postcode": "08005", "addr:street": "Rambla del Poblenou", "amenity": "restaurant", "cuisine": "regional", "name": "Caliu del Poblenou"}}, {"type": "node", "id": 5010794821, "lat": 41.3979072, "lon": 2.1955319, "tags": {"addr:housenumber": "95", "addr:street": "Carrer de Pujades", "amenity": "cafe", "name": "N\u00f8mad Roaster's Home", "name:en": "N\u00f8mad Roaster's Home", "opening_hours": "Mo-Fr 09:00-17:00"}}, {"type": "node", "id": 5028979721, "lat": 41.3987513, "lon": 2.1950702, "tags": {"addr:housenumber": "95", "addr:street": "Carrer de Badajoz", "amenity": "cafe", "contact:facebook": "https://www.facebook.com/espaijoliu/", "name": "Espai Joliu", "opening_hours": "Mo-Fr 09:00-19:00; Sa 10:00-15:00", "website": "http://espaijoliu.tumblr.com/"}}, {"type": "node", "id": 5081403253, "lat": 41.3988611, "lon": 2.199136, "tags": {"addr:city": "Barcelona", "addr:housenumber": "141 bis", "addr:postcode": "08005", "addr:street": "Carrer de Llull", "diet:gluten_free": "yes", "diet:vegan": "only", "email": "calveganic@calveganic.com", "name": "Cal Veganic", "opening_hours": "Mo-Sa 10:00-20:30", "phone": "+34 656 38 57 73", "shop": "convenience", "website": "http://calveganic.com/"}}, {"type": "node", "id": 5106588429, "lat": 41.3982968, "lon": 2.1983407, "tags": {"addr:housenumber": "44", "addr:street": "Carrer de la Ciutat de Granada", "amenity": "restaurant", "name": "Can Dend\u00ea", "name:es": "Can Dend\u00ea"}}, {"type": "node", "id": 5522265621, "lat": 41.3990264, "lon": 2.194494}, {"type": "node", "id": 5531275475, "lat": 41.3980449, "lon": 2.1941948, "tags": {"brand": "Dia", "brand:wikidata": "Q925132", "brand:wikipedia": "es:DIA (supermercados)", "name": "Dia", "operator": "Distribuidora Internacional de Alimentaci\u00f3n, S.A.", "shop": "supermarket", "website": "https://www.dia.es"}}, {"type": "node", "id": 5617465886, "lat": 41.3967536, "lon": 2.1962847, "tags": {"amenity": "restaurant"}}, {"type": "node", "id": 6138906566, "lat": 41.3990235, "lon": 2.1944916, "tags": {"man_made": "surveillance", "surveillance:type": "camera"}}, {"type": "node", "id": 6138906835, "lat": 41.3989804, "lon": 2.1943079}, {"type": "node", "id": 6138906836, "lat": 41.3990757, "lon": 2.1943864}, {"type": "node", "id": 6138906883, "lat": 41.3989288, "lon": 2.1944148}, {"type": "node", "id": 6138906896, "lat": 41.3989667, "lon": 2.1944456, "tags": {"addr:housenumber": "101", "addr:postcode": "08018", "addr:street": "Carrer de Pere IV", "entrance": "yes"}}, {"type": "node", "id": 6164235941, "lat": 41.4011411, "lon": 2.2009618, "tags": {"addr:city": "Barcelona", "addr:housenumber": "71", "addr:postcode": "08005", "addr:street": "Rambla del Poblenou", "amenity": "fast_food", "branch": "POBLE NOU (B)", "brand": "Telepizza", "brand:wikidata": "Q2699863", "brand:wikipedia": "es:Telepizza", "contact:phone": "+34 933092737", "contact:website": "https://www.telepizza.es", "cuisine": "pizza", "delivery": "yes", "drive_through": "no", "name": "Telepizza", "payment:mastercard": "yes", "payment:visa": "yes", "takeaway": "yes"}}, {"type": "node", "id": 6535101487, "lat": 41.3990612, "lon": 2.1968513, "tags": {"name": "Proxim", "shop": "supermarket"}}, {"type": "node", "id": 6535101685, "lat": 41.4000317, "lon": 2.1956346, "tags": {"amenity": "bar", "name": "Catalunya"}}, {"type": "node", "id": 6535101686, "lat": 41.3992845, "lon": 2.1970974, "tags": {"amenity": "restaurant", "name": "Llacuna"}}, {"type": "node", "id": 6535101786, "lat": 41.3974655, "lon": 2.1967141, "tags": {"amenity": "restaurant", "name": "Leka"}}, {"type": "node", "id": 7556742593, "lat": 41.4009756, "lon": 2.2000272, "tags": {"amenity": "bar", "name": "Menjador del Centre"}}, {"type": "node", "id": 7556742594, "lat": 41.4009157, "lon": 2.1999114, "tags": {"name": "Paka\u00f1a", "shop": "greengrocer"}}, {"type": "node", "id": 7556742595, "lat": 41.4008481, "lon": 2.1998121, "tags": {"amenity": "restaurant", "name": "La Taqueria"}}, {"type": "node", "id": 7563959547, "lat": 41.4012919, "lon": 2.2011431, "tags": {"amenity": "bar", "name": "100 montaditos"}}, {"type": "node", "id": 7563960699, "lat": 41.4013257, "lon": 2.2011044, "tags": {"amenity": "restaurant", "name": "La Bienal"}}, {"type": "node", "id": 7563964446, "lat": 41.4012613, "lon": 2.2011848, "tags": {"amenity": "bar", "name": "Monopol"}}, {"type": "node", "id": 7615982501, "lat": 41.4003896, "lon": 2.1978586, "tags": {"amenity": "bar", "name": "La Tavernicola"}}, {"type": "node", "id": 7616019787, "lat": 41.3996205, "lon": 2.1959957, "tags": {"shop": "convenience"}}, {"type": "node", "id": 8034975586, "lat": 41.3971067, "lon": 2.1998865, "tags": {"name": "Needle", "shop": "convenience"}}, {"type": "node", "id": 8034975686, "lat": 41.3963902, "lon": 2.20027, "tags": {"name": "Needle", "shop": "convenience"}}, {"type": "node", "id": 8034999885, "lat": 41.3970406, "lon": 2.1999855, "tags": {"amenity": "cafe", "name": "La mare del tano"}}, {"type": "node", "id": 8034999886, "lat": 41.3980284, "lon": 2.1986941, "tags": {"amenity": "restaurant", "name": "Costa Dorada"}}, {"type": "node", "id": 8035019187, "lat": 41.400417, "lon": 2.1955634, "tags": {"amenity": "restaurant", "name": "Die Spiegel"}}, {"type": "node", "id": 8046554489, "lat": 41.4001224, "lon": 2.2000188, "tags": {"amenity": "restaurant", "name": "Sport"}}, {"type": "node", "id": 8064873686, "lat": 41.3977404, "lon": 2.1934117, "tags": {"amenity": "restaurant", "name": "La Cantonada del Xenia"}}, {"type": "node", "id": 8064873887, "lat": 41.396904, "lon": 2.1931193, "tags": {"amenity": "restaurant", "name": "Cala Joana"}}, {"type": "node", "id": 8064873986, "lat": 41.3974759, "lon": 2.1931865, "tags": {"amenity": "restaurant", "name": "Xenia"}}, {"type": "node", "id": 8760560770, "lat": 41.3994943, "lon": 2.2003731, "tags": {"amenity": "cafe", "name": "That's l-fe"}}, {"type": "node", "id": 9376642417, "lat": 41.3988768, "lon": 2.1953173, "tags": {"addr:housenumber": "92", "addr:postcode": "08005", "addr:street": "Carrer de Badajoz", "amenity": "bar", "contact:facebook": "ravenpoblenou", "name": "Raven Poblenou", "opening_hours": "Fr-Sa 23:00-03:30"}}, {"type": "node", "id": 9377066517, "lat": 41.3983197, "lon": 2.1942274, "tags": {"addr:housenumber": "100", "addr:postcode": "08006", "addr:street": "Carrer de Pere IV", "amenity": "restaurant", "name": "El rey del kebab", "opening_hours": "Mo-Fr 11:30-23:00; Sa-Su 14:00-23:00"}}, {"type": "node", "id": 9810799117, "lat": 41.3995409, "lon": 2.2000183, "tags": {"addr:housenumber": "155", "addr:street": "Carrer de Llull", "amenity": "restaurant", "cuisine": "japanese", "name:en": "Kibuka", "opening_hours": "Mo-Su 13:00-23:30"}}, {"type": "node", "id": 9812455817, "lat": 41.3996622, "lon": 2.1978459, "tags": {"name:en": "Vains", "shop": "supermarket"}}, {"type": "node", "id": 9812455818, "lat": 41.4001622, "lon": 2.1984615, "tags": {"shop": "supermarket"}}, {"type": "way", "id": 655182341, "nodes": [6138906835, 6138906836, 5522265621, 6138906566, 6138906896, 6138906883, 6138906835], "tags": {"amenity": "bar", "building": "industrial", "building:levels": "2", "name": "Comtu bar"}}]}