{"version": 0.6, "generator": "Overpass API 0.7.58.5 b0c4acbb", "osm3s": {"timestamp_osm_base": "2022-09-03T08:43:53Z", "copyright": "The data included in this document is from www.openstreetmap.org. The data is made available under ODbL."}, "elements": [{"type": "node", "id": 544908412, "lat": 41.3973501, "lon": 2.1883318, "tags": {"address": "C Sancho de \u00c1vila 12", "amenity": "taxi", "website": "www.taxibarcelona.cat"}}, {"type": "node", "id": 794507178, "lat": 41.3965337, "lon": 2.1872208, "tags": {"address": "Av Meridiana 42", "amenity": "taxi", "website": "www.taxibarcelona.cat"}}, {"type": "node", "id": 1624262730, "lat": 41.3980767, "lon": 2.1890225, "tags": {"access": "yes", "amenity": "parking_entrance", "fee": "yes", "parking": "underground"}}, {"type": "node", "id": 4327749892, "lat": 41.3967894, "lon": 2.1873167, "tags": {"address": "C Sancho de \u00c1vila 1", "amenity": "bicycle_parking", "capacity": "10", "operator": "http://ajuntament.barcelona.cat/bicicleta/ca", "website": "http://ajuntament.barcelona.cat/bicicleta/ca"}}, {"type": "node", "id": 6407487973, "lat": 41.3975868, "lon": 2.1886607, "tags": {"access": "private", "amenity": "parking_entrance"}}, {"type": "node", "id": 6407520053, "lat": 41.3985536, "lon": 2.1899542, "tags": {"access": "private", "amenity": "parking_entrance"}}, {"type": "node", "id": 6416001331, "lat": 41.3995778, "lon": 2.1913254, "tags": {"access": "private", "amenity": "parking_entrance"}}, {"type": "node", "id": 6416001332, "lat": 41.3996325, "lon": 2.1916996, "tags": {"access": "private", "amenity": "parking_entrance"}}, {"type": "node", "id": 6933373003, "lat": 41.40325, "lon": 2.18855, "tags": {"address": "Pl Santiago Pey 1", "amenity": "bicycle_parking", "capacity": "10", "operator": "http://ajuntament.barcelona.cat/bicicleta/ca", "website": "http://ajuntament.barcelona.cat/bicicleta/ca"}}, {"type": "node", "id": 6933374488, "lat": 41.40206, "lon": 2.1887, "tags": {"address": "C \u00c0vila 171", "amenity": "bicycle_parking", "bicycle_parking": "stands", "mapillary": "8xeTjocVj0lM2agen6VTOg", "operator": "http://ajuntament.barcelona.cat/bicicleta/ca", "survey:date": "2020-05-07", "website": "http://ajuntament.barcelona.cat/bicicleta/ca"}}, {"type": "node", "id": 6933490619, "lat": 41.40117, "lon": 2.19113, "tags": {"address": "C T\u00e0nger 62", "amenity": "bicycle_parking", "operator": "http://ajuntament.barcelona.cat/bicicleta/ca", "website": "http://ajuntament.barcelona.cat/bicicleta/ca"}}, {"type": "node", "id": 6933490925, "lat": 41.39758, "lon": 2.18861, "tags": {"address": "C Sancho de \u00c1vila 22", "amenity": "bicycle_parking", "operator": "http://ajuntament.barcelona.cat/bicicleta/ca", "website": "http://ajuntament.barcelona.cat/bicicleta/ca"}}, {"type": "node", "id": 6933494029, "lat": 41.40255, "lon": 2.18924, "tags": {"address": "C Badajoz 187", "amenity": "bicycle_parking", "bicycle_parking": "stands", "capacity": "10", "covered": "no", "mapillary": "3uxQ4jWQ0OD_yQvxhh6mYw", "operator": "http://ajuntament.barcelona.cat/bicicleta/ca", "survey:date": "2020-05-07", "website": "http://ajuntament.barcelona.cat/bicicleta/ca"}}, {"type": "node", "id": 6933494030, "lat": 41.40246, "lon": 2.18912, "tags": {"address": "C Badajoz 187", "amenity": "bicycle_parking", "bicycle_parking": "stands", "capacity": "10", "covered": "no", "mapillary": "j4sFILSsRnQc6IW5FeaiiQ", "operator": "http://ajuntament.barcelona.cat/bicicleta/ca", "survey:date": "2020-05-07", "website": "http://ajuntament.barcelona.cat/bicicleta/ca"}}, {"type": "node", "id": 6933494031, "lat": 41.4022, "lon": 2.18877, "tags": {"address": "C \u00c0vila 164", "amenity": "bicycle_parking", "bicycle_parking": "stands", "mapillary": "zSWM6cnIIYBe7vEfb3aXYQ", "operator": "http://ajuntament.barcelona.cat/bicicleta/ca", "survey:date": "2020-05-07", "website": "http://ajuntament.barcelona.cat/bicicleta/ca"}}, {"type": "node", "id": 6933494086, "lat": 41.40038, "lon": 2.19009, "tags": {"address": "C T\u00e0nger 50", "amenity": "bicycle_parking", "operator": "http://ajuntament.barcelona.cat/bicicleta/ca", "website": "http://ajuntament.barcelona.cat/bicicleta/ca"}}, {"type": "node", "id": 6933494695, "lat": 41.40222, "lon": 2.18892, "tags": {"address": "C \u00c0vila 164", "amenity": "bicycle_parking", "bicycle_parking": "stands", "capacity": "10", "mapillary": "8hZ_A8tjGq0Dh-xqKK2NJQ", "operator": "http://ajuntament.barcelona.cat/bicicleta/ca", "survey:date": "2020-05-07", "website": "http://ajuntament.barcelona.cat/bicicleta/ca"}}, {"type": "node", "id": 6933502326, "lat": 41.40315, "lon": 2.18868, "tags": {"address": "Pl Santiago Pey 1", "amenity": "bicycle_parking", "operator": "http://ajuntament.barcelona.cat/bicicleta/ca", "website": "http://ajuntament.barcelona.cat/bicicleta/ca"}}, {"type": "node", "id": 6933502327, "lat": 41.40237, "lon": 2.189, "tags": {"address": "Pl Gl\u00f2ries Catalanes 25", "amenity": "bicycle_parking", "bicycle_parking": "stands", "capacity": "10", "covered": "no", "mapillary": "w-fvEqhlfLCW0UFRuoXZDg", "operator": "http://ajuntament.barcelona.cat/bicicleta/ca", "survey:date": "2020-05-07", "website": "http://ajuntament.barcelona.cat/bicicleta/ca"}}, {"type": "node", "id": 6933502328, "lat": 41.40229, "lon": 2.18889, "tags": {"address": "C \u00c0vila 164", "amenity": "bicycle_parking", "bicycle_parking": "stands", "capacity": "10", "mapillary": "8hZ_A8tjGq0Dh-xqKK2NJQ", "operator": "http://ajuntament.barcelona.cat/bicicleta/ca", "survey:date": "2020-05-07", "website": "http://ajuntament.barcelona.cat/bicicleta/ca"}}, {"type": "node", "id": 6933502329, "lat": 41.40178, "lon": 2.18705, "tags": {"address": "C \u00c0laba 160", "amenity": "bicycle_parking", "operator": "http://ajuntament.barcelona.cat/bicicleta/ca", "website": "http://ajuntament.barcelona.cat/bicicleta/ca"}}, {"type": "node", "id": 6933504185, "lat": 41.40205, "lon": 2.18841, "tags": {"address": "C \u00c0vila 171", "amenity": "bicycle_parking", "capacity": "20", "operator": "http://ajuntament.barcelona.cat/bicicleta/ca", "website": "http://ajuntament.barcelona.cat/bicicleta/ca"}}, {"type": "node", "id": 6933504756, "lat": 41.40038, "lon": 2.19072, "tags": {"address": "C \u00c0vila 141", "amenity": "bicycle_parking", "operator": "http://ajuntament.barcelona.cat/bicicleta/ca", "website": "http://ajuntament.barcelona.cat/bicicleta/ca"}}, {"type": "node", "id": 6933504776, "lat": 41.40076, "lon": 2.19015, "tags": {"address": "C \u00c0vila 145", "amenity": "bicycle_parking", "operator": "http://ajuntament.barcelona.cat/bicicleta/ca", "website": "http://ajuntament.barcelona.cat/bicicleta/ca"}}, {"type": "node", "id": 6933505002, "lat": 41.39772, "lon": 2.18707, "tags": {"address": "Av Meridiana 48", "amenity": "bicycle_parking", "operator": "http://ajuntament.barcelona.cat/bicicleta/ca", "website": "http://ajuntament.barcelona.cat/bicicleta/ca"}}, {"type": "node", "id": 6933505424, "lat": 41.39946, "lon": 2.18975, "tags": {"address": "C \u00c0laba 123", "amenity": "bicycle_parking", "capacity": "6", "operator": "http://ajuntament.barcelona.cat/bicicleta/ca", "website": "http://ajuntament.barcelona.cat/bicicleta/ca"}}, {"type": "node", "id": 6933505550, "lat": 41.40337, "lon": 2.18863, "tags": {"address": "C Badajoz 175", "amenity": "bicycle_parking", "bicycle_parking": "stands", "capacity": "8", "covered": "no", "operator": "http://ajuntament.barcelona.cat/bicicleta/ca", "website": "http://ajuntament.barcelona.cat/bicicleta/ca"}}, {"type": "node", "id": 6933509503, "lat": 41.40098, "lon": 2.18863, "tags": {"address": "C Bol\u00edvia 12", "amenity": "bicycle_parking", "operator": "http://ajuntament.barcelona.cat/bicicleta/ca", "website": "http://ajuntament.barcelona.cat/bicicleta/ca"}}, {"type": "node", "id": 6933509872, "lat": 41.39918, "lon": 2.19051, "tags": {"address": "C \u00c0laba 122", "amenity": "bicycle_parking", "operator": "http://ajuntament.barcelona.cat/bicicleta/ca", "website": "http://ajuntament.barcelona.cat/bicicleta/ca"}}, {"type": "node", "id": 6933511617, "lat": 41.39918, "lon": 2.19052, "tags": {"address": "C \u00c0laba 122", "amenity": "bicycle_parking", "capacity": "6", "operator": "http://ajuntament.barcelona.cat/bicicleta/ca", "website": "http://ajuntament.barcelona.cat/bicicleta/ca"}}]}