{"version": 0.6, "generator": "Overpass API 0.7.58.5 b0c4acbb", "osm3s": {"timestamp_osm_base": "2022-09-03T09:44:54Z", "copyright": "The data included in this document is from www.openstreetmap.org. The data is made available under ODbL."}, "elements": [{"type": "node", "id": 3068392432, "lat": 41.4017899, "lon": 2.1982655, "tags": {"address": "C Pallars 207", "amenity": "bicycle_parking", "bicycle_parking": "stands", "capacity": "20", "covered": "no", "operator": "http://ajuntament.barcelona.cat/bicicleta/ca", "website": "http://ajuntament.barcelona.cat/bicicleta/ca"}}, {"type": "node", "id": 3068393033, "lat": 41.4018178, "lon": 2.1984281, "tags": {"address": "C Pallars 207", "amenity": "bicycle_parking", "bicycle_parking": "stands", "capacity": "10", "operator": "http://ajuntament.barcelona.cat/bicicleta/ca", "website": "http://ajuntament.barcelona.cat/bicicleta/ca"}}, {"type": "node", "id": 4280661017, "lat": 41.4001439, "lon": 2.1939931}, {"type": "node", "id": 4280661020, "lat": 41.400296, "lon": 2.1937936}, {"type": "node", "id": 4340445379, "lat": 41.4001482, "lon": 2.1935914}, {"type": "node", "id": 4340445383, "lat": 41.4000798, "lon": 2.193678}, {"type": "node", "id": 4393353435, "lat": 41.4029178, "lon": 2.1934191, "tags": {"amenity": "motorcycle_parking"}}, {"type": "node", "id": 4393356914, "lat": 41.4028072, "lon": 2.1931482, "tags": {"amenity": "motorcycle_parking"}}, {"type": "node", "id": 4689134967, "lat": 41.402878, "lon": 2.1945576, "tags": {"amenity": "charging_station", "capacity": "2", "operator": "Ajuntament de Barcelona"}}, {"type": "node", "id": 5772791454, "lat": 41.4000794, "lon": 2.1939126}, {"type": "node", "id": 6111551193, "lat": 41.4011787, "lon": 2.197307, "tags": {"access": "private", "amenity": "parking_entrance"}}, {"type": "node", "id": 6121342563, "lat": 41.3995754, "lon": 2.1958401, "tags": {"access": "private", "amenity": "parking_entrance"}}, {"type": "node", "id": 6133245833, "lat": 41.4009883, "lon": 2.1954538, "tags": {"access": "private", "amenity": "parking_entrance"}}, {"type": "node", "id": 6133245836, "lat": 41.4011593, "lon": 2.1962357, "tags": {"access": "customers", "amenity": "parking_entrance"}}, {"type": "node", "id": 6133307715, "lat": 41.3996455, "lon": 2.1942556, "tags": {"access": "private", "amenity": "parking_entrance"}}, {"type": "node", "id": 6133307721, "lat": 41.4002358, "lon": 2.1944528, "tags": {"access": "private", "amenity": "parking_entrance"}}, {"type": "node", "id": 6416164463, "lat": 41.4001979, "lon": 2.193197, "tags": {"access": "private", "amenity": "parking_entrance"}}, {"type": "node", "id": 6416471011, "lat": 41.4028435, "lon": 2.1968085, "tags": {"access": "private", "amenity": "parking_entrance"}}, {"type": "node", "id": 6416529644, "lat": 41.4035509, "lon": 2.1958715, "tags": {"access": "private", "amenity": "parking_entrance"}}, {"type": "node", "id": 6416529647, "lat": 41.4038555, "lon": 2.1954695, "tags": {"access": "private", "amenity": "parking_entrance"}}, {"type": "node", "id": 6535101485, "lat": 41.4013967, "lon": 2.1941375, "tags": {"amenity": "bicycle_parking", "bicycle_parking": "stands", "mapillary": "klw5aWOmLgPIbqcLz4lhoQ", "survey:date": "2020-05-03"}}, {"type": "node", "id": 6933374695, "lat": 41.40157, "lon": 2.19362, "tags": {"address": "C Sancho de \u00c1vila 115", "amenity": "bicycle_parking", "operator": "http://ajuntament.barcelona.cat/bicicleta/ca", "website": "http://ajuntament.barcelona.cat/bicicleta/ca"}}, {"type": "node", "id": 6933487011, "lat": 41.40133, "lon": 2.19402, "tags": {"address": "C Ciutat de Granada 109", "amenity": "bicycle_parking", "bicycle_parking": "stands", "mapillary": "GgmvW9yJV5Q2S_WjVAgNzQ", "operator": "http://ajuntament.barcelona.cat/bicicleta/ca", "survey:date": "2019-04-26", "website": "http://ajuntament.barcelona.cat/bicicleta/ca"}}, {"type": "node", "id": 6933487086, "lat": 41.40233, "lon": 2.19475, "tags": {"address": "C Sancho de \u00c1vila 148", "amenity": "bicycle_parking", "operator": "http://ajuntament.barcelona.cat/bicicleta/ca", "website": "http://ajuntament.barcelona.cat/bicicleta/ca"}}, {"type": "node", "id": 6933490923, "lat": 41.40298, "lon": 2.19335, "tags": {"address": "C T\u00e0nger 97", "amenity": "bicycle_parking", "capacity": "10", "operator": "http://ajuntament.barcelona.cat/bicicleta/ca", "website": "http://ajuntament.barcelona.cat/bicicleta/ca"}}, {"type": "node", "id": 6933490924, "lat": 41.40174, "lon": 2.19153, "tags": {"address": "C Badajoz 144", "amenity": "bicycle_parking", "bicycle_parking": "stands", "covered": "no", "operator": "http://ajuntament.barcelona.cat/bicicleta/ca", "website": "http://ajuntament.barcelona.cat/bicicleta/ca"}}, {"type": "node", "id": 6933490935, "lat": 41.40134, "lon": 2.19621, "tags": {"address": "C Roc Boronat 97", "amenity": "bicycle_parking", "operator": "http://ajuntament.barcelona.cat/bicicleta/ca", "website": "http://ajuntament.barcelona.cat/bicicleta/ca"}}, {"type": "node", "id": 6933492976, "lat": 41.40182, "lon": 2.19403, "tags": {"address": "C Sancho de \u00c1vila 123", "amenity": "bicycle_parking", "operator": "http://ajuntament.barcelona.cat/bicicleta/ca", "website": "http://ajuntament.barcelona.cat/bicicleta/ca"}}, {"type": "node", "id": 6933494689, "lat": 41.40182, "lon": 2.19404, "tags": {"address": "C Sancho de \u00c1vila 123", "amenity": "bicycle_parking", "capacity": "8", "operator": "http://ajuntament.barcelona.cat/bicicleta/ca", "website": "http://ajuntament.barcelona.cat/bicicleta/ca"}}, {"type": "node", "id": 6933504534, "lat": 41.40183, "lon": 2.1943, "tags": {"address": "C Sancho de \u00c1vila 134", "amenity": "bicycle_parking", "bicycle_parking": "stands", "capacity": "10", "covered": "no", "operator": "http://ajuntament.barcelona.cat/bicicleta/ca", "website": "http://ajuntament.barcelona.cat/bicicleta/ca"}}, {"type": "node", "id": 6933504720, "lat": 41.4012, "lon": 2.19798, "tags": {"address": "C Pallars 202", "amenity": "bicycle_parking", "operator": "http://ajuntament.barcelona.cat/bicicleta/ca", "website": "http://ajuntament.barcelona.cat/bicicleta/ca"}}, {"type": "node", "id": 6933505033, "lat": 41.40286, "lon": 2.19668, "tags": {"address": "C Llacuna 96", "amenity": "bicycle_parking", "operator": "http://ajuntament.barcelona.cat/bicicleta/ca", "website": "http://ajuntament.barcelona.cat/bicicleta/ca"}}, {"type": "node", "id": 6933505041, "lat": 41.40052, "lon": 2.19529, "tags": {"address": "C Ciutat de Granada 91", "amenity": "bicycle_parking", "operator": "http://ajuntament.barcelona.cat/bicicleta/ca", "website": "http://ajuntament.barcelona.cat/bicicleta/ca"}}, {"type": "node", "id": 6933505404, "lat": 41.40291, "lon": 2.19446, "tags": {"address": "C Roc Boronat 124", "amenity": "bicycle_parking", "bicycle_parking": "stands", "capacity": "10", "covered": "no", "operator": "http://ajuntament.barcelona.cat/bicicleta/ca", "website": "http://ajuntament.barcelona.cat/bicicleta/ca"}}, {"type": "node", "id": 6933505431, "lat": 41.40009, "lon": 2.19649, "tags": {"address": "C Pallars 172", "amenity": "bicycle_parking", "operator": "http://ajuntament.barcelona.cat/bicicleta/ca", "website": "http://ajuntament.barcelona.cat/bicicleta/ca"}}, {"type": "node", "id": 6933505526, "lat": 41.40364, "lon": 2.19565, "tags": {"address": "C Llacuna 103", "amenity": "bicycle_parking", "operator": "http://ajuntament.barcelona.cat/bicicleta/ca", "website": "http://ajuntament.barcelona.cat/bicicleta/ca"}}, {"type": "node", "id": 6933505529, "lat": 41.40012, "lon": 2.19581, "tags": {"address": "C Ciutat de Granada 90", "amenity": "bicycle_parking", "operator": "http://ajuntament.barcelona.cat/bicicleta/ca", "website": "http://ajuntament.barcelona.cat/bicicleta/ca"}}, {"type": "node", "id": 6933505576, "lat": 41.39976, "lon": 2.19627, "tags": {"address": "C Ciutat de Granada 81", "amenity": "bicycle_parking", "operator": "http://ajuntament.barcelona.cat/bicicleta/ca", "website": "http://ajuntament.barcelona.cat/bicicleta/ca"}}, {"type": "node", "id": 6933509488, "lat": 41.39929, "lon": 2.19543, "tags": {"address": "C Pallars 156", "amenity": "bicycle_parking", "operator": "http://ajuntament.barcelona.cat/bicicleta/ca", "website": "http://ajuntament.barcelona.cat/bicicleta/ca"}}, {"type": "node", "id": 6933509507, "lat": 41.40183, "lon": 2.19339, "tags": {"address": "C Ciutat de Granada 113", "amenity": "bicycle_parking", "bicycle_parking": "stands", "capacity": "8", "covered": "no", "operator": "http://ajuntament.barcelona.cat/bicicleta/ca", "website": "http://ajuntament.barcelona.cat/bicicleta/ca"}}, {"type": "node", "id": 6933521893, "lat": 41.40085, "lon": 2.19276, "tags": {"address": "C Badajoz 126", "amenity": "bicycle_parking", "operator": "http://ajuntament.barcelona.cat/bicicleta/ca", "website": "http://ajuntament.barcelona.cat/bicicleta/ca"}}, {"type": "node", "id": 6933522087, "lat": 41.40001, "lon": 2.19596, "tags": {"address": "C Ciutat de Granada 88", "amenity": "bicycle_parking", "operator": "http://ajuntament.barcelona.cat/bicicleta/ca", "website": "http://ajuntament.barcelona.cat/bicicleta/ca"}}, {"type": "node", "id": 6974004802, "lat": 41.40242, "lon": 2.19249, "tags": {"address": "C T\u00e0nger 89", "amenity": "taxi", "website": "www.taxibarcelona.cat"}}, {"type": "node", "id": 6974009312, "lat": 41.4032, "lon": 2.19628, "tags": {"address": "C Sancho de \u00c1vila 172", "amenity": "taxi", "website": "www.taxibarcelona.cat"}}, {"type": "node", "id": 6974013791, "lat": 41.40112, "lon": 2.19435, "tags": {"address": "C Ciutat de Granada 99", "amenity": "taxi", "website": "www.taxibarcelona.cat"}}, {"type": "node", "id": 6974014301, "lat": 41.40072, "lon": 2.19286, "tags": {"address": "C Badajoz 126", "amenity": "taxi", "website": "www.taxibarcelona.cat"}}, {"type": "node", "id": 6974014305, "lat": 41.40133, "lon": 2.19795, "tags": {"address": "C Pallars 205", "amenity": "taxi", "website": "www.taxibarcelona.cat"}}, {"type": "node", "id": 7056232785, "lat": 41.4035753, "lon": 2.1943631, "tags": {"amenity": "motorcycle_parking"}}, {"type": "node", "id": 7476306042, "lat": 41.4034935, "lon": 2.1938842, "tags": {"amenity": "bicycle_parking"}}, {"type": "node", "id": 8062388108, "lat": 41.4009572, "lon": 2.1976733, "tags": {"amenity": "parking_entrance", "name": "Platinum@BCN"}}, {"type": "node", "id": 8814389010, "lat": 41.4015604, "lon": 2.1955269, "tags": {"access": "private", "amenity": "parking_entrance"}}, {"type": "node", "id": 8814389013, "lat": 41.4019809, "lon": 2.1949341, "tags": {"access": "private", "amenity": "parking_entrance"}}, {"type": "way", "id": 436166611, "nodes": [4340445379, 4280661020, 4280661017, 5772791454, 4340445383, 4340445379], "tags": {"amenity": "fuel", "brand": "Petroprix", "name": "Petroprix", "opening_hours": "Mo-Su,PH 12:00+", "operator": "Petroprix"}}]}