{"version": 0.6, "generator": "Overpass API 0.7.58.5 b0c4acbb", "osm3s": {"timestamp_osm_base": "2022-09-06T15:27:33Z", "copyright": "The data included in this document is from www.openstreetmap.org. The data is made available under ODbL."}, "elements": [{"type": "node", "id": 2634006216, "lat": 40.4054393, "lon": -3.6446752, "tags": {"addr:city": "Madrid", "addr:country": "ES", "addr:housenumber": "37", "addr:postcode": "28030", "addr:street": "Calle de la Ca\u00f1ada", "name": "Gustavo Carre\u00f1o Estilismo", "shop": "hairdresser"}}, {"type": "node", "id": 2938902550, "lat": 40.4049778, "lon": -3.6503458, "tags": {"addr:city": "Madrid", "addr:housenumber": "4", "addr:postcode": "28030", "addr:street": "Calle de la Hacienda de Pavones", "name": "Joyer\u00eda Llorente", "shop": "jewelry"}}, {"type": "node", "id": 2938902551, "lat": 40.4050126, "lon": -3.6504316, "tags": {"addr:city": "Madrid", "addr:housenumber": "4", "addr:postcode": "28030", "addr:street": "Calle de la Hacienda de Pavones", "name": "Nuevo Estilo", "shop": "clothes"}}, {"type": "node", "id": 2938902552, "lat": 40.4050412, "lon": -3.6505041, "tags": {"addr:city": "Madrid", "addr:housenumber": "4", "addr:postcode": "28030", "addr:street": "Calle de la Hacienda de Pavones", "name": "Modas Torres", "shop": "clothes"}}, {"type": "node", "id": 2938902553, "lat": 40.4050708, "lon": -3.6505684, "tags": {"addr:city": "Madrid", "addr:housenumber": "4", "addr:postcode": "28030", "addr:street": "Calle de la Hacienda de Pavones", "name": "Mario Gretto", "shop": "clothes"}}, {"type": "node", "id": 2938902555, "lat": 40.4051606, "lon": -3.6507683, "tags": {"addr:city": "Madrid", "addr:housenumber": "4", "addr:postcode": "28030", "addr:street": "Calle de la Hacienda de Pavones", "name": "Bianca", "shop": "clothes"}}, {"type": "node", "id": 2938902556, "lat": 40.4051341, "lon": -3.6507066, "tags": {"addr:city": "Madrid", "addr:housenumber": "4", "addr:postcode": "28030", "addr:street": "Calle de la Hacienda de Pavones", "name": "A'lua", "shop": "clothes"}}, {"type": "node", "id": 2938902565, "lat": 40.4047379, "lon": -3.649804, "tags": {"addr:city": "Madrid", "addr:housenumber": "6", "addr:postcode": "28030", "addr:street": "Calle de la Hacienda de Pavones", "name": "U\u00f1as decorativas", "shop": "beauty"}}, {"type": "node", "id": 2938902570, "lat": 40.4046061, "lon": -3.649509, "tags": {"addr:city": "Madrid", "addr:housenumber": "6", "addr:postcode": "28030", "addr:street": "Calle de la Hacienda de Pavones", "name": "Rosado", "shop": "leather"}}, {"type": "node", "id": 2938902572, "lat": 40.4044519, "lon": -3.6491603, "tags": {"addr:city": "Madrid", "addr:housenumber": "8", "addr:postcode": "28030", "addr:street": "Calle de la Hacienda de Pavones", "name": "Tus zapatos", "shop": "shoes"}}, {"type": "node", "id": 2938902574, "lat": 40.4043559, "lon": -3.6489524, "tags": {"addr:city": "Madrid", "addr:housenumber": "8", "addr:postcode": "28030", "addr:street": "Calle de la Hacienda de Pavones", "name": "Franjo", "shop": "clothes"}}, {"type": "node", "id": 2942098707, "lat": 40.4050713, "lon": -3.6496856, "tags": {"name": "Andares", "shop": "shoes"}}, {"type": "node", "id": 2943803256, "lat": 40.4065622, "lon": -3.6510986, "tags": {"addr:city": "Madrid", "addr:housenumber": "2", "addr:postcode": "28030", "addr:street": "Calle de la Marroquina", "name": "Marroquina", "shop": "shoes"}}, {"type": "node", "id": 2943803257, "lat": 40.4064175, "lon": -3.6510381, "tags": {"addr:city": "Madrid", "addr:housenumber": "2", "addr:postcode": "28030", "addr:street": "Calle de la Marroquina", "name": "Joyer\u00eda Moreno", "shop": "jewelry"}}, {"type": "node", "id": 2943803264, "lat": 40.4068402, "lon": -3.6505043, "tags": {"addr:city": "Madrid", "addr:housenumber": "8", "addr:postcode": "28030", "addr:street": "Calle de la Marroquina", "name": "Flecos", "shop": "clothes"}}, {"type": "node", "id": 2943834910, "lat": 40.407213, "lon": -3.6496125, "tags": {"addr:city": "Madrid", "addr:housenumber": "20", "addr:postcode": "28030", "addr:street": "Calle de la Marroquina", "name": "Saylu", "shop": "hairdresser_supply"}}, {"type": "node", "id": 2943834912, "lat": 40.4073508, "lon": -3.6492785, "tags": {"addr:city": "Madrid", "addr:housenumber": "22", "addr:postcode": "28030", "addr:street": "Calle de la Marroquina", "name": "Hiper 100", "shop": "variety_store"}}, {"type": "node", "id": 2943834913, "lat": 40.4074182, "lon": -3.6490975, "tags": {"addr:city": "Madrid", "addr:housenumber": "24", "addr:postcode": "28030", "addr:street": "Calle de la Marroquina", "name": "Alex", "shop": "hairdresser"}}, {"type": "node", "id": 2943834917, "lat": 40.4075651, "lon": -3.6487115, "tags": {"shop": "herbalist"}}, {"type": "node", "id": 2943862077, "lat": 40.4078632, "lon": -3.6479816, "tags": {"addr:city": "Madrid", "addr:housenumber": "38", "addr:postcode": "28030", "addr:street": "Calle de la Marroquina", "name": "Hiper \u20acuro", "shop": "variety_store"}}, {"type": "node", "id": 2943862078, "lat": 40.4080185, "lon": -3.6476199, "tags": {"addr:city": "Madrid", "addr:housenumber": "42", "addr:postcode": "28030", "addr:street": "Calle de la Marroquina", "name": "Vanessa & Daves", "shop": "shoes"}}, {"type": "node", "id": 2943900604, "lat": 40.4076402, "lon": -3.6467619, "tags": {"addr:city": "Madrid", "addr:housenumber": "157", "addr:postcode": "28030", "addr:street": "Avenida de Moratalaz", "name": "Gilgo", "shop": "perfumery"}}, {"type": "node", "id": 2943968563, "lat": 40.407099, "lon": -3.6480749, "tags": {"addr:city": "Madrid", "addr:housenumber": "143", "addr:postcode": "28030", "addr:street": "Avenida de Moratalaz", "name": "Joyer\u00eda Llorente", "shop": "jewelry"}}, {"type": "node", "id": 2943968565, "lat": 40.4069652, "lon": -3.6483967, "tags": {"addr:city": "Madrid", "addr:housenumber": "139", "addr:postcode": "28030", "addr:street": "Avenida de Moratalaz", "name": "Quelova", "shop": "clothes"}}, {"type": "node", "id": 2943968567, "lat": 40.4068488, "lon": -3.6486972, "tags": {"addr:city": "Madrid", "addr:housenumber": "137", "addr:postcode": "28030", "addr:street": "Avenida de Moratalaz", "name": "Cri", "shop": "clothes"}}, {"type": "node", "id": 2943968573, "lat": 40.4063341, "lon": -3.6499538, "tags": {"addr:city": "Madrid", "addr:housenumber": "121", "addr:postcode": "28030", "addr:street": "Avenida de Moratalaz", "name": "Contreras", "shop": "perfumery"}}, {"type": "node", "id": 2944064320, "lat": 40.4055155, "lon": -3.6440459, "tags": {"addr:city": "Madrid", "addr:housenumber": "44", "addr:postcode": "28030", "addr:street": "Calle de la Ca\u00f1ada", "name": "Mora Sara", "shop": "clothes"}}, {"type": "node", "id": 2944066780, "lat": 40.4044667, "lon": -3.6435336, "tags": {"addr:city": "Madrid", "addr:housenumber": "10", "addr:postcode": "28030", "addr:street": "Calle de la Ca\u00f1ada", "name": "Amparo", "shop": "hairdresser"}}, {"type": "node", "id": 2944066782, "lat": 40.4039786, "lon": -3.6428121, "tags": {"addr:city": "Madrid", "addr:housenumber": "144", "addr:postcode": "28030", "addr:street": "Calle del Pico de los Artilleros", "name": "Joyer\u00eda Artilleros", "shop": "jewelry"}}, {"type": "node", "id": 2944066791, "lat": 40.4030431, "lon": -3.6437777, "tags": {"addr:city": "Madrid", "addr:housenumber": "142", "addr:postcode": "28030", "addr:street": "Calle de la Hacienda de Pavones", "name": "Rasgos", "shop": "clothes"}}, {"type": "node", "id": 2944066798, "lat": 40.4026734, "lon": -3.6435189, "tags": {"addr:city": "Madrid", "addr:housenumber": "138", "addr:postcode": "28030", "addr:street": "Calle de la Hacienda de Pavones", "name": "Los Gemelos", "shop": "perfumery"}}, {"type": "node", "id": 2946475524, "lat": 40.4074027, "lon": -3.6498583, "tags": {"addr:city": "Madrid", "addr:housenumber": "15", "addr:postcode": "28030", "addr:street": "Calle de la Marroquina", "name": "U\u00f1as decorativas", "shop": "beauty"}}, {"type": "node", "id": 2946476334, "lat": 40.4070126, "lon": -3.6508131, "tags": {"addr:city": "Madrid", "addr:housenumber": "7", "addr:postcode": "28030", "addr:street": "Calle de la Marroquina", "name": "U\u00f1as decorativas", "shop": "beauty"}}, {"type": "node", "id": 2946476336, "lat": 40.4069615, "lon": -3.650958, "tags": {"addr:city": "Madrid", "addr:housenumber": "5", "addr:postcode": "28030", "addr:street": "Calle de la Marroquina", "amenity": "sop", "name": "Belinda Linares", "shop": "hairdresser"}}, {"type": "node", "id": 2946476338, "lat": 40.4068635, "lon": -3.651194, "tags": {"addr:city": "Madrid", "addr:housenumber": "3", "addr:postcode": "28030", "addr:street": "Calle de la Marroquina", "name": "Alegr\u00eda", "shop": "hairdresser"}}, {"type": "node", "id": 2984647285, "lat": 40.4045996, "lon": -3.6380595, "tags": {"addr:city": "Madrid", "addr:housenumber": "52", "addr:postcode": "28030", "addr:street": "Calle de Luis de Hoyos S\u00e1inz", "name": "Shaila", "shop": "clothes"}}, {"type": "node", "id": 2984665295, "lat": 40.4032345, "lon": -3.6378293, "tags": {"addr:city": "Madrid", "addr:housenumber": "82", "addr:postcode": "28030", "addr:street": "Calle de Luis de Hoyos S\u00e1inz", "name": "Ana Bel\u00e9n", "shop": "hairdresser"}}, {"type": "node", "id": 2990963536, "lat": 40.4035376, "lon": -3.6313241, "tags": {"addr:city": "Madrid", "addr:housenumber": "26", "addr:postcode": "28030", "addr:street": "Calle de Valdebernardo", "name": "Martinelli", "shop": "hairdresser"}}, {"type": "node", "id": 7821065489, "lat": 40.4081678, "lon": -3.6398202, "tags": {"addr:city": "Madrid", "addr:country": "ES", "addr:postcode": "28030", "addr:street": "Calle del Pico de los Artilleros", "name": "Etelvina Ortiz", "opening_hours": "Mo-Fr 10:00-20:00; Sa 09:00-16:00", "phone": "+34 91 751 18 59", "shop": "hairdresser"}}, {"type": "node", "id": 7821065490, "lat": 40.4085548, "lon": -3.640024, "tags": {"addr:city": "Madrid", "addr:country": "ES", "addr:postcode": "28030", "addr:street": "Calle del Pico de los Artilleros", "name": "KMP Kelmitpi\u00f1ango Couture", "name:es": "KMP Kelmitpi\u00f1ango Couture", "opening_hours": "Mo-Fr 11:00-14:00, 15:00-20:00", "shop": "clothes", "website": "http://www.kelmitpi\u00f1ango.com"}}, {"type": "node", "id": 7821065585, "lat": 40.4082525, "lon": -3.6398044, "tags": {"addr:city": "Madrid", "addr:country": "ES", "addr:postcode": "28030", "addr:street": "Calle del Pico de los Artilleros", "name": "Trapos de Elena", "shop": "clothes"}}, {"type": "node", "id": 7821065786, "lat": 40.4095001, "lon": -3.6423493, "tags": {"addr:postcode": "28030", "addr:street": "Avenida de Moratalaz", "name": "Regalos Mayka", "shop": "variety_store"}}, {"type": "node", "id": 7821065885, "lat": 40.4095318, "lon": -3.6422608, "tags": {"addr:postcode": "28030", "name": "Pizpireta", "opening_hours": "Mo-Fr 10:00-14:00, 17:00-20:00; Sa 10:00-14:00", "shop": "clothes"}}, {"type": "node", "id": 7821065985, "lat": 40.4094484, "lon": -3.6424674, "tags": {"addr:postcode": "28030", "name": "Peluquer\u00eda Lorena", "opening_hours": "Mo-Fr 09:30-14:00, 16:00-20:00; Sa 09:30-15:00", "phone": "+34 914302204;+34 618361199", "shop": "hairdresser"}}, {"type": "node", "id": 7821065986, "lat": 40.4094022, "lon": -3.6425688, "tags": {"addr:housenumber": "193", "addr:postcode": "28030", "addr:street": "Avenida de Moratalaz", "name": "Alimentaci\u00f3n Suana", "shop": "variety_store"}}, {"type": "node", "id": 7823820386, "lat": 40.407498, "lon": -3.6460349, "tags": {"addr:postcode": "28030", "name": "Confecci\u00f3n Loa", "shop": "clothes"}}, {"type": "node", "id": 9695610817, "lat": 40.4010381, "lon": -3.633863, "tags": {"addr:housenumber": "237", "addr:postcode": "28030", "name": "Peluquer\u00eda Paco Tijeras", "name:en": "Hairdresser Paco Tijeras", "opening_hours": "Mo-Fr 10:00-20:00; Sa 10:00-20:00", "shop": "hairdresser"}}, {"type": "node", "id": 9986961128, "lat": 40.4081975, "lon": -3.6314561, "tags": {"name": "Reichel Abad", "shop": "beauty"}}]}