{"version": 0.6, "generator": "Overpass API 0.7.58.5 b0c4acbb", "osm3s": {"timestamp_osm_base": "2022-09-02T23:04:39Z", "copyright": "The data included in this document is from www.openstreetmap.org. The data is made available under ODbL."}, "elements": [{"type": "node", "id": 660100525, "lat": 41.4046529, "lon": 2.1962971, "tags": {"addr:country": "ES", "name": "Marco Aldany", "shop": "hairdresser"}}, {"type": "node", "id": 660778772, "lat": 41.4028034, "lon": 2.1987788, "tags": {"name": "Temptation", "shop": "clothes"}}, {"type": "node", "id": 1934456533, "lat": 41.4012401, "lon": 2.2023, "tags": {"addr:city": "Barcelona", "addr:full": "carrer Llull, 187", "addr:housenumber": "187", "addr:postcode": "08005", "addr:street": "carrer Llull", "amenity": "pharmacy", "contact:phone": "+34933001414", "dispensing": "yes", "emergency": "defibrillator", "name": "Farm\u00e0cia Oriol Carreras, Marina", "phone": "+34 93 485 49 92", "ref": "3621320", "shop": "chemist", "source": "Generalitat de Catalunya", "source:date": "03/11/2020 07:58:14 AM +0000"}}, {"type": "node", "id": 1934456740, "lat": 41.4000842, "lon": 2.2027304, "tags": {"addr:city": "Barcelona", "addr:full": "rambla Poblenou, 46", "addr:housenumber": "46", "addr:postcode": "08005", "addr:street": "rambla Poblenou", "amenity": "pharmacy", "contact:phone": "+34933091869", "dispensing": "yes", "healthcare": "pharmacy", "name": "Farm\u00e0cia Prats Genis, M. - Centellas Prats, M.", "ref": "3621492", "shop": "chemist", "source": "Generalitat de Catalunya", "source:date": "03/11/2020 07:58:11 AM +0000", "toilets:wheelchair": "yes", "wheelchair": "yes"}}, {"type": "node", "id": 2193095353, "lat": 41.4033023, "lon": 2.1979634, "tags": {"addr:country": "ES", "name": "Pel No", "shop": "hairdresser"}}, {"type": "node", "id": 2193095369, "lat": 41.4036886, "lon": 2.1982691, "tags": {"name": "NuAnJu", "shop": "shoes"}}, {"type": "node", "id": 3048078140, "lat": 41.3999652, "lon": 2.2025126, "tags": {"addr:city": "Barcelona", "addr:housenumber": "43", "addr:street": "Rambla del Poblenou", "name": "Villarroya", "second_hand": "no", "shop": "shoes"}}, {"type": "node", "id": 5509179868, "lat": 41.4018608, "lon": 2.2021637, "tags": {"name": "Montserrat", "shop": "fabric"}}, {"type": "node", "id": 5546040721, "lat": 41.4044304, "lon": 2.1988126, "tags": {"name": "Poblet. La Africana", "opening_hours": "Mo-Fr 09:00-13:30,16:00-20:00", "shop": "clothes"}}, {"type": "node", "id": 6321622311, "lat": 41.4000503, "lon": 2.2056537, "tags": {"addr:housenumber": "20", "addr:street": "Carrer de l'Amistat", "facebook": "https://www.facebook.com/Salon94estilistas-289036888488115/", "fax": "+34 627140523", "name": "Salon 94", "phone": "+34 933826560", "shop": "hairdresser", "unisex": "yes", "website": "https://www.peluqueriasalon94.com"}}, {"type": "node", "id": 6533606785, "lat": 41.4027036, "lon": 2.2008396, "tags": {"addr:street": "Carrer de Mari\u00e0 Aguil\u00f3", "name": "Cram", "shop": "hairdresser"}}, {"type": "node", "id": 7001050985, "lat": 41.4020834, "lon": 2.2018175, "tags": {"shop": "herbalist"}}, {"type": "node", "id": 7556637990, "lat": 41.403021, "lon": 2.1984405, "tags": {"name": "Aloha", "shop": "beauty"}}, {"type": "node", "id": 7556637997, "lat": 41.4021744, "lon": 2.1996215, "tags": {"name": "Calcedonia", "shop": "clothes"}}, {"type": "node", "id": 7556637998, "lat": 41.4018692, "lon": 2.200001, "tags": {"name": "Quetglas", "shop": "shoes"}}, {"type": "node", "id": 7556637999, "lat": 41.4017848, "lon": 2.2001119, "tags": {"name": "Xagr\u00ed", "shop": "shoes"}}, {"type": "node", "id": 7556638091, "lat": 41.4020851, "lon": 2.1997333, "tags": {"name": "G&K", "shop": "beauty"}}, {"type": "node", "id": 7556742388, "lat": 41.4013473, "lon": 2.2006107, "tags": {"name": "Ashley", "shop": "boutique"}}, {"type": "node", "id": 7556742391, "lat": 41.4026637, "lon": 2.19726, "tags": {"name": "Jean Louis David", "shop": "hairdresser"}}, {"type": "node", "id": 7556742486, "lat": 41.4010558, "lon": 2.201068, "tags": {"name": "Festuc", "shop": "clothes"}}, {"type": "node", "id": 7556742587, "lat": 41.401009, "lon": 2.2011313, "tags": {"name": "4uatre", "shop": "clothes"}}, {"type": "node", "id": 7556742588, "lat": 41.4010944, "lon": 2.2010165, "tags": {"name": "Compte", "shop": "hairdresser"}}, {"type": "node", "id": 7556742589, "lat": 41.4011877, "lon": 2.2009146, "tags": {"name": "SecondBest", "shop": "second_hand"}}, {"type": "node", "id": 7557038714, "lat": 41.4037917, "lon": 2.1974117, "tags": {"name": "barberia Carlos Conde", "shop": "hairdresser"}}, {"type": "node", "id": 7563843047, "lat": 41.4036779, "lon": 2.1986056, "tags": {"name": "incorpora", "shop": "beauty"}}, {"type": "node", "id": 7563862078, "lat": 41.4021119, "lon": 2.2000947, "tags": {"name": "Dandy Flair", "shop": "clothes"}}, {"type": "node", "id": 7563880551, "lat": 41.4020587, "lon": 2.2001602, "tags": {"name": "Beth . S", "shop": "perfumery"}}, {"type": "node", "id": 7563900754, "lat": 41.401386, "lon": 2.2010207, "tags": {"name": "Tot Natiu", "shop": "clothes"}}, {"type": "node", "id": 7563948533, "lat": 41.4018133, "lon": 2.2006141, "tags": {"name": "Onix", "shop": "clothes"}}, {"type": "node", "id": 7563964119, "lat": 41.4011792, "lon": 2.2012986, "tags": {"name": "Raffel Pages", "shop": "hairdresser"}}, {"type": "node", "id": 7563969029, "lat": 41.4012186, "lon": 2.201246, "tags": {"name": "erre de raso", "shop": "clothes"}}, {"type": "node", "id": 7563973790, "lat": 41.4011422, "lon": 2.2013406, "tags": {"name": "Perfumeria M\u00aa Luz", "shop": "perfumery"}}, {"type": "node", "id": 7563983740, "lat": 41.4010544, "lon": 2.2014563, "tags": {"name": "G & M", "shop": "clothes"}}, {"type": "node", "id": 7615987486, "lat": 41.3994362, "lon": 2.2021261, "tags": {"name": "Onails", "shop": "beauty"}}, {"type": "node", "id": 7616011485, "lat": 41.399701, "lon": 2.2002314, "tags": {"name": "Le Salon", "shop": "hairdresser"}}, {"type": "node", "id": 8035019186, "lat": 41.4002413, "lon": 2.1957979, "tags": {"name": "Systemaction outlet", "shop": "clothes"}}, {"type": "node", "id": 8049731590, "lat": 41.4003778, "lon": 2.2046098, "tags": {"name": "Bagoa", "shop": "clothes"}}, {"type": "node", "id": 8049731591, "lat": 41.4005731, "lon": 2.204312, "tags": {"name": "Confeccions La Palma", "shop": "clothes"}}, {"type": "node", "id": 8049731593, "lat": 41.4013026, "lon": 2.203244, "tags": {"name": "Isidro", "shop": "beauty"}}, {"type": "node", "id": 8049731596, "lat": 41.4020206, "lon": 2.2021008, "tags": {"name": "Ginkgo", "shop": "variety_store"}}, {"type": "node", "id": 8049731599, "lat": 41.4027089, "lon": 2.2008062, "tags": {"name": "de peus a terra", "shop": "clothes"}}, {"type": "node", "id": 8049731600, "lat": 41.4030518, "lon": 2.2005678, "tags": {"name": "Din\u00e0mic", "shop": "cosmetics"}}, {"type": "node", "id": 8049731687, "lat": 41.4001669, "lon": 2.204937, "tags": {"name": "Cal\u00e7ats Arnal", "shop": "shoes"}}, {"type": "node", "id": 8049731688, "lat": 41.4005331, "lon": 2.2044049, "tags": {"name": "Centonze", "shop": "cosmetics"}}, {"type": "node", "id": 8049731691, "lat": 41.4015234, "lon": 2.2026523, "tags": {"name": "Euro New", "shop": "variety_store"}}, {"type": "node", "id": 8049731788, "lat": 41.4000856, "lon": 2.2050503, "tags": {"name": "El taller", "shop": "jewelry"}}, {"type": "node", "id": 8049731791, "lat": 41.4007321, "lon": 2.2040822, "tags": {"name": "Perruqueria internacional", "shop": "hairdresser"}}, {"type": "node", "id": 8049731796, "lat": 41.4021379, "lon": 2.2019121, "tags": {"name": "X Style", "shop": "hairdresser"}}, {"type": "node", "id": 8049732185, "lat": 41.4003102, "lon": 2.2047082, "tags": {"name": "Bollywood", "shop": "hairdresser"}}, {"type": "node", "id": 8049732290, "lat": 41.4018537, "lon": 2.2023616, "tags": {"name": "Perruqueria Hedri", "shop": "hairdresser"}}, {"type": "node", "id": 8049732294, "lat": 41.4030638, "lon": 2.2001151, "tags": {"name": "M&Y", "shop": "hairdresser"}}, {"type": "node", "id": 8049732295, "lat": 41.4033782, "lon": 2.1997801, "tags": {"name": "A1 tattoo", "shop": "tattoo"}}, {"type": "node", "id": 8062015295, "lat": 41.4021215, "lon": 2.2010701, "tags": {"name": "Nail Art", "shop": "beauty"}}, {"type": "node", "id": 8062015591, "lat": 41.4028254, "lon": 2.2023889, "tags": {"name": "Basar", "shop": "variety_store"}}, {"type": "node", "id": 8062015592, "lat": 41.4027252, "lon": 2.201881, "tags": {"name": "Viv\u00f3 productes de perruqueria i bellesa", "shop": "hairdresser_supply"}}, {"type": "node", "id": 8062016190, "lat": 41.4029553, "lon": 2.2021719, "tags": {"shop": "hairdresser"}}, {"type": "node", "id": 8062016193, "lat": 41.4021501, "lon": 2.2015515, "tags": {"name": "Beauty depilnails", "shop": "beauty"}}, {"type": "node", "id": 8062016196, "lat": 41.4019682, "lon": 2.201272, "tags": {"name": "Manantial de Salud", "shop": "herbalist"}}, {"type": "node", "id": 8062016197, "lat": 41.4004516, "lon": 2.2016582, "tags": {"name": "Natalie Bob Cut", "shop": "hairdresser"}}, {"type": "node", "id": 8062016200, "lat": 41.3995696, "lon": 2.2000674, "tags": {"addr:housenumber": "155", "addr:postcode": "08005", "addr:street": "Carrer de Llull", "email": "nostrecos@yahoo.es", "healthcare": "alternative", "name": "Nostre Cos - dermoest\u00e8tica, ter\u00e0pies naturals", "phone": "+34 933094646", "shop": "beauty"}}, {"type": "node", "id": 8062016690, "lat": 41.4026577, "lon": 2.2017955, "tags": {"name": "Montse", "shop": "hairdresser"}}, {"type": "node", "id": 8077127519, "lat": 41.400946, "lon": 2.2035729, "tags": {"name": "Hanau", "shop": "clothes"}}, {"type": "node", "id": 8077127520, "lat": 41.4010823, "lon": 2.2033686, "tags": {"name": "Never I Can't", "shop": "clothes"}}, {"type": "node", "id": 8077127719, "lat": 41.4003359, "lon": 2.2045165, "tags": {"name": "Amapola cosmetica org\u00e1nica", "shop": "cosmetics"}}, {"type": "node", "id": 8077127720, "lat": 41.4009873, "lon": 2.2035107, "tags": {"shop": "hairdresser"}}, {"type": "node", "id": 8077127917, "lat": 41.4001688, "lon": 2.2047599, "tags": {"name": "Clarel", "shop": "chemist"}}, {"type": "node", "id": 8077127919, "lat": 41.4003624, "lon": 2.2044707, "tags": {"name": "Tresors", "shop": "clothes"}}, {"type": "node", "id": 8077127922, "lat": 41.4011166, "lon": 2.2033186, "tags": {"name": "Cotilleria Mari", "shop": "clothes"}}]}