{"version": 0.6, "generator": "Overpass API 0.7.58.5 b0c4acbb", "osm3s": {"timestamp_osm_base": "2022-09-01T09:47:59Z", "copyright": "The data included in this document is from www.openstreetmap.org. The data is made available under ODbL."}, "elements": [{"type": "node", "id": 2264591763, "lat": 41.3956355, "lon": 2.1760801, "tags": {"addr:city": "Barcelona", "addr:country": "ES", "addr:housenumber": "33", "addr:postcode": "08010", "addr:street": "Pla\u00e7a de Tetuan", "name": "Forn Artes\u00e0", "name:ca": "Forn Artes\u00e0", "shop": "bakery", "toilets:wheelchair": "yes", "wheelchair": "yes"}}, {"type": "node", "id": 2269115007, "lat": 41.3994551, "lon": 2.1787094, "tags": {"addr:housenumber": "433", "addr:street": "Carrer de la Diputaci\u00f3", "contact:email": "cerveses@labonapinta.com", "contact:phone": "+34932316703;+34600757032", "contact:website": "http://labonapinta.com", "description": "Cerveses artesanes i d'importaci\u00f3. Craft beer specialists.", "drink:beer": "draught;bottled", "name": "La Bona Pinta", "shop": "alcohol", "toilets:wheelchair": "no", "wheelchair": "limited"}}, {"type": "node", "id": 3677285556, "lat": 41.3991799, "lon": 2.1808103, "tags": {"name": "GoodNews", "shop": "kiosk"}}, {"type": "node", "id": 3677438326, "lat": 41.3993031, "lon": 2.1791647, "tags": {"amenity": "restaurant", "cuisine": "sandwich", "name": "El Pibe", "name:es": "Frankfurt Cervecer\u00eda El Pibe"}}, {"type": "node", "id": 3680209540, "lat": 41.3994688, "lon": 2.1788428, "tags": {"shop": "bakery", "toilets:wheelchair": "no", "wheelchair": "limited"}}, {"type": "node", "id": 4200455430, "lat": 41.4010121, "lon": 2.179247, "tags": {"addr:city": "Barcelona", "addr:housenumber": "212", "addr:postcode": "08013", "addr:street": "Carrer de la Marina", "amenity": "restaurant", "cuisine": "venezuelan", "name": "Arepamundi", "phone": "+34605906732", "toilets:wheelchair": "yes", "website": "http://www.arepamundi.com/", "wheelchair": "limited"}}, {"type": "node", "id": 4250988290, "lat": 41.4014058, "lon": 2.1809332, "tags": {"addr:city": "Barcelona", "addr:housenumber": "220", "addr:postcode": "08013", "addr:street": "Carrer de Lepant", "amenity": "restaurant", "contact:facebook": "https://www.facebook.com/ElMaderal/", "cuisine": "tapas", "diet:vegan": "only", "name": "El Maderal", "opening_hours": "Tu-Sa 13:30-16:30, 19:00-24:00", "phone": "+34 932 470 034", "takeaway": "yes"}}, {"type": "node", "id": 4313363189, "lat": 41.3971327, "lon": 2.176868, "tags": {"addr:housenumber": "155", "addr:postcode": "08013", "addr:street": "Carrer de N\u00e0pols", "name": "Cal Rosset", "opening_hours": "Mo-Fr 09:00-20:30; Sa 09:00-14:00", "phone": "+34 93 265 79 72", "shop": "greengrocer", "website": "http://www.calrosset.com"}}, {"type": "node", "id": 4320511990, "lat": 41.397848, "lon": 2.1768226, "tags": {"amenity": "restaurant", "cuisine": "chinese", "name": "Restaurant Honesto", "opening_hours": "Fr-We", "phone": "+34 935 32 33 88", "website": "https://www.honestozd.com/zdms"}}, {"type": "node", "id": 4392820595, "lat": 41.39893, "lon": 2.1748831, "tags": {"addr:city": "Barcelona", "addr:housenumber": "194", "addr:postcode": "08013", "addr:street": "Carrer de N\u00e0pols", "amenity": "cafe", "name": "El Teixidor", "name:ca": "Teixind\u00f3", "phone": "+34 932 45 27 68", "shop": "bakery"}}, {"type": "node", "id": 4392863989, "lat": 41.398686, "lon": 2.1760335, "tags": {"name": "Sorli Discau", "opening_hours": "Mo-Sa 09:00-21:00", "shop": "supermarket"}}, {"type": "node", "id": 4536655470, "lat": 41.3985533, "lon": 2.1780221}, {"type": "node", "id": 4536655471, "lat": 41.3985344, "lon": 2.1780408}, {"type": "node", "id": 4536655472, "lat": 41.3985558, "lon": 2.1780677}, {"type": "node", "id": 4536655473, "lat": 41.3985723, "lon": 2.1780481}, {"type": "node", "id": 4715477691, "lat": 41.3962809, "lon": 2.1751092, "tags": {"name": "Honesto", "shop": "supermarket"}}, {"type": "node", "id": 4715477891, "lat": 41.3979078, "lon": 2.1762919, "tags": {"name": "Keisy", "opening_hours": "Mo-Sa 09:00-21:00", "shop": "supermarket"}}, {"type": "node", "id": 4715485889, "lat": 41.3958038, "lon": 2.1762621, "tags": {"addr:city": "Barcelona", "addr:country": "ES", "addr:housenumber": "669A", "addr:postcode": "08010", "addr:street": "Gran Via de les Corts Catalanes", "shop": "convenience"}}, {"type": "node", "id": 4715485890, "lat": 41.3960653, "lon": 2.1766182, "tags": {"amenity": "bar", "cuisine": "tapas", "name": "Star Bar"}}, {"type": "node", "id": 4719233592, "lat": 41.4012761, "lon": 2.1794877, "tags": {"amenity": "fast_food", "brand": "Telepizza", "brand:wikidata": "Q2699863", "brand:wikipedia": "es:Telepizza", "cuisine": "pizza", "name": "Telepizza", "name:es": "Telepizza", "phone": "+34932658555", "toilets:wheelchair": "yes", "website": "https://www.telepizza.es", "wheelchair": "limited"}}, {"type": "node", "id": 4719233593, "lat": 41.3997595, "lon": 2.1797349, "tags": {"addr:housenumber": "185", "addr:street": "Carrer de la Diputaci\u00f3", "amenity": "restaurant", "name": "Monumental", "name:es": "Monumental"}}, {"type": "node", "id": 4719260489, "lat": 41.3990094, "lon": 2.1788548, "tags": {"amenity": "restaurant", "cuisine": "pizza", "name": "Lucano", "name:es": "Lucano"}}, {"type": "node", "id": 4719260689, "lat": 41.3981541, "lon": 2.1778188, "tags": {"amenity": "bar", "name": "Yuste", "name:es": "Yuste", "opening_hours": "Mo-Su 08:00-01:00", "wheelchair": "limited"}}, {"type": "node", "id": 4719260790, "lat": 41.39646, "lon": 2.1753489, "tags": {"name": "Supermercat", "shop": "convenience"}}, {"type": "node", "id": 4719820193, "lat": 41.3984009, "lon": 2.1751216, "tags": {"name": "Pons", "name:es": "Pons", "opening_hours": "Mo-We 08:30-14:30, Th 08:30-20:30, Fr 08:00-20:30, Sa 08:00-14:30", "shop": "butcher"}}, {"type": "node", "id": 4762854025, "lat": 41.3974302, "lon": 2.1784837, "tags": {"brand": "La Sirena", "brand:wikidata": "Q21034458", "name": "La Sirena", "opening_hours": "Mo-Sa 09:00-21:00", "shop": "frozen_food", "website": "https://www.lasirena.es/", "wheelchair": "yes"}}, {"type": "node", "id": 4762859825, "lat": 41.3969237, "lon": 2.1777748, "tags": {"amenity": "bar", "name": "Lee 666", "name:es": "Lee 666", "wheelchair": "limited"}}, {"type": "node", "id": 4762864132, "lat": 41.3966262, "lon": 2.1773703, "tags": {"name": "Forn Dolcetes", "name:ca": "Forn Dolcetes", "shop": "bakery", "wheelchair": "limited"}}, {"type": "node", "id": 4779688023, "lat": 41.3987566, "lon": 2.1728797, "tags": {"addr:housenumber": "192", "addr:street": "Carrer de Roger de Flor", "amenity": "restaurant", "description": "Arepera - Cockteleria", "internet_access": "wlan", "name": "El Chamo", "name:es": "El Chamo", "phone": "+34930232448"}}, {"type": "node", "id": 5065092521, "lat": 41.3986785, "lon": 2.1748355, "tags": {"addr:housenumber": "189", "addr:postcode": "08013", "addr:street": "Carrer de N\u00e0pols", "all_you_can_eat": "yes", "amenity": "restaurant", "cuisine": "japanese;sushi", "name": "Ogura", "name:es": "Ogura", "phone": "+34931646321"}}, {"type": "node", "id": 5551378622, "lat": 41.3969463, "lon": 2.1759588, "tags": {"addr:city": "Barcelona", "addr:country": "ES", "addr:housenumber": "379", "addr:postcode": "08013", "addr:street": "Carrer de la Diputaci\u00f3", "amenity": "restaurant", "contact:phone": "+34 932469168", "cuisine": "diner;steak_house;argentinian", "internet_access": "wlan", "name": "Alfonsina Parrilla Argentina", "name:en": "Alfonsina Argentinian Grill", "note": "Excelente lugar para comer carnes y demas estilo argentino a precio moderad", "opening_hours": "We-Mo 13:00-16:00, 20:00-23:30"}}, {"type": "node", "id": 5721034923, "lat": 41.3989677, "lon": 2.178717, "tags": {"addr:city": "Barcelona", "addr:country": "ES", "addr:housenumber": "412", "addr:postcode": "08013", "addr:street": "Carrer de la Diputaci\u00f3", "amenity": "restaurant", "contact:email": "nogalabc@gmail.com", "contact:facebook": "https://www.facebook.com/nogalbcn/", "contact:instagram": "https://www.instagram.com/nogalbcn/", "contact:phone": "+34 932654749", "contact:website": "http://restaurantnogal.com", "cuisine": "spanish;cafe", "internet_access": "wlan", "name": "Nogal", "opening_hours": "Mo-Su 05:00-03:00", "outdoor_seating": "yes", "payment:american_express": "yes", "payment:mastercard": "yes", "payment:visa": "yes", "reservation": "yes", "takeaway": "yes", "toilets:wheelchair": "yes", "wheelchair": "yes"}}, {"type": "node", "id": 5772495557, "lat": 41.397786, "lon": 2.1766146, "tags": {"name": "Forn de pa Armengol", "shop": "bakery"}}, {"type": "node", "id": 5882246656, "lat": 41.3989063, "lon": 2.1758059, "tags": {"addr:housenumber": "465", "addr:street": "Carrer del Consell de Cent", "amenity": "restaurant", "name": "Kamasot", "opening_hours": "Mo-Sa 12:00-16:00, 20:00-12:00", "phone": "+34934616591"}}, {"type": "node", "id": 5899729841, "lat": 41.3989914, "lon": 2.1725643, "tags": {"amenity": "ice_cream", "name": "Quim Gelats"}}, {"type": "node", "id": 5933808740, "lat": 41.3986236, "lon": 2.1753141, "tags": {"addr:city": "Barcelona", "addr:housenumber": "182", "addr:postcode": "08013", "addr:street": "Carrer de N\u00e0pols", "amenity": "restaurant", "capacity": "50", "cuisine": "local", "name": "Kserol", "opening_hours": "Mo 09:00-18:00 Tu-Sa 09:00-00:00", "outdoor_seating": "yes", "phone": "+34 936 393 342", "smoking": "outside", "website": "http://www.kserol.com/"}}, {"type": "node", "id": 6009502585, "lat": 41.3994146, "lon": 2.1747998, "tags": {"amenity": "restaurant"}}, {"type": "node", "id": 6030376285, "lat": 41.398619, "lon": 2.18006, "tags": {"addr:housenumber": "731", "addr:street": "Gran Via de les Corts Catalanes (lateral muntanya)", "amenity": "bar", "name": "Bar Granvja", "name:ca": "Gran Via", "name:es": "Gran V\u00eda", "phone": "+34 9363226"}}, {"type": "node", "id": 6097047661, "lat": 41.4003675, "lon": 2.1770146, "tags": {"addr:city": "Barcelona", "addr:housenumber": "229", "addr:postcode": "08013", "addr:street": "Carrer de Sardenya", "brand": "Mercadona", "brand:wikidata": "Q377705", "brand:wikipedia": "es:Mercadona", "name": "Mercadona", "opening_hours": "Mo-Sa 09:00-21:00; PH off", "phone": "+34 936343429", "shop": "supermarket", "toilets:wheelchair": "yes", "website": "https://www.mercadona.es", "wheelchair": "yes"}}, {"type": "node", "id": 6101403366, "lat": 41.3971142, "lon": 2.1758043, "tags": {"addr:city": "Barcelona", "addr:country": "ES", "addr:postcode": "08013", "addr:street": "Carrer de la Diputaci\u00f3", "name": "Diputaci\u00f3", "shop": "convenience"}}, {"type": "node", "id": 6101403369, "lat": 41.3972986, "lon": 2.1766221, "tags": {"addr:city": "Barcelona", "addr:country": "ES", "addr:postcode": "08013", "amenity": "restaurant", "internet_access": "wlan", "name": "Dalin i Vanessa", "opening_hours": "Mo-Su 07:00-00:00"}}, {"type": "node", "id": 6101403370, "lat": 41.398694, "lon": 2.1782798, "tags": {"addr:city": "Barcelona", "addr:country": "ES", "addr:housenumber": "406", "addr:postcode": "08013", "addr:street": "Carrer de la Diputaci\u00f3", "name": "Barcelona", "opening_hours": "24/7", "shop": "convenience", "wheelchair": "yes"}}, {"type": "node", "id": 6230239354, "lat": 41.3969475, "lon": 2.175573, "tags": {"addr:city": "Barcelona", "addr:housenumber": "375", "addr:postcode": "08013", "addr:street": "Diputaci\u00f3", "amenity": "restaurant", "cuisine": "regional", "name": "Restaurant Portol\u00e9s"}}, {"type": "node", "id": 6520607234, "lat": 41.3971991, "lon": 2.174042, "tags": {"addr:housenumber": "418", "addr:street": "Consell de cent", "amenity": "restaurant", "description": "Korean restaurant", "name": "Sam By Ja - Samgyetang restaurant", "opening_hours": "Mo-Su 12:00-00:00", "phone": "+34 695 69 88 14"}}, {"type": "node", "id": 6757278789, "lat": 41.3997955, "lon": 2.1753577, "tags": {"addr:street": "Carrer d'Arag\u00f3", "amenity": "bar", "name": "Taverna Chrison"}}, {"type": "node", "id": 6757278790, "lat": 41.3987855, "lon": 2.1733565, "tags": {"addr:housenumber": "381", "addr:street": "Carrer d'Arag\u00f3", "name": "Supermercat", "shop": "supermarket"}}, {"type": "node", "id": 6757278791, "lat": 41.3983097, "lon": 2.1727388, "tags": {"addr:housenumber": "369", "addr:street": "Carrer d'Arag\u00f3", "name": "Celler de la Rosa", "shop": "wine"}}, {"type": "node", "id": 6757278792, "lat": 41.3981268, "lon": 2.1731664, "tags": {"addr:housenumber": "388", "addr:street": "Carrer d'Arag\u00f3", "amenity": "cafe", "name": "Bonica Bruncherie"}}, {"type": "node", "id": 6757313689, "lat": 41.3993413, "lon": 2.173926, "tags": {"addr:housenumber": "207", "addr:street": "Carrer de N\u00e0pols", "amenity": "restaurant", "name": "Vulcano"}}, {"type": "node", "id": 6757313690, "lat": 41.3985115, "lon": 2.1727895, "tags": {"addr:housenumber": "167", "addr:street": "Carrer de Roger de Flor", "amenity": "fast_food", "cuisine": "pizza", "name": "Kuk Comidas"}}, {"type": "node", "id": 6757313691, "lat": 41.3981197, "lon": 2.1732947, "tags": {"amenity": "restaurant", "cuisine": "sandwich;hotdog;sausage;tapas;coffee_shop", "internet_access": "wlan", "name": "Pic\u00f3n"}}, {"type": "node", "id": 6757314885, "lat": 41.399663, "lon": 2.1745187, "tags": {"addr:housenumber": "397", "addr:street": "Carrer d'Arag\u00f3", "amenity": "restaurant", "cuisine": "asian", "name": "El Potala"}}, {"type": "node", "id": 6757314886, "lat": 41.398686, "lon": 2.1732235, "tags": {"addr:street": "Carrer d'Arag\u00f3", "amenity": "cafe", "name": "Quim Caf\u00e8!"}}, {"type": "node", "id": 6920138496, "lat": 41.4004097, "lon": 2.1801687, "tags": {"amenity": "restaurant", "name": "Bar restaurant breton"}}, {"type": "node", "id": 6960466492, "lat": 41.400378, "lon": 2.1801575, "tags": {"amenity": "restaurant", "name": "Bar Breton"}}, {"type": "node", "id": 6960466786, "lat": 41.4003781, "lon": 2.180023, "tags": {"amenity": "restaurant", "name": "Pizza Di Como"}}, {"type": "node", "id": 7150994121, "lat": 41.3998419, "lon": 2.1775677, "tags": {"addr:city": "Barcelona", "addr:housenumber": "480", "addr:postcode": "08013", "addr:street": "Carrer del Consell de Cent", "amenity": "cafe", "name": "Vivari", "outdoor_seating": "no"}}, {"type": "node", "id": 7206383087, "lat": 41.4013343, "lon": 2.1797243, "tags": {"addr:housenumber": "263", "addr:street": "Avinguda Diagonal", "amenity": "cafe", "internet_access": "wlan", "name": "El Tropic Corner"}}, {"type": "node", "id": 7272699190, "lat": 41.3998161, "lon": 2.1776394, "tags": {"addr:housenumber": "223", "addr:street": "Carrer de Sardenya", "amenity": "cafe", "internet_access": "wlan", "name": "Vivari"}}, {"type": "node", "id": 7272699191, "lat": 41.3986476, "lon": 2.1759848, "tags": {"addr:housenumber": "448", "addr:street": "Carrer del Consell de Cent", "amenity": "restaurant", "name": "Shandong"}}, {"type": "node", "id": 7272699192, "lat": 41.3981496, "lon": 2.1754891, "tags": {"addr:housenumber": "183", "addr:street": "Carrer de N\u00e0pols", "amenity": "cafe", "name": "La Bar"}}, {"type": "node", "id": 7272699193, "lat": 41.397477, "lon": 2.1739846, "tags": {"addr:housenumber": "439", "addr:street": "Carrer del Consell de Cent", "amenity": "cafe", "name": "Dit i Fet"}}, {"type": "node", "id": 7272699194, "lat": 41.3973992, "lon": 2.1738962, "tags": {"addr:housenumber": "439", "addr:street": "Carrer del Consell de Cent", "amenity": "cafe", "name": "Tincset i m\u00e9s", "opening_hours": "Mo-Su 06:45-19:00"}}, {"type": "node", "id": 7272699791, "lat": 41.3989935, "lon": 2.1766623, "tags": {"addr:housenumber": "167", "addr:street": "Carrer de Sic\u00edlia", "amenity": "cafe", "internet_access": "wlan", "name": "Els tres sols"}}, {"type": "node", "id": 7272699792, "lat": 41.3981429, "lon": 2.1753584, "tags": {"addr:street": "Carrer del Consell de Cent", "amenity": "restaurant", "name": "Frankfurt 2006", "name:en": "442"}}, {"type": "node", "id": 7272699793, "lat": 41.3974784, "lon": 2.174615, "tags": {"addr:housenumber": "164", "addr:street": "Carrer de Roger de Flor", "amenity": "cafe", "internet_access": "wlan", "name": "l'Obrador"}}, {"type": "node", "id": 7272699986, "lat": 41.39878, "lon": 2.1768647, "tags": {"brand": "Dia", "brand:wikidata": "Q925132", "brand:wikipedia": "es:DIA (supermercados)", "name": "Dia", "operator": "Distribuidora Internacional de Alimentaci\u00f3n, S.A.", "shop": "supermarket", "website": "https://www.dia.es"}}, {"type": "node", "id": 7272699987, "lat": 41.397634, "lon": 2.1746508, "tags": {"addr:housenumber": "424", "addr:street": "Carrer del Consell de Cent", "amenity": "restaurant", "internet_access": "wlan", "name": "Casa Muyo"}}, {"type": "node", "id": 7272699988, "lat": 41.396925, "lon": 2.1737419, "tags": {"addr:housenumber": "410", "addr:street": "Carrer del Consell de Cent", "amenity": "restaurant", "name": "Colala"}}, {"type": "node", "id": 7272700188, "lat": 41.3986014, "lon": 2.1759301, "tags": {"addr:housenumber": "448", "addr:street": "Carrer del Consell de Cent", "amenity": "restaurant", "cuisine": "chinese", "name": "Pasta Jn"}}, {"type": "node", "id": 7272701085, "lat": 41.398971, "lon": 2.1764175, "tags": {"addr:housenumber": "456", "addr:street": "Carrer del Consell de Cent", "amenity": "cafe", "name": "La Vespa"}}, {"type": "node", "id": 7593198763, "lat": 41.3982086, "lon": 2.1795095, "tags": {"addr:city": "Barcelona", "addr:housenumber": "727", "addr:postcode": "08013", "addr:street": "Gran Via de les Corts Catalanes", "brand": "Lidl", "brand:wikidata": "Q151954", "brand:wikipedia": "en:Lidl", "name": "Lidl", "opening_hours": "Mo-Sa 09:00-21:30", "shop": "supermarket"}}, {"type": "node", "id": 7996797786, "lat": 41.3991918, "lon": 2.178525, "tags": {"amenity": "cafe", "name": "Pannia"}}, {"type": "node", "id": 7996813185, "lat": 41.3998061, "lon": 2.179381, "tags": {"amenity": "cafe", "name": "Caf\u00e9 Lilo"}}, {"type": "node", "id": 7999236685, "lat": 41.3997972, "lon": 2.1793828, "tags": {"name": "Lilo Caf\u00e9", "shop": "bakery"}}, {"type": "node", "id": 8929359429, "lat": 41.4002116, "lon": 2.179308, "tags": {"amenity": "restaurant", "name": "Bona Sort Sushi"}}, {"type": "node", "id": 8933868918, "lat": 41.3971217, "lon": 2.1779771, "tags": {"name": "Aldi", "shop": "supermarket"}}, {"type": "node", "id": 8933869017, "lat": 41.3977862, "lon": 2.1743675, "tags": {"amenity": "cafe", "name": "365 Obrador"}}, {"type": "node", "id": 9589488617, "lat": 41.3965498, "lon": 2.1772681, "tags": {"addr:housenumber": "677", "addr:postcode": "08013", "addr:street": "Gran Via de les Corts Catalanes", "amenity": "cafe", "name": "Petit Princep Brunch"}}, {"type": "way", "id": 457515538, "nodes": [4536655470, 4536655471, 4536655472, 4536655473, 4536655470], "tags": {"building": "yes", "shop": "kiosk"}}]}