{"version": 0.6, "generator": "Overpass API 0.7.58.5 b0c4acbb", "osm3s": {"timestamp_osm_base": "2022-09-06T16:49:51Z", "copyright": "The data included in this document is from www.openstreetmap.org. The data is made available under ODbL."}, "elements": [{"type": "node", "id": 167301945, "lat": 40.4110728, "lon": -3.6968537, "tags": {"shop": "variety_store"}}, {"type": "node", "id": 244757867, "lat": 40.4110189, "lon": -3.7004068, "tags": {"addr:city": "Madrid", "addr:country": "ES", "addr:housenumber": "17", "addr:postcode": "28012", "addr:street": "Calle del Ave Mar\u00eda", "shop": "hairdresser"}}, {"type": "node", "id": 750503123, "lat": 40.4090255, "lon": -3.7002464, "tags": {"addr:city": "Madrid", "addr:housenumber": "9", "addr:postcode": "28012", "addr:street": "Calle de la Fe", "contact:phone": "+34 915 272 833", "drink:club-mate": "retail", "email": "el_druida_lavapies@yahoo.es", "name": "El Druida", "shop": "herbalist", "wheelchair": "limited"}}, {"type": "node", "id": 1191046495, "lat": 40.4113511, "lon": -3.707554, "tags": {"name": "VietNails", "shop": "beauty"}}, {"type": "node", "id": 1191054476, "lat": 40.4110336, "lon": -3.7080419}, {"type": "node", "id": 1326816934, "lat": 40.4106345, "lon": -3.707775}, {"type": "node", "id": 1326816952, "lat": 40.4105027, "lon": -3.7079929}, {"type": "node", "id": 1326816997, "lat": 40.4104528, "lon": -3.7078491}, {"type": "node", "id": 1326817011, "lat": 40.4106066, "lon": -3.7077821}, {"type": "node", "id": 1326817028, "lat": 40.4105717, "lon": -3.7077903}, {"type": "node", "id": 1326817086, "lat": 40.4106659, "lon": -3.7078655}, {"type": "node", "id": 1326817099, "lat": 40.4105854, "lon": -3.7077871}, {"type": "node", "id": 1326907768, "lat": 40.4107919, "lon": -3.7086558, "tags": {"name": "F&H", "shop": "clothes"}}, {"type": "node", "id": 1327625373, "lat": 40.4109611, "lon": -3.7077678, "tags": {"name": "Moda Shon Li", "shop": "clothes"}}, {"type": "node", "id": 1327625378, "lat": 40.4111487, "lon": -3.7074087, "tags": {"name": "Peluquer\u00eda 21", "old_name": "Kelly Moda", "shop": "hairdresser"}}, {"type": "node", "id": 1327625384, "lat": 40.4110584, "lon": -3.7079434}, {"type": "node", "id": 1327625402, "lat": 40.4109398, "lon": -3.7077053, "tags": {"name": "Moda Li Da", "shop": "clothes"}}, {"type": "node", "id": 1327625411, "lat": 40.4109892, "lon": -3.7078499, "tags": {"addr:city": "Madrid", "addr:country": "ES", "addr:housenumber": "8", "addr:postcode": "28005", "addr:street": "Calle de las Maldonadas", "name": "Peluquer\u00eda", "shop": "hairdresser", "wheelchair": "no", "wheelchair:description": "Escalon > 7cm"}}, {"type": "node", "id": 1329671722, "lat": 40.4105959, "lon": -3.7084617, "tags": {"addr:country": "ES", "name": "Own Style", "shop": "hairdresser"}}, {"type": "node", "id": 1329671723, "lat": 40.4104109, "lon": -3.7079122, "tags": {"name": "Algod\u00f3n de Bangladesh", "shop": "clothes"}}, {"type": "node", "id": 1329671727, "lat": 40.4106164, "lon": -3.7085246, "tags": {"name": "San Francisco", "shop": "clothes"}}, {"type": "node", "id": 1329671728, "lat": 40.4101148, "lon": -3.7080682, "tags": {"name": "El corte Mexicano", "shop": "clothes"}}, {"type": "node", "id": 1329671729, "lat": 40.410617, "lon": -3.7087876, "tags": {"name": "Zapatos y Bolsos", "shop": "shoes"}}, {"type": "node", "id": 1329671743, "lat": 40.4104912, "lon": -3.7089064, "tags": {"name": "Gilgo", "shop": "chemist"}}, {"type": "node", "id": 1329671746, "lat": 40.4104747, "lon": -3.7081165, "tags": {"addr:city": "Madrid", "addr:housenumber": "13", "addr:postcode": "28005", "addr:street": "Calle de la Ruda", "contact:facebook": "https://es-la.facebook.com/LA-GRAN-TIJERA-72127056648/", "contact:phone": "+34 913 65 33 44", "name": "La Gran Tijera", "old_name": "Moda de ropa", "shop": "hairdresser"}}, {"type": "node", "id": 1329671749, "lat": 40.4099964, "lon": -3.7087961, "tags": {"name": "Entre dedales", "shop": "tailor"}}, {"type": "node", "id": 1329671750, "lat": 40.4106029, "lon": -3.7084894, "tags": {"name": "De Piedra", "old_name": "Capit\u00e1n Morgan", "shop": "jewelry", "website": "http://www.depiedracreaciones.com/"}}, {"type": "node", "id": 1329671751, "lat": 40.4099538, "lon": -3.7082557, "tags": {"name": "Moda Ji Ren", "shop": "clothes"}}, {"type": "node", "id": 1329671760, "lat": 40.410054, "lon": -3.7081213, "tags": {"name": "Holiday", "shop": "clothes"}}, {"type": "node", "id": 1329671763, "lat": 40.410431, "lon": -3.7079694, "tags": {"addr:city": "Madrid", "addr:housenumber": "11", "addr:postcode": "28005", "addr:street": "Calle de la Ruda", "name": "Taller de arreglos textil Javier, S.L.", "shop": "tailor", "wheelchair": "no", "wheelchair:description": "doble escal\u00f3n consecutivo"}}, {"type": "node", "id": 1329671768, "lat": 40.4105142, "lon": -3.7082411, "tags": {"addr:city": "Madrid", "addr:country": "ES", "addr:housenumber": "15", "addr:postcode": "28005", "addr:street": "Calle de la Ruda", "name": "Manila", "shop": "chemist"}}, {"type": "node", "id": 1329671773, "lat": 40.4102998, "lon": -3.7079401, "tags": {"addr:city": "Madrid", "addr:housenumber": "2", "addr:postcode": "28005", "addr:street": "Calle de Santa Ana", "name": "Anfiloquio", "shop": "clothes", "wheelchair": "no"}}, {"type": "node", "id": 1329909010, "lat": 40.4119683, "lon": -3.7073879}, {"type": "node", "id": 1329909032, "lat": 40.4117115, "lon": -3.7075138}, {"type": "node", "id": 1329909173, "lat": 40.4117136, "lon": -3.7073294}, {"type": "node", "id": 1329909235, "lat": 40.4119684, "lon": -3.7074567}, {"type": "node", "id": 1935011218, "lat": 40.4085903, "lon": -3.7048474, "tags": {"name": "ratzaTattoo", "opening_hours": "\"han operado de c\u00e1ncer al due\u00f1o y lleva cerrado desde la operaci\u00f3n.\"", "shop": "tattoo", "website": "http://www.ratzatattoo.com/"}}, {"type": "node", "id": 2546794635, "lat": 40.4104634, "lon": -3.6948924, "tags": {"addr:city": "Madrid", "addr:country": "ES", "addr:housenumber": "111", "addr:postcode": "28012", "addr:street": "Calle de Atocha", "name": "Beauty Confort Shoes", "shop": "shoes", "wheelchair": "no"}}, {"type": "node", "id": 2635276613, "lat": 40.408935, "lon": -3.7052743, "tags": {"addr:city": "Madrid", "addr:country": "ES", "addr:housenumber": "17", "addr:postcode": "28012", "addr:street": "Calle de los Cabestreros", "name": "Val Souza Estilistas", "note": "Peluquer\u00eda y Centro de Est\u00e9tica", "opening_hours": "Mo-Fr 10:00-20:00;Sa 10:00-16:00", "phone": "+34 625 442 900", "shop": "hairdresser", "website": "https://valsouzaestilistas.com"}}, {"type": "node", "id": 2734061920, "lat": 40.4122992, "lon": -3.7053962}, {"type": "node", "id": 2734061922, "lat": 40.4123256, "lon": -3.7055196}, {"type": "node", "id": 2734061924, "lat": 40.4123493, "lon": -3.705635}, {"type": "node", "id": 2734061925, "lat": 40.4123643, "lon": -3.7054751}, {"type": "node", "id": 2734061927, "lat": 40.4123633, "lon": -3.7055045}, {"type": "node", "id": 2734061928, "lat": 40.4123742, "lon": -3.7057637}, {"type": "node", "id": 2734061931, "lat": 40.4124039, "lon": -3.7054584}, {"type": "node", "id": 2734061933, "lat": 40.4124103, "lon": -3.705487}, {"type": "node", "id": 2955144553, "lat": 40.4119542, "lon": -3.7053142}, {"type": "node", "id": 2955144554, "lat": 40.4119814, "lon": -3.7051982}, {"type": "node", "id": 2955144571, "lat": 40.4123356, "lon": -3.7034935}, {"type": "node", "id": 3208934661, "lat": 40.4086046, "lon": -3.7074767, "tags": {"addr:city": "Madrid", "addr:housenumber": "10", "addr:postcode": "28005", "addr:street": "Calle Ribera de Curtidores", "name": "Amantis", "shop": "erotic", "wheelchair": "no", "wheelchair:description": "Escal\u00f3n de m\u00e1s de 30 cm"}}, {"type": "node", "id": 3208955462, "lat": 40.4097634, "lon": -3.7075812, "tags": {"addr:city": "Madrid", "addr:housenumber": "6", "addr:postcode": "28005", "addr:street": "Calle de las Amazonas", "name": "Ropa Remember", "shop": "clothes", "wheelchair": "yes", "wheelchair:description": "Tambi\u00e9n a los probadores"}}, {"type": "node", "id": 3209584686, "lat": 40.4098805, "lon": -3.7087656, "tags": {"addr:city": "Madrid", "addr:housenumber": "5", "addr:postcode": "28005", "addr:street": "Calle L\u00f3pez Silva", "name": "El Ropero", "shop": "clothes", "wheelchair": "limited"}}, {"type": "node", "id": 3209584688, "lat": 40.4101191, "lon": -3.7088716, "tags": {"addr:city": "Madrid", "addr:housenumber": "3", "addr:postcode": "28005", "addr:street": "Calle L\u00f3pez Silva", "name": "La Revoltosa", "shop": "tailor", "wheelchair": "limited", "wheelchair:description": "Escal\u00f3n algo superior a 10 cm"}}, {"type": "node", "id": 3235940709, "lat": 40.4104454, "lon": -3.707178}, {"type": "node", "id": 3235940712, "lat": 40.4101715, "lon": -3.7070773, "tags": {"addr:city": "Madrid", "addr:housenumber": "9", "addr:postcode": "28005", "addr:street": "Plaza de Cascorro", "name": "Neipi", "shop": "bag", "wheelchair": "no", "wheelchair:description": "Escalon > 7cm"}}, {"type": "node", "id": 3235964304, "lat": 40.4094885, "lon": -3.7071687, "tags": {"addr:city": "Madrid", "addr:housenumber": "3", "addr:postcode": "28005", "addr:street": "Calle Ribera de Curtidores", "name": "Traperos de Ema\u00fas", "shop": "charity", "wheelchair": "no"}}, {"type": "node", "id": 3236041593, "lat": 40.4106626, "lon": -3.7083406, "tags": {"addr:city": "Madrid", "addr:housenumber": "16", "addr:postcode": "28005", "addr:street": "Calle de la Ruda", "shop": "clothes", "wheelchair": "yes"}}, {"type": "node", "id": 3248014390, "lat": 40.4103007, "lon": -3.7075877, "tags": {"addr:city": "Madrid", "addr:housenumber": "3", "addr:postcode": "28005", "addr:street": "Calle de la Ruda", "name": "Dimeiya, S.L.", "shop": "clothes", "wheelchair": "limited", "wheelchair:description": "Ligero escal\u00f3n menor a 5 cm"}}, {"type": "node", "id": 3250253222, "lat": 40.4106099, "lon": -3.7079596}, {"type": "node", "id": 3250253223, "lat": 40.4106169, "lon": -3.7079548}, {"type": "node", "id": 3250253224, "lat": 40.4106211, "lon": -3.7079657}, {"type": "node", "id": 3250253226, "lat": 40.4106294, "lon": -3.707959}, {"type": "node", "id": 3250253230, "lat": 40.4106578, "lon": -3.7079216}, {"type": "node", "id": 3250253231, "lat": 40.4106613, "lon": -3.7079314}, {"type": "node", "id": 3250253232, "lat": 40.4106763, "lon": -3.7078965}, {"type": "node", "id": 3250253233, "lat": 40.4106803, "lon": -3.7079079}, {"type": "node", "id": 3250253246, "lat": 40.4117049, "lon": -3.7073794}, {"type": "node", "id": 3250253247, "lat": 40.4117111, "lon": -3.7073756}, {"type": "node", "id": 3250253248, "lat": 40.4117132, "lon": -3.7073203}, {"type": "node", "id": 3250253272, "lat": 40.4119685, "lon": -3.7073715}, {"type": "node", "id": 3250253275, "lat": 40.4119769, "lon": -3.7074572}, {"type": "node", "id": 3250253276, "lat": 40.411979, "lon": -3.7075154}, {"type": "node", "id": 3250253279, "lat": 40.4119902, "lon": -3.7075158}, {"type": "node", "id": 3250253280, "lat": 40.4119968, "lon": -3.7075347}, {"type": "node", "id": 3250280721, "lat": 40.4117667, "lon": -3.7064798}, {"type": "node", "id": 3250280723, "lat": 40.4118036, "lon": -3.7063509}, {"type": "node", "id": 3250280727, "lat": 40.411858, "lon": -3.7065676}, {"type": "node", "id": 3250280729, "lat": 40.4119331, "lon": -3.706539}, {"type": "node", "id": 3250280730, "lat": 40.4119335, "lon": -3.7065674}, {"type": "node", "id": 3250280731, "lat": 40.4119348, "lon": -3.7064861}, {"type": "node", "id": 3250280732, "lat": 40.4119392, "lon": -3.70647}, {"type": "node", "id": 3250280740, "lat": 40.4120144, "lon": -3.7062992}, {"type": "node", "id": 3250280741, "lat": 40.4120167, "lon": -3.7063139}, {"type": "node", "id": 3255364785, "lat": 40.4070961, "lon": -3.6957497, "tags": {"old_name": "On Line Muebles", "shop": "shoes"}}, {"type": "node", "id": 3260561061, "lat": 40.4111364, "lon": -3.6970465, "tags": {"name": "Mundo Fant\u00e1stico", "shop": "erotic"}}, {"type": "node", "id": 3260817255, "lat": 40.4126734, "lon": -3.7052167}, {"type": "node", "id": 3260817259, "lat": 40.4126961, "lon": -3.7051509}, {"type": "node", "id": 3260817272, "lat": 40.4127508, "lon": -3.7051306}, {"type": "node", "id": 3260817274, "lat": 40.4127579, "lon": -3.7052549}, {"type": "node", "id": 3260817278, "lat": 40.4127752, "lon": -3.7052441}, {"type": "node", "id": 3306785585, "lat": 40.4125801, "lon": -3.707688}, {"type": "node", "id": 3306785590, "lat": 40.4126029, "lon": -3.7077668}, {"type": "node", "id": 3306785593, "lat": 40.4126453, "lon": -3.7077601}, {"type": "node", "id": 3423261324, "lat": 40.4108066, "lon": -3.7069197, "tags": {"name": "Yeah Madcity", "shop": "clothes"}}, {"type": "node", "id": 3614543602, "lat": 40.4128584, "lon": -3.7076591}, {"type": "node", "id": 3614543608, "lat": 40.4128752, "lon": -3.7076224}, {"type": "node", "id": 3791776558, "lat": 40.4122967, "lon": -3.6999278}, {"type": "node", "id": 3791776562, "lat": 40.4123154, "lon": -3.6999281}, {"type": "node", "id": 3794186296, "lat": 40.4121303, "lon": -3.7007513}, {"type": "node", "id": 3794200501, "lat": 40.4121401, "lon": -3.7010637}, {"type": "node", "id": 3794200502, "lat": 40.4123122, "lon": -3.7010667}, {"type": "node", "id": 3794200503, "lat": 40.4121451, "lon": -3.7008156}, {"type": "node", "id": 3794200504, "lat": 40.4121446, "lon": -3.7009366}, {"type": "node", "id": 3794200505, "lat": 40.412184, "lon": -3.7009364}, {"type": "node", "id": 3794200508, "lat": 40.4121867, "lon": -3.7013048}, {"type": "node", "id": 3794200509, "lat": 40.4123053, "lon": -3.7013044}, {"type": "node", "id": 3794200510, "lat": 40.4122298, "lon": -3.7010666}, {"type": "node", "id": 3794200515, "lat": 40.4121694, "lon": -3.7013039}, {"type": "node", "id": 3794201609, "lat": 40.4121271, "lon": -3.7008156}, {"type": "node", "id": 3794201610, "lat": 40.4123197, "lon": -3.7008143}, {"type": "node", "id": 3798795048, "lat": 40.4121796, "lon": -3.7054439}, {"type": "node", "id": 3798795049, "lat": 40.4122388, "lon": -3.705745}, {"type": "node", "id": 3801348375, "lat": 40.4116423, "lon": -3.7053886}, {"type": "node", "id": 3801348376, "lat": 40.4116801, "lon": -3.7052553}, {"type": "node", "id": 3801349161, "lat": 40.4114485, "lon": -3.7051388}, {"type": "node", "id": 3801349168, "lat": 40.4113941, "lon": -3.7051134}, {"type": "node", "id": 3801996286, "lat": 40.410985, "lon": -3.7047825}, {"type": "node", "id": 3801996287, "lat": 40.4110191, "lon": -3.7046974}, {"type": "node", "id": 3802765017, "lat": 40.4110526, "lon": -3.7048917}, {"type": "node", "id": 3803512872, "lat": 40.4120348, "lon": -3.7062957}, {"type": "node", "id": 3835517309, "lat": 40.4117036, "lon": -3.7073203, "tags": {"entrance": "main"}}, {"type": "node", "id": 3835517337, "lat": 40.41202, "lon": -3.7073909, "tags": {"entrance": "main"}}, {"type": "node", "id": 4009495884, "lat": 40.4117391, "lon": -3.7060485, "tags": {"brand": "Clarel", "brand:wikidata": "Q48784350", "brand:wikipedia": "es:Clarel", "name": "Clarel", "shop": "chemist"}}, {"type": "node", "id": 4237275475, "lat": 40.4100475, "lon": -3.7093096, "tags": {"name": "Suerte", "shop": "shoes"}}, {"type": "node", "id": 4237282956, "lat": 40.4088483, "lon": -3.7105626, "tags": {"addr:city": "Madrid", "addr:housenumber": "84", "addr:postcode": "28005", "addr:street": "Calle de Toledo", "name": "Embellecer tus Manos", "shop": "beauty", "wheelchair": "limited"}}, {"type": "node", "id": 4384317852, "lat": 40.4130214, "lon": -3.7050383, "tags": {"name": "Martina K", "shop": "clothes"}}, {"type": "node", "id": 4387723478, "lat": 40.4125431, "lon": -3.7031325, "tags": {"craft": "tailor", "name": "Arreglos de Ropa", "shop": "clothes"}}, {"type": "node", "id": 4387723480, "lat": 40.412676, "lon": -3.703462, "tags": {"name": "Ben\u00edtez", "phone": "+34 918 263 289", "shop": "hairdresser", "wheelchair": "yes"}}, {"type": "node", "id": 4397762094, "lat": 40.4098654, "lon": -3.7082175, "tags": {"addr:city": "Madrid", "addr:housenumber": "9", "addr:postcode": "28005", "addr:street": "Calle de Santa Ana", "craft": "upholsterer", "name": "La Tapicer\u00eda", "shop": "fabric", "website": "http://latapicera.com/web/"}}, {"type": "node", "id": 4405701888, "lat": 40.4124757, "lon": -3.7078274, "tags": {"addr:city": "Madrid", "addr:housenumber": "42", "addr:postcode": "28005", "addr:street": "Calle de Toledo", "brand": "Humana", "brand:wikidata": "Q1636581", "brand:wikipedia": "de:Humana People to People", "contact:phone": "+34 91 603 47 22", "contact:website": "http://www.humana-spain.org/que-puedes-hacer-tu/comprar-ropa/tiendas/madrid/c-toledo-42-en-madrid/es", "name": "Humana", "shop": "charity"}}, {"type": "node", "id": 4677015744, "lat": 40.4084096, "lon": -3.710049, "tags": {"addr:city": "Madrid", "addr:housenumber": "6", "addr:postcode": "28005", "addr:street": "Calle de la Arganzuela", "shop": "second_hand"}}, {"type": "node", "id": 4677015747, "lat": 40.408607, "lon": -3.7101403, "tags": {"addr:city": "Madrid", "addr:postcode": "28005", "name": "Hiper Bazar", "shop": "variety_store"}}, {"type": "node", "id": 4677022772, "lat": 40.4079015, "lon": -3.7098237, "tags": {"addr:city": "Madrid", "addr:housenumber": "16", "addr:postcode": "28005", "addr:street": "Calle de la Arganzuela", "shop": "second_hand"}}, {"type": "node", "id": 4677022776, "lat": 40.4082068, "lon": -3.7099654, "tags": {"addr:city": "Madrid", "addr:housenumber": "10", "addr:postcode": "28005", "addr:street": "Calle de la Arganzuela", "name": "Curtidos Arganzuela", "shop": "leather", "website": "https://www.curtidosarganzuela.com/"}}, {"type": "node", "id": 4677022778, "lat": 40.4082604, "lon": -3.7099855, "tags": {"addr:city": "Madrid", "addr:housenumber": "10", "addr:postcode": "28005", "addr:street": "Calle de la Arganzuela", "contact:phone": "+34 91 366 96 11", "contact:website": "http://www.roal.com/curtidos-arganzuela", "name": "Roal", "shop": "leather"}}, {"type": "node", "id": 4677074986, "lat": 40.4078376, "lon": -3.7109962, "tags": {"addr:city": "Madrid", "addr:housenumber": "117", "addr:postcode": "28005", "addr:street": "Calle de Toledo", "name": "Jofer", "shop": "hairdresser"}}, {"type": "node", "id": 4680242491, "lat": 40.4109106, "lon": -3.6960078, "tags": {"name": "Cachet", "name:es": "Cachet", "shop": "hairdresser"}}, {"type": "node", "id": 4680243889, "lat": 40.4109311, "lon": -3.6965717, "tags": {"name": "Mia Mia", "shop": "clothes"}}, {"type": "node", "id": 4697195909, "lat": 40.4117066, "lon": -3.7042748, "tags": {"addr:city": "Madrid", "addr:housenumber": "8", "addr:postcode": "28012", "addr:street": "Calle de Jes\u00fas y Mar\u00eda", "contact:facebook": "https://www.facebook.com/blowfishtattoo/", "contact:phone": "+34 600 55 84 73", "name": "Blowfish", "shop": "tattoo"}}, {"type": "node", "id": 4704024590, "lat": 40.4084001, "lon": -3.6998728, "tags": {"name": "Tompai", "shop": "clothes", "survey:date": "2022-07-23"}}, {"type": "node", "id": 4704024591, "lat": 40.4083693, "lon": -3.6996868, "tags": {"name": "La Tiendina", "shop": "clothes", "survey:date": "2022-07-23"}}, {"type": "node", "id": 4704024592, "lat": 40.4089698, "lon": -3.7005316, "tags": {"shop": "hairdresser"}}, {"type": "node", "id": 4704024593, "lat": 40.4089813, "lon": -3.7006075, "tags": {"shop": "clothes"}}, {"type": "node", "id": 4704037189, "lat": 40.4085077, "lon": -3.6995841, "tags": {"shop": "hairdresser"}}, {"type": "node", "id": 4725967126, "lat": 40.4111386, "lon": -3.6984694, "tags": {"addr:city": "Madrid", "addr:housenumber": "7", "addr:postcode": "28012", "addr:street": "Calle de Santa Isabel", "contact:phone": "+34 91 429 98 39", "contact:website": "http://www.donflamenco.com/es/", "name": "Don Flamenco", "shop": "shoes"}}, {"type": "node", "id": 4725967128, "lat": 40.4110325, "lon": -3.6983875, "tags": {"addr:city": "Madrid", "addr:housenumber": "9", "addr:postcode": "28012", "addr:street": "Calle de Santa Isabel", "name": "Tumitienda", "shop": "variety_store"}}, {"type": "node", "id": 4725967138, "lat": 40.4110834, "lon": -3.6976353, "tags": {"addr:city": "Madrid", "addr:housenumber": "4", "addr:postcode": "28012", "addr:street": "Calle de San Eugenio", "shop": "hairdresser", "wheelchair": "no"}}, {"type": "node", "id": 4727650684, "lat": 40.4132296, "lon": -3.7073231, "tags": {"addr:city": "Madrid", "addr:housenumber": "35", "addr:street": "Calle de Toledo", "contact:website": "http://www.zapshop.es/es/", "name": "Zapshop", "shop": "shoes"}}, {"type": "node", "id": 4727650686, "lat": 40.4124927, "lon": -3.6985615, "tags": {"addr:city": "Madrid", "addr:housenumber": "14", "addr:postcode": "28014", "addr:street": "Calle Amor de Dios", "contact:facebook": "https://es-es.facebook.com/ManueRodrMarce/", "contact:phone": "+34 913 69 17 09", "name": "Trasquilones", "shop": "hairdresser"}}, {"type": "node", "id": 4756825879, "lat": 40.4122318, "lon": -3.7038849, "tags": {"name": "Vistebien", "shop": "clothes"}}, {"type": "node", "id": 4776957473, "lat": 40.4133272, "lon": -3.7075624, "tags": {"addr:city": "Madrid", "addr:housenumber": "30", "addr:postcode": "28005", "addr:street": "Calle de Toledo", "contact:phone": "+34 913 664 017", "contact:website": "https://www.calzadoslobo.com/tiendas/madrid", "email": "info@calzadoslobo.com", "name": "Lobo", "opening_hours": "Mo-Fr 09:30-14:00,16:30-20:00; Sa 09:30-14:00; Jun 15-Sep 15: Mo-Fr 09:30-14:00,17:30-20:00", "shop": "shoes"}}, {"type": "node", "id": 4937055421, "lat": 40.4100054, "lon": -3.6969032, "tags": {"addr:city": "Madrid", "addr:country": "ES", "addr:housenumber": "35", "addr:postcode": "28012", "addr:street": "Calle de Santa Isabel", "name": "Confecciones Tr\u00e9bol", "shop": "clothes"}}, {"type": "node", "id": 5084215221, "lat": 40.4098607, "lon": -3.7010755, "tags": {"name": "Bajo el Volc\u00e1n", "name:es": "Bajo el Volc\u00e1n", "shop": "variety_store"}}, {"type": "node", "id": 5278426322, "lat": 40.4090017, "lon": -3.7095825, "tags": {"name": "Underground Moda", "shop": "clothes"}}, {"type": "node", "id": 5412144553, "lat": 40.4078019, "lon": -3.7112733, "tags": {"addr:city": "Madrid", "addr:housenumber": "104", "addr:postcode": "28005", "addr:street": "Calle de Toledo", "contact:phone": "+34 912452635", "contact:website": "http://www.madridoldschool.es/", "name": "Madrid Old School", "shop": "hairdresser", "wheelchair": "no"}}, {"type": "node", "id": 5412144554, "lat": 40.4078538, "lon": -3.7112374, "tags": {"addr:city": "Madrid", "addr:housenumber": "104", "addr:postcode": "28005", "addr:street": "Calle de Toledo", "contact:phone": "+34 91 365 54 83", "contact:website": "http://www.carisalfashion.com/", "name": "Carisal", "shop": "clothes", "wheelchair": "no"}}, {"type": "node", "id": 5412144555, "lat": 40.4079285, "lon": -3.7112064, "tags": {"addr:city": "Madrid", "addr:housenumber": "102", "addr:postcode": "28005", "addr:street": "Calle de Toledo", "contact:facebook": "https://es-la.facebook.com/rollspeluqueria/", "contact:phone": "+34 919 29 23 33", "name": "Rolls", "shop": "hairdresser", "wheelchair": "no"}}, {"type": "node", "id": 5426466847, "lat": 40.412974, "lon": -3.7048597, "tags": {"addr:city": "Madrid", "addr:housenumber": "13", "addr:postcode": "28012", "addr:street": "Calle del Conde de Romanones", "name": "Iris", "shop": "clothes", "wheelchair": "no"}}, {"type": "node", "id": 5426466848, "lat": 40.412904, "lon": -3.7048925, "tags": {"addr:city": "Madrid", "addr:housenumber": "13", "addr:postcode": "28012", "addr:street": "Calle del Conde de Romanones", "contact:phone": "+34 91 429 27 01", "contact:website": "http://www.gmarfil.com/", "name": "Marfil", "shop": "clothes", "wheelchair": "no"}}, {"type": "node", "id": 5448874258, "lat": 40.4102127, "lon": -3.7066158, "tags": {"addr:housenumber": "10", "addr:street": "Calle de Embajadores", "name": "Bearbero", "shop": "hairdresser", "website": "https://bearbero.com/"}}, {"type": "node", "id": 5758978523, "lat": 40.4118018, "lon": -3.6987038, "tags": {"name": "Arreglos Cris Bella", "shop": "clothes"}}, {"type": "node", "id": 6340751315, "lat": 40.4126971, "lon": -3.7052877}, {"type": "node", "id": 6360413685, "lat": 40.4078677, "lon": -3.6980415, "tags": {"addr:city": "Madrid", "addr:country": "ES", "addr:housenumber": "20", "addr:postcode": "28012", "addr:street": "Calle de Argumosa", "name": "Clemente Atienza", "shop": "hairdresser"}}, {"type": "node", "id": 6372020603, "lat": 40.4110646, "lon": -3.7048303}, {"type": "node", "id": 6372020612, "lat": 40.4110974, "lon": -3.7047412}, {"type": "node", "id": 6372020614, "lat": 40.4110326, "lon": -3.7051207}, {"type": "node", "id": 6372020615, "lat": 40.4109991, "lon": -3.705108}, {"type": "node", "id": 6372020616, "lat": 40.4110912, "lon": -3.7049179}, {"type": "node", "id": 6372020632, "lat": 40.4115969, "lon": -3.7053672}, {"type": "node", "id": 6372020633, "lat": 40.4116357, "lon": -3.7052314}, {"type": "node", "id": 6372020638, "lat": 40.4113799, "lon": -3.7051692}, {"type": "node", "id": 6372020639, "lat": 40.4114324, "lon": -3.7051925}, {"type": "node", "id": 6372020658, "lat": 40.4122565, "lon": -3.7054137}, {"type": "node", "id": 6372020663, "lat": 40.4123832, "lon": -3.7054671}, {"type": "node", "id": 6372020664, "lat": 40.4124519, "lon": -3.7054711}, {"type": "node", "id": 6372020665, "lat": 40.4124225, "lon": -3.7053427}, {"type": "node", "id": 6372020666, "lat": 40.4123608, "lon": -3.7053695}, {"type": "node", "id": 6372020667, "lat": 40.4123713, "lon": -3.7055019}, {"type": "node", "id": 6372020672, "lat": 40.4123266, "lon": -3.7057292}, {"type": "node", "id": 6372020673, "lat": 40.4123361, "lon": -3.7057775}, {"type": "node", "id": 6431838213, "lat": 40.4122443, "lon": -3.6999204}, {"type": "node", "id": 6431838214, "lat": 40.4122457, "lon": -3.6999739}, {"type": "node", "id": 6431838215, "lat": 40.4123176, "lon": -3.6999814}, {"type": "node", "id": 6431838834, "lat": 40.4121696, "lon": -3.70138}, {"type": "node", "id": 6431838835, "lat": 40.4123047, "lon": -3.7013794}, {"type": "node", "id": 6431838839, "lat": 40.412141, "lon": -3.7010052}, {"type": "node", "id": 6431838840, "lat": 40.4123141, "lon": -3.7010058}, {"type": "node", "id": 6431838841, "lat": 40.4121851, "lon": -3.7009627}, {"type": "node", "id": 6431838842, "lat": 40.4123154, "lon": -3.7009609}, {"type": "node", "id": 6431838845, "lat": 40.4123178, "lon": -3.7008804}, {"type": "node", "id": 6431838846, "lat": 40.4121448, "lon": -3.7008785}, {"type": "node", "id": 6431838847, "lat": 40.4121308, "lon": -3.7007411}, {"type": "node", "id": 6431838848, "lat": 40.4123219, "lon": -3.7007387}, {"type": "node", "id": 6432436943, "lat": 40.4121961, "lon": -3.7034302}, {"type": "node", "id": 6432436944, "lat": 40.4121829, "lon": -3.7034829}, {"type": "node", "id": 6432436945, "lat": 40.4123258, "lon": -3.7035436}, {"type": "node", "id": 6433320422, "lat": 40.4120272, "lon": -3.7062427}, {"type": "node", "id": 6433320423, "lat": 40.4118224, "lon": -3.7062864}, {"type": "node", "id": 6433320429, "lat": 40.4118299, "lon": -3.7065688}, {"type": "node", "id": 6433320430, "lat": 40.4117487, "lon": -3.7065426}, {"type": "node", "id": 6433320435, "lat": 40.4121828, "lon": -3.705765}, {"type": "node", "id": 6433320436, "lat": 40.4121217, "lon": -3.7054673}, {"type": "node", "id": 6433320462, "lat": 40.4118785, "lon": -3.7052746}, {"type": "node", "id": 6433320463, "lat": 40.411917, "lon": -3.7051498}, {"type": "node", "id": 6435480477, "lat": 40.4118632, "lon": -3.7061409}, {"type": "node", "id": 6435480478, "lat": 40.4119381, "lon": -3.7061715}, {"type": "node", "id": 6435480479, "lat": 40.411947, "lon": -3.7061403}, {"type": "node", "id": 6435480480, "lat": 40.4118729, "lon": -3.7061064}, {"type": "node", "id": 6482230855, "lat": 40.411008, "lon": -3.7079693}, {"type": "node", "id": 6482230856, "lat": 40.4110692, "lon": -3.7080361}, {"type": "node", "id": 6483734475, "lat": 40.4105053, "lon": -3.7080007, "tags": {"entrance": "main"}}, {"type": "node", "id": 6483734476, "lat": 40.4106632, "lon": -3.7079374}, {"type": "node", "id": 6483734477, "lat": 40.4106135, "lon": -3.7079707}, {"type": "node", "id": 6483734478, "lat": 40.4105163, "lon": -3.7080333}, {"type": "node", "id": 6483734479, "lat": 40.4104553, "lon": -3.7078564, "tags": {"entrance": "main"}}, {"type": "node", "id": 6483734486, "lat": 40.4106373, "lon": -3.7077832}, {"type": "node", "id": 6483734488, "lat": 40.4104666, "lon": -3.7078889}, {"type": "node", "id": 6483799922, "lat": 40.4120323, "lon": -3.7075345}, {"type": "node", "id": 6483799923, "lat": 40.4120342, "lon": -3.7073962}, {"type": "node", "id": 6483799924, "lat": 40.4120019, "lon": -3.7075347}, {"type": "node", "id": 6483799925, "lat": 40.4119991, "lon": -3.707383}, {"type": "node", "id": 6483799927, "lat": 40.4119804, "lon": -3.707376, "tags": {"entrance": "main"}}, {"type": "node", "id": 6483799941, "lat": 40.4116818, "lon": -3.7075225}, {"type": "node", "id": 6483799942, "lat": 40.4116826, "lon": -3.7073188}, {"type": "node", "id": 6483799943, "lat": 40.4104745, "lon": -3.7071875, "tags": {"entrance": "main"}}, {"type": "node", "id": 6483799944, "lat": 40.4104972, "lon": -3.7071949}, {"type": "node", "id": 6483799945, "lat": 40.4105159, "lon": -3.7071005}, {"type": "node", "id": 6483799946, "lat": 40.4104643, "lon": -3.7070841}, {"type": "node", "id": 6499502376, "lat": 40.4130458, "lon": -3.7075899, "tags": {"entrance": "main"}}, {"type": "node", "id": 6499502381, "lat": 40.4130817, "lon": -3.7076926}, {"type": "node", "id": 6499502382, "lat": 40.4130327, "lon": -3.7077121}, {"type": "node", "id": 6499502384, "lat": 40.4128888, "lon": -3.7076198, "tags": {"entrance": "main"}}, {"type": "node", "id": 6499502885, "lat": 40.4128837, "lon": -3.7077544}, {"type": "node", "id": 6499502886, "lat": 40.4129582, "lon": -3.7077225}, {"type": "node", "id": 6499502887, "lat": 40.4130591, "lon": -3.7075874}, {"type": "node", "id": 6499502888, "lat": 40.4129278, "lon": -3.7076124}, {"type": "node", "id": 6499502889, "lat": 40.4130066, "lon": -3.7075974}, {"type": "node", "id": 6499502915, "lat": 40.4126876, "lon": -3.7077469}, {"type": "node", "id": 6499502916, "lat": 40.4126687, "lon": -3.7076635}, {"type": "node", "id": 6510761150, "lat": 40.413144, "lon": -3.7073425, "tags": {"addr:city": "Madrid", "addr:housenumber": "35", "addr:postcode": "28005", "addr:street": "Calle de Toledo", "name": "El Botijo1754", "opening_hours": "Mo-Fr 09:30-14:00,17:00-20:30; Sa 09:30-14:00", "phone": "+34 91 365 18 38", "shop": "perfumery", "start_date": "1754", "website": "https://elbotijo1754.es/"}}, {"type": "node", "id": 6510792117, "lat": 40.4133376, "lon": -3.7076123, "tags": {"name": "Oyag", "shop": "jewelry"}}, {"type": "node", "id": 6685262123, "lat": 40.411326, "lon": -3.6989509, "tags": {"name": "Peluquer\u00eda \u00a1\u00a1\u00a1jo qu\u00e9 corte!!!", "shop": "hairdresser"}}, {"type": "node", "id": 6685262124, "lat": 40.4114132, "lon": -3.6990503, "tags": {"name": "Perfumer\u00eda Del Barrio", "shop": "cosmetics"}}, {"type": "node", "id": 8343337399, "lat": 40.4117195, "lon": -3.7061133, "tags": {"name": "Joyas del mundo", "shop": "jewelry"}}, {"type": "node", "id": 8343337401, "lat": 40.4115808, "lon": -3.7066751, "tags": {"name": "Home Ideal", "shop": "variety_store"}}, {"type": "node", "id": 8917768867, "lat": 40.4083953, "lon": -3.7075655, "tags": {"name": "Mercadillo de Antig\u00fcedades", "shop": "variety_store", "wheelchair": "no", "wheelchair:description": "Entrada inaccesible. Hay escaleras"}}, {"type": "node", "id": 8928562971, "lat": 40.4091776, "lon": -3.7038071, "tags": {"addr:city": "Madrid", "addr:country": "ES", "addr:housenumber": "54", "addr:postcode": "28012", "addr:street": "Mes\u00f3n de Paredes", "name": "Pantera", "shop": "clothes"}}, {"type": "node", "id": 9023290417, "lat": 40.4117309, "lon": -3.7073636, "tags": {"male": "yes", "name": "Carlos Conde", "shop": "hairdresser"}}, {"type": "node", "id": 9023290418, "lat": 40.4118874, "lon": -3.7072326, "tags": {"clothes:repair": "yes", "name": "Jing Jong", "shop": "clothes"}}, {"type": "node", "id": 9023290419, "lat": 40.4117716, "lon": -3.7073616, "tags": {"level": "0", "name": "El div\u00e1n de Coc\u00f3", "shop": "fashion_accessories"}}, {"type": "node", "id": 9023290421, "lat": 40.4116965, "lon": -3.7073398, "tags": {"level": "0", "name": "Dickies Madrid Store", "shop": "clothes"}}, {"type": "node", "id": 9023290422, "lat": 40.4120027, "lon": -3.7072596, "tags": {"female": "yes", "male": "yes", "name": "Bazaar", "opening_hours": "Mo-Su 10:00-21:00; PH unknown", "shop": "hairdresser", "unisex": "yes"}}, {"type": "node", "id": 9087801617, "lat": 40.4115862, "lon": -3.6978674, "tags": {"addr:city": "Madrid", "addr:country": "ES", "addr:housenumber": "68", "addr:postcode": "28012", "addr:street": "Calle de Atocha", "branch": "Vintage", "brand": "Humana", "brand:wikidata": "Q1636581", "brand:wikipedia": "de:Humana People to People", "name": "Humana", "opening_hours": "Mo-Sa 10:00-21:00; Su 12:00-21:00", "phone": "+34 915 30 78 24", "shop": "charity", "website": "http://humana-spain.org"}}, {"type": "node", "id": 9338894211, "lat": 40.4124609, "lon": -3.7007303, "tags": {"name": "Manuel Fern\u00e1ndez", "shop": "tailor"}}, {"type": "node", "id": 9516207417, "lat": 40.4081443, "lon": -3.6981845, "tags": {"addr:city": "Madrid", "addr:country": "ES", "addr:housenumber": "23", "addr:postcode": "28012", "addr:street": "Calle de Argumosa", "name": "Angata", "shop": "clothes"}}, {"type": "node", "id": 9758542517, "lat": 40.407555, "lon": -3.6994834, "tags": {"name": "Talka Tattoo", "opening_hours": "Tu-Fr 11:00-14:00,17:00-21:00; Sa 11:00-21:00", "phone": "+34 699 78 53 76", "shop": "tattoo", "survey:date": "2022-05-21", "website": "https://facebook.com/txema.belasko"}}, {"type": "node", "id": 9905746017, "lat": 40.4079361, "lon": -3.6969202, "tags": {"name": "Tiendas Al Barrio", "shop": "cosmetics", "survey:date": "2022-07-23"}}, {"type": "node", "id": 9905746019, "lat": 40.4078861, "lon": -3.7021709, "tags": {"name": "Calzados Vinig\u00f3n", "shop": "shoes", "survey:date": "2022-07-23"}}, {"type": "node", "id": 9905746318, "lat": 40.4084888, "lon": -3.7002893, "tags": {"name": "Kling", "shop": "clothes", "survey:date": "2022-07-23"}}, {"type": "node", "id": 9905748117, "lat": 40.4083881, "lon": -3.7012766, "tags": {"name": "Hiper Euro 100", "shop": "variety_store", "survey:date": "2022-07-23"}}, {"type": "way", "id": 677174936, "nodes": [3260817274, 3260817278, 3260817272, 3260817259, 3260817255, 6340751315, 3260817274], "tags": {"name": "Bocetto", "shop": "clothes"}}, {"type": "way", "id": 680528649, "nodes": [6372020612, 3801996287, 3801996286, 6372020603, 6372020612], "tags": {"level": "0", "name": "Jia Hua SL", "shop": "jewelry"}}, {"type": "way", "id": 680528657, "nodes": [6372020614, 6372020616, 3802765017, 6372020615, 6372020614], "tags": {"level": "0", "name": "Crystal Paris", "shop": "jewelry"}}, {"type": "way", "id": 680528667, "nodes": [6372020633, 6372020632, 3801348375, 3801348376, 6372020633], "tags": {"level": "0", "name": "Moda Y Complementos Kashimir S.L.", "shop": "clothes"}}, {"type": "way", "id": 680528671, "nodes": [3801349161, 6372020639, 6372020638, 3801349168, 3801349161], "tags": {"level": "0", "name": "Ana Bella", "shop": "jewelry"}}, {"type": "way", "id": 680528677, "nodes": [6372020658, 6372020672, 6372020673, 2734061928, 2734061924, 2734061922, 2734061920, 6372020658], "tags": {"name": "Italy Fulars", "shop": "clothes"}}, {"type": "way", "id": 680528678, "nodes": [6372020666, 6372020663, 2734061925, 6372020667, 2734061927, 2734061922, 2734061920, 6372020666], "tags": {"level": "0", "name": "Ada Gatti", "shop": "clothes"}}, {"type": "way", "id": 680528680, "nodes": [6372020666, 6372020665, 6372020664, 2734061933, 2734061931, 6372020663, 6372020666], "tags": {"level": "0", "name": "Aqua Bijoux", "shop": "jewelry"}}, {"type": "way", "id": 686207594, "nodes": [6431838835, 6431838834, 3794200515, 3794200508, 3794200509, 6431838835], "tags": {"description": "\"Artesania bisuteria Hindu\"", "name": "Namaste", "shop": "jewelry"}}, {"type": "way", "id": 686207598, "nodes": [6431838840, 6431838839, 3794200501, 3794200510, 3794200502, 6431838840], "tags": {"level": "0", "name": "Elena Bisuteria", "shop": "jewelry"}}, {"type": "way", "id": 686207599, "nodes": [6431838842, 6431838841, 3794200505, 3794200504, 6431838846, 6431838845, 6431838842], "tags": {"level": "0", "name": "El Ferrocarril", "shop": "shoes"}}, {"type": "way", "id": 686207602, "nodes": [6431838848, 6431838847, 3794186296, 3794201609, 3794200503, 3794201610, 6431838848], "tags": {"level": "0", "shop": "beauty"}}, {"type": "way", "id": 686207614, "nodes": [6431838215, 6431838214, 6431838213, 3791776558, 3791776562, 6431838215], "tags": {"addr:city": "Madrid", "addr:housenumber": "36", "addr:postcode": "28012", "addr:street": "Calle de la Magdalena", "name": "Pelucas Cabello R.", "opening_hours": "Mo-Fr 10:00-14:00,16:30-20:00; Sa 10:00-14:00", "phone": "+34913692423", "shop": "hairdresser", "website": "https://cabellor.com"}}, {"type": "way", "id": 686273874, "nodes": [6432436945, 6432436944, 6432436943, 2955144571, 6432436945], "tags": {"level": "0", "name": "H.H.G.", "shop": "clothes"}}, {"type": "way", "id": 686362055, "nodes": [6433320423, 6433320422, 3803512872, 3250280740, 3250280741, 3250280723, 6433320423], "tags": {"level": "0", "name": "El VIII Bisuteria", "shop": "jewelry"}}, {"type": "way", "id": 686362059, "nodes": [6433320430, 6433320429, 3250280727, 3250280730, 3250280729, 3250280731, 3250280732, 3250280721, 6433320430], "tags": {"name": "Zapatos Ayll\u00f3n", "shop": "shoes"}}, {"type": "way", "id": 686362061, "nodes": [6433320436, 6433320435, 3798795049, 3798795048, 6433320436], "tags": {"level": "0", "name": "Yu.Yu", "shop": "clothes"}}, {"type": "way", "id": 686362071, "nodes": [6433320463, 6433320462, 2955144553, 2955144554, 6433320463], "tags": {"bag": "yes", "name": "Iris", "shop": "shoes", "survey:date": "2022-07-23"}}, {"type": "way", "id": 686587045, "nodes": [6435480480, 6435480479, 6435480478, 6435480477, 6435480480], "tags": {"level": "0", "name": "Las Unas Hermanas", "shop": "beauty"}}, {"type": "way", "id": 690876619, "nodes": [6482230856, 1327625384, 6482230855, 1191054476, 6482230856], "tags": {"addr:country": "ES", "addr:housenumber": "65", "addr:street": "Calle de Toledo", "level": "0", "name": "Peluquer\u00eda Unisex", "shop": "hairdresser", "unisex": "yes"}}, {"type": "way", "id": 691025857, "nodes": [6483734478, 6483734477, 3250253222, 3250253223, 3250253224, 3250253226, 6483734476, 3250253231, 3250253230, 3250253233, 3250253232, 1326817086, 1326816952, 6483734475, 6483734478], "tags": {"healthcare": "cosmetic_surgery", "level": "0", "name": "Sensa Zen", "phone": "+34 914 384571;+34 626 018131", "shop": "beauty", "website": "http://www.sensazen.es"}}, {"type": "way", "id": 691025860, "nodes": [6483734488, 6483734486, 1326816934, 1326817011, 1326817099, 1326817028, 1326816997, 6483734479, 6483734488], "tags": {"level": "0", "name": "Relojes Guzman", "shop": "jewelry"}}, {"type": "way", "id": 691032704, "nodes": [6483799925, 3835517337, 6483799923, 6483799922, 6483799924, 6483799925], "tags": {"level": "0", "name": "El Sastrecillo", "shop": "clothes"}}, {"type": "way", "id": 691032705, "nodes": [6483799925, 6483799924, 3250253280, 3250253279, 3250253276, 3250253275, 1329909235, 1329909010, 3250253272, 6483799927, 6483799925], "tags": {"level": "0", "name": "Floritos", "shop": "clothes"}}, {"type": "way", "id": 691032709, "nodes": [6483799942, 6483799941, 1329909032, 3250253246, 3250253247, 1329909173, 3250253248, 3835517309, 6483799942], "tags": {"name": "Martina Trashi Sho", "shop": "beauty"}}, {"type": "way", "id": 691032710, "nodes": [3235940709, 6483799946, 6483799945, 6483799944, 6483799943, 3235940709], "tags": {"addr:city": "Madrid", "addr:housenumber": "6", "addr:postcode": "28005", "addr:street": "Plaza de Cascorro", "name": "Marihuana Bronca Total", "shop": "clothes", "website": "https://www.marihuana-broncatotal.com/", "wheelchair": "no", "wheelchair:description": "Escalones"}}, {"type": "way", "id": 692395495, "nodes": [6499502889, 6499502382, 6499502381, 6499502887, 6499502376, 6499502889], "tags": {"level": "0", "name": "La Ventana Natural Market", "shop": "herbalist"}}, {"type": "way", "id": 692395497, "nodes": [3614543608, 6499502384, 6499502888, 6499502886, 6499502885, 3614543602, 3614543608], "tags": {"addr:city": "Madrid", "addr:housenumber": "34", "addr:street": "Calle de Toledo", "level": "0", "name": "Mulaya", "shop": "clothes"}}, {"type": "way", "id": 692395499, "nodes": [6499502916, 6499502915, 3306785593, 3306785590, 3306785585, 6499502916], "tags": {"addr:city": "Madrid", "addr:housenumber": "38", "addr:street": "Calle de Toledo", "name": "Calzados Carballo", "shop": "shoes"}}]}