{"version": 0.6, "generator": "Overpass API 0.7.58.5 b0c4acbb", "osm3s": {"timestamp_osm_base": "2022-09-06T15:42:46Z", "copyright": "The data included in this document is from www.openstreetmap.org. The data is made available under ODbL."}, "elements": [{"type": "node", "id": 26671735, "lat": 51.5071604, "lon": -0.1302097, "tags": {"amenity": "parking", "created_by": "Potlatch 0.5a"}}, {"type": "node", "id": 26846355, "lat": 51.512357, "lon": -0.1295014, "tags": {"access": "yes", "amenity": "parking", "brand": "Q-Park", "brand:wikidata": "Q1127798", "brand:wikipedia": "en:Q-Park", "fee": "yes", "layer": "-1", "name": "QPark Chinatown", "opening_hours": "24/7", "operator": "Q-Park", "operator:wikidata": "Q1127798", "operator:wikipedia": "en:Q-Park", "parking": "underground"}}, {"type": "node", "id": 135791490, "lat": 51.5215218, "lon": -0.140931, "tags": {"access": "yes", "amenity": "parking", "layer": "-1", "level": "-1", "name": "Clipstone Street Parking", "parking": "underground"}}, {"type": "node", "id": 281454996, "lat": 51.5161397, "lon": -0.1331197, "tags": {"amenity": "bicycle_parking", "capacity": "6"}}, {"type": "node", "id": 333725790, "lat": 51.5222832, "lon": -0.1392224}, {"type": "node", "id": 383964425, "lat": 51.5157395, "lon": -0.139327, "tags": {"amenity": "bicycle_parking", "bicycle_parking": "stands", "capacity": "12", "covered": "no"}}, {"type": "node", "id": 385491687, "lat": 51.5159856, "lon": -0.1348555, "tags": {"amenity": "bicycle_parking", "bicycle_parking": "stands", "capacity": "8", "check_date": "2022-08-30", "covered": "no"}}, {"type": "node", "id": 385549573, "lat": 51.5166209, "lon": -0.1350032, "tags": {"amenity": "motorcycle_parking", "covered": "no"}}, {"type": "node", "id": 447872312, "lat": 51.51706, "lon": -0.1305018, "tags": {"amenity": "bicycle_parking", "bicycle_parking": "stands", "capacity": "10", "covered": "no"}}, {"type": "node", "id": 447873335, "lat": 51.514853, "lon": -0.1318334, "tags": {"amenity": "bicycle_parking", "capacity": "14", "covered": "no"}}, {"type": "node", "id": 452487309, "lat": 51.5129662, "lon": -0.1277262, "tags": {"amenity": "bicycle_parking", "bicycle_parking": "stands", "capacity": "4", "covered": "no"}}, {"type": "node", "id": 452487326, "lat": 51.5126629, "lon": -0.1277253, "tags": {"amenity": "bicycle_parking", "capacity": "8"}}, {"type": "node", "id": 452488845, "lat": 51.5101124, "lon": -0.1281787, "tags": {"amenity": "bicycle_parking", "capacity": "6"}}, {"type": "node", "id": 452489464, "lat": 51.5134062, "lon": -0.1295319, "tags": {"amenity": "bicycle_parking", "bicycle_parking": "stands", "capacity": "8", "covered": "no"}}, {"type": "node", "id": 456363906, "lat": 51.515782, "lon": -0.1258788, "tags": {"amenity": "bicycle_parking", "bicycle_parking": "stands", "capacity": "4", "covered": "no"}}, {"type": "node", "id": 456363907, "lat": 51.5156006, "lon": -0.1284848, "tags": {"amenity": "bicycle_parking", "capacity": "6"}}, {"type": "node", "id": 456363910, "lat": 51.5176387, "lon": -0.1314968, "tags": {"amenity": "bicycle_parking", "bicycle_parking": "stands", "capacity": "8", "covered": "no"}}, {"type": "node", "id": 456363911, "lat": 51.5178753, "lon": -0.1316433, "tags": {"amenity": "bicycle_parking", "bicycle_parking": "stands", "capacity": "8", "covered": "no"}}, {"type": "node", "id": 456363913, "lat": 51.517634, "lon": -0.1328085, "tags": {"amenity": "bicycle_parking", "capacity": "4"}}, {"type": "node", "id": 456363914, "lat": 51.5175551, "lon": -0.1331094, "tags": {"amenity": "bicycle_parking", "capacity": "2"}}, {"type": "node", "id": 456363915, "lat": 51.5174785, "lon": -0.1330337, "tags": {"amenity": "bicycle_parking", "bicycle_parking": "stands", "capacity": "6", "covered": "no"}}, {"type": "node", "id": 456363917, "lat": 51.5163695, "lon": -0.1330208, "tags": {"amenity": "bicycle_parking", "capacity": "4"}}, {"type": "node", "id": 466926226, "lat": 51.5114962, "lon": -0.1366451, "tags": {"amenity": "bicycle_parking", "bicycle_parking": "stands", "capacity": "10", "covered": "no"}}, {"type": "node", "id": 493149353, "lat": 51.5223311, "lon": -0.1392733}, {"type": "node", "id": 497184054, "lat": 51.5223506, "lon": -0.1392618}, {"type": "node", "id": 497185851, "lat": 51.5218656, "lon": -0.1351049}, {"type": "node", "id": 553306708, "lat": 51.5184342, "lon": -0.1375809, "tags": {"amenity": "bicycle_parking", "bicycle_parking": "stands", "capacity": "8", "covered": "no"}}, {"type": "node", "id": 553312135, "lat": 51.5196756, "lon": -0.1347494, "tags": {"amenity": "bicycle_parking", "bicycle_parking": "stands", "capacity": "12", "covered": "no"}}, {"type": "node", "id": 553312153, "lat": 51.519833, "lon": -0.134303, "tags": {"amenity": "bicycle_parking"}}, {"type": "node", "id": 553312238, "lat": 51.520454, "lon": -0.133317, "tags": {"amenity": "bicycle_parking", "bicycle_parking": "stands", "capacity": "12", "covered": "no"}}, {"type": "node", "id": 566202723, "lat": 51.5072379, "lon": -0.126943, "tags": {"amenity": "bicycle_parking", "bicycle_parking": "stands", "capacity": "14", "covered": "no"}}, {"type": "node", "id": 566202726, "lat": 51.5089799, "lon": -0.1297213, "tags": {"amenity": "bicycle_parking", "bicycle_parking": "stands", "capacity": "18", "covered": "no", "cyclestreets_id": "12237"}}, {"type": "node", "id": 566202731, "lat": 51.5093719, "lon": -0.1298319, "tags": {"amenity": "bicycle_parking", "bicycle_parking": "stands", "capacity": "32", "covered": "no", "wikimedia_commons": "File:Orange_Street_bicycle_park.jpg"}}, {"type": "node", "id": 566202736, "lat": 51.5088138, "lon": -0.1305394, "tags": {"amenity": "bicycle_parking", "capacity": "8"}}, {"type": "node", "id": 591983293, "lat": 51.517904, "lon": -0.1420908, "tags": {"amenity": "parking", "parking": "underground"}}, {"type": "node", "id": 612420269, "lat": 51.5122707, "lon": -0.1379172, "tags": {"camera:type": "dome", "man_made": "surveillance", "surveillance": "outdoor", "surveillance:type": "camera"}}, {"type": "node", "id": 623372924, "lat": 51.510987, "lon": -0.139561, "tags": {"amenity": "bicycle_parking", "description": "Cap 8"}}, {"type": "node", "id": 639175296, "lat": 51.5128692, "lon": -0.131047, "tags": {"amenity": "bicycle_parking", "capacity": "6"}}, {"type": "node", "id": 670636500, "lat": 51.5133638, "lon": -0.1364176, "tags": {"amenity": "bicycle_parking", "capacity": "10"}}, {"type": "node", "id": 670639204, "lat": 51.5137643, "lon": -0.1354633, "tags": {"amenity": "bicycle_parking", "capacity": "14", "wikimedia_commons": "File:Broadwick_Street,_Soho_-_Cowling_and_Wilcox,_boris_bikes.jpg"}}, {"type": "node", "id": 675791842, "lat": 51.5077334, "lon": -0.1304492, "tags": {"amenity": "bicycle_parking", "bicycle_parking": "stands", "capacity": "16", "covered": "no"}}, {"type": "node", "id": 691084113, "lat": 51.5161744, "lon": -0.1407385, "tags": {"amenity": "motorcycle_parking", "covered": "no"}}, {"type": "node", "id": 691114539, "lat": 51.5181077, "lon": -0.1417801, "tags": {"amenity": "bicycle_parking", "bicycle_parking": "stands", "capacity": "6", "covered": "no"}}, {"type": "node", "id": 691114549, "lat": 51.5181424, "lon": -0.1419154, "tags": {"amenity": "bicycle_parking", "bicycle_parking": "stands", "capacity": "4", "covered": "no"}}, {"type": "node", "id": 691114556, "lat": 51.5168767, "lon": -0.1396433, "tags": {"amenity": "bicycle_parking", "bicycle_parking": "stands", "capacity": "12", "check_date": "2022-05-24", "covered": "no"}}, {"type": "node", "id": 691579917, "lat": 51.5091598, "lon": -0.1271314, "tags": {"amenity": "bicycle_parking", "bicycle_parking": "stands", "capacity": "12", "covered": "no"}}, {"type": "node", "id": 701608599, "lat": 51.5127464, "lon": -0.1364311, "tags": {"amenity": "bicycle_parking", "capacity": "4"}}, {"type": "node", "id": 771982846, "lat": 51.5147285, "lon": -0.1373303, "tags": {"amenity": "bicycle_parking", "bicycle_parking": "stands", "capacity": "14", "covered": "no"}}, {"type": "node", "id": 771982958, "lat": 51.5142195, "lon": -0.1361737, "tags": {"amenity": "bicycle_parking", "bicycle_parking": "stands", "capacity": "8"}}, {"type": "node", "id": 799284545, "lat": 51.5145359, "lon": -0.1383945, "tags": {"amenity": "bicycle_parking", "bicycle_parking": "stands", "capacity": "10", "covered": "no"}}, {"type": "node", "id": 799284823, "lat": 51.514629, "lon": -0.1380087, "tags": {"amenity": "bicycle_parking", "bicycle_parking": "stands", "capacity": "1", "mapillary": "oQJrf_jCo-BSX__q0UQGvg", "survey:date": "2020-03-10"}}, {"type": "node", "id": 874743732, "lat": 51.5254017, "lon": -0.1378843, "tags": {"amenity": "bicycle_parking", "bicycle_parking": "stands", "capacity": "14", "covered": "no"}}, {"type": "node", "id": 878029961, "lat": 51.5162218, "lon": -0.1405989, "tags": {"amenity": "bicycle_parking", "bicycle_parking": "stands", "capacity": "12", "covered": "no"}}, {"type": "node", "id": 878030023, "lat": 51.522811, "lon": -0.1459879, "tags": {"access": "yes", "amenity": "bicycle_parking", "bicycle_parking": "stands", "capacity": "4", "covered": "no", "fee": "no"}}, {"type": "node", "id": 925761472, "lat": 51.5140414, "lon": -0.1341043, "tags": {"amenity": "bicycle_parking", "bicycle_parking": "stands", "capacity": "10", "covered": "no"}}, {"type": "node", "id": 970857041, "lat": 51.5172542, "lon": -0.1292992, "tags": {"amenity": "bicycle_parking", "bicycle_parking": "stands", "capacity": "18", "covered": "no"}}, {"type": "node", "id": 970857094, "lat": 51.5171712, "lon": -0.1305919, "tags": {"amenity": "bicycle_parking", "bicycle_parking": "stands", "capacity": "10", "covered": "no"}}, {"type": "node", "id": 1019120190, "lat": 51.5151492, "lon": -0.1411728, "tags": {"amenity": "bicycle_parking", "bicycle_parking": "stands", "capacity": "8"}}, {"type": "node", "id": 1043523748, "lat": 51.5247424, "lon": -0.134556, "tags": {"amenity": "bicycle_parking", "bicycle_parking": "stands", "capacity": "22", "covered": "no"}}, {"type": "node", "id": 1097748668, "lat": 51.5165486, "lon": -0.1303097, "tags": {"amenity": "bicycle_parking", "bicycle_parking": "stands", "capacity": "8", "covered": "no"}}, {"type": "node", "id": 1097748678, "lat": 51.516477, "lon": -0.1301435, "tags": {"amenity": "bicycle_parking", "capacity": "4"}}, {"type": "node", "id": 1110739774, "lat": 51.5156492, "lon": -0.1322987, "tags": {"amenity": "bicycle_parking", "capacity": "8", "covered": "no"}}, {"type": "node", "id": 1113125337, "lat": 51.5152127, "lon": -0.1268131, "tags": {"amenity": "bicycle_parking", "capacity": "10", "covered": "no"}}, {"type": "node", "id": 1113125339, "lat": 51.5150527, "lon": -0.1267585, "tags": {"amenity": "bicycle_parking", "capacity": "6", "covered": "no"}}, {"type": "node", "id": 1116224902, "lat": 51.5205204, "lon": -0.1301903, "tags": {"amenity": "bicycle_parking", "bicycle_parking": "stands", "capacity": "4", "covered": "no"}}, {"type": "node", "id": 1116224989, "lat": 51.5215551, "lon": -0.1400174, "tags": {"amenity": "bicycle_parking", "bicycle_parking": "stands", "capacity": "12", "covered": "no"}}, {"type": "node", "id": 1116225010, "lat": 51.5230905, "lon": -0.1361937, "tags": {"amenity": "bicycle_parking", "bicycle_parking": "stands", "capacity": "30", "covered": "yes"}}, {"type": "node", "id": 1116225037, "lat": 51.5208749, "lon": -0.1455455, "tags": {"amenity": "bicycle_parking", "bicycle_parking": "stands", "capacity": "4", "covered": "no", "fee": "no"}}, {"type": "node", "id": 1116296947, "lat": 51.5219829, "lon": -0.1357862, "tags": {"amenity": "bicycle_parking", "bicycle_parking": "stands", "capacity": "10", "covered": "no"}}, {"type": "node", "id": 1124744566, "lat": 51.5092767, "lon": -0.1271622, "tags": {"amenity": "bicycle_parking", "bicycle_parking": "stands", "capacity": "4", "covered": "no"}}, {"type": "node", "id": 1124920924, "lat": 51.5159382, "lon": -0.1368041, "tags": {"amenity": "bicycle_parking", "bicycle_parking": "stands", "capacity": "12", "covered": "no"}}, {"type": "node", "id": 1138970628, "lat": 51.5220886, "lon": -0.1349924}, {"type": "node", "id": 1138970634, "lat": 51.5221738, "lon": -0.1343105}, {"type": "node", "id": 1154267418, "lat": 51.5180655, "lon": -0.1427716}, {"type": "node", "id": 1154267420, "lat": 51.5180321, "lon": -0.1427496}, {"type": "node", "id": 1154267422, "lat": 51.5178851, "lon": -0.1427313}, {"type": "node", "id": 1154267423, "lat": 51.5178775, "lon": -0.1427887}, {"type": "node", "id": 1154267430, "lat": 51.5180695, "lon": -0.1427157}, {"type": "node", "id": 1154267431, "lat": 51.5178892, "lon": -0.1426269}, {"type": "node", "id": 1154267432, "lat": 51.5179338, "lon": -0.1428044}, {"type": "node", "id": 1154267433, "lat": 51.5179899, "lon": -0.1428358}, {"type": "node", "id": 1189287325, "lat": 51.5203196, "lon": -0.1338554, "tags": {"amenity": "bicycle_parking", "bicycle_parking": "stands", "capacity": "10", "covered": "no"}}, {"type": "node", "id": 1228112084, "lat": 51.5161588, "lon": -0.1396204, "tags": {"amenity": "bicycle_parking", "bicycle_parking": "stands", "capacity": "8", "covered": "no"}}, {"type": "node", "id": 1261891682, "lat": 51.5111684, "lon": -0.1271168, "tags": {"amenity": "motorcycle_parking"}}, {"type": "node", "id": 1265049999, "lat": 51.5161091, "lon": -0.1407616, "tags": {"amenity": "bicycle_parking", "bicycle_parking": "stands", "capacity": "12", "check_date": "2022-07-29", "covered": "no"}}, {"type": "node", "id": 1265087013, "lat": 51.5166092, "lon": -0.1418341, "tags": {"amenity": "bicycle_parking", "bicycle_parking": "stands", "capacity": "6", "covered": "no"}}, {"type": "node", "id": 1283006965, "lat": 51.5211331, "lon": -0.144035, "tags": {"amenity": "bicycle_parking", "bicycle_parking": "stands", "capacity": "4", "covered": "no"}}, {"type": "node", "id": 1298748606, "lat": 51.5073437, "lon": -0.1284211, "tags": {"amenity": "bicycle_parking", "bicycle_parking": "stands", "capacity": "33", "covered": "no"}}, {"type": "node", "id": 1302147373, "lat": 51.5224738, "lon": -0.1346813, "tags": {"amenity": "bicycle_parking", "capacity": "12"}}, {"type": "node", "id": 1324710032, "lat": 51.5131302, "lon": -0.1354447}, {"type": "node", "id": 1324710068, "lat": 51.5130179, "lon": -0.1353938}, {"type": "node", "id": 1324710086, "lat": 51.5132096, "lon": -0.1351932}, {"type": "node", "id": 1324710094, "lat": 51.5131058, "lon": -0.1351198}, {"type": "node", "id": 1324710104, "lat": 51.5130098, "lon": -0.1354205}, {"type": "node", "id": 1324710132, "lat": 51.5132143, "lon": -0.1351768}, {"type": "node", "id": 1324710182, "lat": 51.5131143, "lon": -0.1350928}, {"type": "node", "id": 1330687523, "lat": 51.5137049, "lon": -0.1355581, "tags": {"amenity": "bicycle_parking", "covered": "yes"}}, {"type": "node", "id": 1330788558, "lat": 51.5130627, "lon": -0.1354637, "tags": {"barrier": "swing_gate", "swing_gate:type": "single"}}, {"type": "node", "id": 1330788568, "lat": 51.5131439, "lon": -0.1351173, "tags": {"barrier": "swing_gate", "swing_gate:type": "single"}}, {"type": "node", "id": 1330788615, "lat": 51.5134517, "lon": -0.1358794, "tags": {"amenity": "motorcycle_parking", "covered": "no"}}, {"type": "node", "id": 1345283879, "lat": 51.5197, "lon": -0.1450564, "tags": {"amenity": "bicycle_parking", "bicycle_parking": "stands", "capacity": "4", "covered": "no"}}, {"type": "node", "id": 1346352922, "lat": 51.5214105, "lon": -0.1352509, "tags": {"amenity": "bicycle_parking", "bicycle_parking": "stands", "capacity": "10", "covered": "no"}}, {"type": "node", "id": 1346352923, "lat": 51.5214301, "lon": -0.1350578, "tags": {"amenity": "bicycle_parking", "bicycle_parking": "stands", "capacity": "6", "covered": "no"}}, {"type": "node", "id": 1412059936, "lat": 51.5129395, "lon": -0.1375304, "tags": {"amenity": "bicycle_parking", "bicycle_parking": "stands", "capacity": "16"}}, {"type": "node", "id": 1412069429, "lat": 51.5161345, "lon": -0.1402423, "tags": {"amenity": "bicycle_parking", "bicycle_parking": "stands", "capacity": "6", "covered": "no"}}, {"type": "node", "id": 1412069431, "lat": 51.5162485, "lon": -0.1403652, "tags": {"amenity": "bicycle_parking", "bicycle_parking": "stands", "capacity": "12", "check_date:capacity": "2021-08-10", "covered": "no"}}, {"type": "node", "id": 1412069433, "lat": 51.5167575, "lon": -0.1405093, "tags": {"amenity": "bicycle_parking", "bicycle_parking": "stands", "capacity": "4", "covered": "no"}}, {"type": "node", "id": 1413151227, "lat": 51.5183809, "lon": -0.1306342, "tags": {"amenity": "bicycle_parking", "bicycle_parking": "stands", "capacity": "22", "covered": "no"}}, {"type": "node", "id": 1413151228, "lat": 51.5187061, "lon": -0.1309733, "tags": {"amenity": "bicycle_parking", "bicycle_parking": "stands", "capacity": "20", "check_date:capacity": "2021-08-10", "covered": "no"}}, {"type": "node", "id": 1431889036, "lat": 51.5125648, "lon": -0.1347433, "tags": {"amenity": "motorcycle_parking"}}, {"type": "node", "id": 1456141483, "lat": 51.5159102, "lon": -0.1398664, "tags": {"amenity": "bicycle_parking", "bicycle_parking": "stands", "capacity": "8", "covered": "no"}}, {"type": "node", "id": 1519971693, "lat": 51.5226241, "lon": -0.1357329, "tags": {"amenity": "bicycle_parking", "bicycle_parking": "stands", "covered": "no"}}, {"type": "node", "id": 1604748152, "lat": 51.5177034, "lon": -0.1301166, "tags": {"amenity": "bicycle_parking", "bicycle_parking": "stands", "capacity": "8", "covered": "no"}}, {"type": "node", "id": 1637831080, "lat": 51.506437, "lon": -0.1321227}, {"type": "node", "id": 1637831090, "lat": 51.5064763, "lon": -0.1320834}, {"type": "node", "id": 1637831098, "lat": 51.5066336, "lon": -0.1318318}, {"type": "node", "id": 1637831100, "lat": 51.5066901, "lon": -0.1317905}, {"type": "node", "id": 1637831103, "lat": 51.5068209, "lon": -0.1324499}, {"type": "node", "id": 1637831106, "lat": 51.5068745, "lon": -0.1324284}, {"type": "node", "id": 1637831131, "lat": 51.5071121, "lon": -0.1322482}, {"type": "node", "id": 1637831132, "lat": 51.5071779, "lon": -0.1322131}, {"type": "node", "id": 1637831618, "lat": 51.5099276, "lon": -0.1311504, "tags": {"amenity": "motorcycle_parking", "capacity": "20", "covered": "no"}}, {"type": "node", "id": 1933869990, "lat": 51.5179794, "lon": -0.1417387, "tags": {"amenity": "bicycle_parking", "bicycle_parking": "stands", "capacity": "8", "covered": "no", "source": "photograph"}}, {"type": "node", "id": 1933870069, "lat": 51.5191012, "lon": -0.1423864, "tags": {"amenity": "bicycle_parking", "bicycle_parking": "stands", "capacity": "8", "covered": "no", "source": "photograph"}}, {"type": "node", "id": 1933870074, "lat": 51.5191159, "lon": -0.1425068, "tags": {"addr:city": "London", "addr:country": "GB", "amenity": "motorcycle_parking", "covered": "no", "fee": "yes", "parking": "surface", "source": "photograph"}}, {"type": "node", "id": 2013001017, "lat": 51.5196598, "lon": -0.1324631, "tags": {"amenity": "bicycle_parking", "bicycle_parking": "stands", "capacity": "18", "covered": "no"}}, {"type": "node", "id": 2013001020, "lat": 51.5202287, "lon": -0.1330711, "tags": {"amenity": "bicycle_parking", "bicycle_parking": "stands", "capacity": "20", "covered": "no"}}, {"type": "node", "id": 2043786615, "lat": 51.5150915, "lon": -0.1364547, "tags": {"amenity": "bicycle_parking", "bicycle_parking": "stands", "capacity": "48", "covered": "no"}}, {"type": "node", "id": 2043786620, "lat": 51.5148912, "lon": -0.1367343, "tags": {"amenity": "bicycle_parking", "bicycle_parking": "stands", "capacity": "8", "covered": "no", "mapillary": "_W1T1fAO-onpBjlngyLI1Q", "survey:date": "2019-12-03"}}, {"type": "node", "id": 2209146344, "lat": 51.5203518, "lon": -0.1458141, "tags": {"access": "yes", "amenity": "parking", "fee": "yes", "layer": "-1", "operator": "NCP", "operator:type": "private", "parking": "underground"}}, {"type": "node", "id": 2357532944, "lat": 51.5123457, "lon": -0.1380025}, {"type": "node", "id": 2491243779, "lat": 51.5156548, "lon": -0.1408469, "tags": {"amenity": "bicycle_parking", "bicycle_parking": "stands", "capacity": "6", "covered": "no"}}, {"type": "node", "id": 2491243785, "lat": 51.5156384, "lon": -0.140704, "tags": {"amenity": "bicycle_parking", "bicycle_parking": "stands", "capacity": "6", "covered": "no"}}, {"type": "node", "id": 2491243786, "lat": 51.5161879, "lon": -0.1408136, "tags": {"amenity": "bicycle_parking", "bicycle_parking": "stands", "capacity": "20", "covered": "no"}}, {"type": "node", "id": 2557051168, "lat": 51.5219894, "lon": -0.1352218}, {"type": "node", "id": 2706839205, "lat": 51.5227627, "lon": -0.1357622, "tags": {"amenity": "parking", "capacity": "0", "capacity:disabled": "3"}}, {"type": "node", "id": 2707718042, "lat": 51.5091338, "lon": -0.1345533}, {"type": "node", "id": 2707718043, "lat": 51.5089393, "lon": -0.1351287}, {"type": "node", "id": 2707718044, "lat": 51.5089327, "lon": -0.1351019}, {"type": "node", "id": 2707718045, "lat": 51.5091104, "lon": -0.1345521}, {"type": "node", "id": 2778362494, "lat": 51.5213296, "lon": -0.1434044, "tags": {"amenity": "bicycle_parking", "bicycle_parking": "stands", "capacity": "8", "covered": "no", "source": "survey"}}, {"type": "node", "id": 2778362496, "lat": 51.5214213, "lon": -0.1433802, "tags": {"amenity": "bicycle_parking", "bicycle_parking": "stands", "capacity": "6", "check_date:capacity": "2021-10-26", "covered": "no", "source": "survey"}}, {"type": "node", "id": 2784434275, "lat": 51.5122232, "lon": -0.1380253}, {"type": "node", "id": 2784434280, "lat": 51.5122973, "lon": -0.1381094}, {"type": "node", "id": 2784682640, "lat": 51.5130507, "lon": -0.1374412, "tags": {"amenity": "motorcycle_parking", "capacity": "20", "parking": "surface"}}, {"type": "node", "id": 2785269193, "lat": 51.513723, "lon": -0.1373364, "tags": {"amenity": "bicycle_parking", "bicycle_parking": "stands"}}, {"type": "node", "id": 2787909424, "lat": 51.5138696, "lon": -0.1346828, "tags": {"amenity": "motorcycle_parking", "parking": "surface"}}, {"type": "node", "id": 2822957640, "lat": 51.5129743, "lon": -0.1326516, "tags": {"amenity": "bicycle_parking", "bicycle_parking": "stands", "capacity": "12", "covered": "no"}}, {"type": "node", "id": 2833448438, "lat": 51.5148518, "lon": -0.1303149}, {"type": "node", "id": 2833448440, "lat": 51.5148564, "lon": -0.1302934}, {"type": "node", "id": 2833448451, "lat": 51.5149242, "lon": -0.1303527}, {"type": "node", "id": 2833448452, "lat": 51.5149288, "lon": -0.1303316}, {"type": "node", "id": 2835480070, "lat": 51.5137777, "lon": -0.1305183, "tags": {"amenity": "taxi", "name": "Soho Car Hire", "note": "Mini cab office, inside Londis shop", "phone": "+44 20 7434 2000", "taxi": "office"}}, {"type": "node", "id": 2877480494, "lat": 51.5142184, "lon": -0.1329484, "tags": {"amenity": "motorcycle_parking"}}, {"type": "node", "id": 2931935305, "lat": 51.5102663, "lon": -0.1325137, "tags": {"amenity": "taxi", "source": "photograph"}}, {"type": "node", "id": 2961589452, "lat": 51.5244496, "lon": -0.1355507}, {"type": "node", "id": 2961589453, "lat": 51.5246107, "lon": -0.135099}, {"type": "node", "id": 2961589454, "lat": 51.5246224, "lon": -0.1351149}, {"type": "node", "id": 2961589455, "lat": 51.524614, "lon": -0.135141}, {"type": "node", "id": 2961589456, "lat": 51.5246244, "lon": -0.1351169}, {"type": "node", "id": 2961589457, "lat": 51.5248991, "lon": -0.1354588}, {"type": "node", "id": 2961589458, "lat": 51.5249123, "lon": -0.1354305}, {"type": "node", "id": 2972228397, "lat": 51.5255322, "lon": -0.1387147, "tags": {"amenity": "bicycle_parking", "bicycle_parking": "stands", "capacity": "8", "covered": "no"}}, {"type": "node", "id": 2985100924, "lat": 51.5224566, "lon": -0.1362582, "tags": {"amenity": "bicycle_parking", "bicycle_parking": "stands", "capacity": "10", "covered": "no"}}, {"type": "node", "id": 3012088859, "lat": 51.5240717, "lon": -0.1404191, "tags": {"amenity": "motorcycle_parking", "capacity": "20", "covered": "no", "source": "survey"}}, {"type": "node", "id": 3112665789, "lat": 51.5226881, "lon": -0.1451046}, {"type": "node", "id": 3112665790, "lat": 51.5227052, "lon": -0.145005}, {"type": "node", "id": 3112665791, "lat": 51.5224892, "lon": -0.1449102}, {"type": "node", "id": 3361720814, "lat": 51.5248064, "lon": -0.1345316, "tags": {"amenity": "bicycle_parking", "bicycle_parking": "stands", "capacity": "32", "covered": "no"}}, {"type": "node", "id": 3516406605, "lat": 51.518765, "lon": -0.1442848, "tags": {"addr:city": "London", "addr:country": "GB", "amenity": "motorcycle_parking", "capacity": "20", "covered": "no", "fee": "yes", "parking": "surface"}}, {"type": "node", "id": 3520843480, "lat": 51.5200106, "lon": -0.1427169, "tags": {"amenity": "bicycle_parking", "bicycle_parking": "stands", "capacity": "6", "covered": "no"}}, {"type": "node", "id": 3521406623, "lat": 51.5189773, "lon": -0.1419937, "tags": {"addr:city": "London", "addr:country": "GB", "amenity": "motorcycle_parking", "capacity": "4", "covered": "no", "fee": "yes", "parking": "surface"}}, {"type": "node", "id": 3524025828, "lat": 51.5178956, "lon": -0.139, "tags": {"amenity": "motorcycle_parking", "capacity": "10", "covered": "no"}}, {"type": "node", "id": 3527305245, "lat": 51.519414, "lon": -0.1363767, "tags": {"amenity": "motorcycle_parking", "covered": "no", "parking": "surface"}}, {"type": "node", "id": 3531956760, "lat": 51.5202733, "lon": -0.136676, "tags": {"amenity": "bicycle_parking", "bicycle_parking": "stands", "capacity": "14", "covered": "no"}}, {"type": "node", "id": 3548899659, "lat": 51.5196516, "lon": -0.1343264, "tags": {"amenity": "motorcycle_parking", "capacity": "10", "covered": "no", "parking": "surface"}}, {"type": "node", "id": 3551974440, "lat": 51.5194538, "lon": -0.1353996, "tags": {"amenity": "bicycle_parking", "bicycle_parking": "stands", "capacity": "14", "covered": "no"}}, {"type": "node", "id": 3557090563, "lat": 51.5136681, "lon": -0.1276934, "tags": {"amenity": "motorcycle_parking", "parking": "surface"}}, {"type": "node", "id": 3557237023, "lat": 51.5130026, "lon": -0.1312776}, {"type": "node", "id": 3557237024, "lat": 51.5130147, "lon": -0.1312864}, {"type": "node", "id": 3557237025, "lat": 51.5130303, "lon": -0.1311931}, {"type": "node", "id": 3557237027, "lat": 51.5130436, "lon": -0.1313076}, {"type": "node", "id": 3557237029, "lat": 51.5130725, "lon": -0.1312206}, {"type": "node", "id": 3559650801, "lat": 51.5078555, "lon": -0.1332925, "tags": {"amenity": "bicycle_parking", "bicycle_parking": "rack", "capacity": "2", "covered": "no"}}, {"type": "node", "id": 3706127308, "lat": 51.5116436, "lon": -0.1331194, "tags": {"amenity": "bicycle_parking", "bicycle_parking": "stands", "capacity": "6", "covered": "no"}}, {"type": "node", "id": 3706128332, "lat": 51.513088, "lon": -0.1335257, "tags": {"amenity": "bicycle_parking", "bicycle_parking": "rack", "capacity": "18"}}, {"type": "node", "id": 3706130678, "lat": 51.5141351, "lon": -0.131794, "tags": {"amenity": "bicycle_parking", "bicycle_parking": "bollard", "capacity": "2"}}, {"type": "node", "id": 3706136701, "lat": 51.5136094, "lon": -0.1280437, "tags": {"amenity": "bicycle_parking", "bicycle_parking": "rack", "capacity": "10"}}, {"type": "node", "id": 3804311309, "lat": 51.516631, "lon": -0.126161, "tags": {"amenity": "bicycle_parking", "bicycle_parking": "rack", "capacity": "6"}}, {"type": "node", "id": 3804311310, "lat": 51.5167212, "lon": -0.126393, "tags": {"amenity": "bicycle_parking", "bicycle_parking": "anchors", "capacity": "8"}}, {"type": "node", "id": 3804311311, "lat": 51.5164241, "lon": -0.1265204, "tags": {"amenity": "bicycle_parking", "bicycle_parking": "rack", "capacity": "4", "covered": "no"}}, {"type": "node", "id": 3831759358, "lat": 51.5197637, "lon": -0.1319078, "tags": {"amenity": "bicycle_parking", "bicycle_parking": "rack", "capacity": "6", "covered": "no"}}, {"type": "node", "id": 3860641085, "lat": 51.5096858, "lon": -0.1268247, "tags": {"amenity": "motorcycle_parking", "capacity": "10", "covered": "no"}}, {"type": "node", "id": 3860641466, "lat": 51.5100464, "lon": -0.1269695, "tags": {"amenity": "motorcycle_parking", "capacity": "10", "covered": "no"}}, {"type": "node", "id": 3876173724, "lat": 51.5108414, "lon": -0.1377686, "tags": {"amenity": "motorcycle_parking"}}, {"type": "node", "id": 3876177714, "lat": 51.5110865, "lon": -0.1380665, "tags": {"amenity": "motorcycle_parking"}}, {"type": "node", "id": 3876296557, "lat": 51.5108585, "lon": -0.136693, "tags": {"amenity": "motorcycle_parking"}}, {"type": "node", "id": 3906494503, "lat": 51.5224983, "lon": -0.1460661, "tags": {"addr:city": "London", "addr:country": "GB", "amenity": "motorcycle_parking", "capacity": "8", "covered": "no", "fee": "yes"}}, {"type": "node", "id": 3906494504, "lat": 51.5225083, "lon": -0.1459372, "tags": {"addr:city": "London", "addr:country": "GB", "amenity": "motorcycle_parking", "covered": "no", "fee": "yes"}}, {"type": "node", "id": 3906500806, "lat": 51.5222605, "lon": -0.1447034, "tags": {"addr:city": "London", "addr:country": "GB", "amenity": "motorcycle_parking", "covered": "no", "fee": "yes"}}, {"type": "node", "id": 3906862986, "lat": 51.5213455, "lon": -0.1439389, "tags": {"addr:city": "London", "addr:country": "GB", "amenity": "motorcycle_parking", "covered": "no", "fee": "yes"}}, {"type": "node", "id": 3906862987, "lat": 51.5218001, "lon": -0.1435574, "tags": {"addr:city": "London", "addr:country": "GB", "amenity": "motorcycle_parking", "capacity": "8", "covered": "no", "fee": "yes"}}, {"type": "node", "id": 3906990553, "lat": 51.5187715, "lon": -0.1427456, "tags": {"addr:city": "London", "addr:country": "GB", "amenity": "motorcycle_parking", "covered": "no", "fee": "yes"}}, {"type": "node", "id": 3906990554, "lat": 51.5188343, "lon": -0.142735, "tags": {"addr:city": "London", "addr:country": "GB", "amenity": "motorcycle_parking", "covered": "no", "fee": "yes"}}, {"type": "node", "id": 3906990555, "lat": 51.5189656, "lon": -0.1445138, "tags": {"addr:city": "London", "addr:country": "GB", "amenity": "motorcycle_parking", "capacity": "4", "covered": "no", "fee": "yes"}}, {"type": "node", "id": 3906990556, "lat": 51.519117, "lon": -0.1428697, "tags": {"addr:city": "London", "addr:country": "GB", "amenity": "motorcycle_parking", "covered": "no", "fee": "yes"}}, {"type": "node", "id": 3906992857, "lat": 51.519535, "lon": -0.1447807, "tags": {"addr:city": "London", "addr:country": "GB", "amenity": "motorcycle_parking", "capacity": "8", "covered": "no", "fee": "yes"}}, {"type": "node", "id": 3978873477, "lat": 51.5114379, "lon": -0.1282211, "tags": {"amenity": "bicycle_parking", "bicycle_parking": "rack", "capacity": "6", "covered": "no"}}, {"type": "node", "id": 4099967959, "lat": 51.5064429, "lon": -0.1321767, "tags": {"amenity": "bicycle_parking", "bicycle_parking": "rack"}}, {"type": "node", "id": 4187508665, "lat": 51.5079359, "lon": -0.1333798, "tags": {"amenity": "bicycle_parking", "bicycle_parking": "rack", "capacity": "2", "covered": "no"}}, {"type": "node", "id": 4190435990, "lat": 51.509623, "lon": -0.1353094, "tags": {"amenity": "bicycle_parking", "capacity": "1"}}, {"type": "node", "id": 4237160391, "lat": 51.5184404, "lon": -0.1285659, "tags": {"amenity": "motorcycle_parking", "covered": "no", "note": "On street, solo motorcycles only"}}, {"type": "node", "id": 4239701213, "lat": 51.5174345, "lon": -0.1298691, "tags": {"amenity": "parking_entrance", "fee": "yes", "name": "Tottenham Court Road Car Park", "operator": "Quick Parking", "parking": "underground"}}, {"type": "node", "id": 4239701252, "lat": 51.5174794, "lon": -0.1298477, "tags": {"amenity": "bicycle_parking", "bicycle_parking": "stands", "capacity": "4"}}, {"type": "node", "id": 4239701265, "lat": 51.517576, "lon": -0.1299797, "tags": {"amenity": "parking_entrance"}}, {"type": "node", "id": 4240455525, "lat": 51.5175204, "lon": -0.1289793, "tags": {"amenity": "taxi"}}, {"type": "node", "id": 4240455542, "lat": 51.5175985, "lon": -0.1286057, "tags": {"amenity": "motorcycle_parking", "capacity": "7", "covered": "no"}}, {"type": "node", "id": 4242234006, "lat": 51.5167488, "lon": -0.1304548}, {"type": "node", "id": 4242234010, "lat": 51.5167866, "lon": -0.1304405}, {"type": "node", "id": 4242234012, "lat": 51.5169228, "lon": -0.1305423}, {"type": "node", "id": 4242234013, "lat": 51.5169249, "lon": -0.1305795}, {"type": "node", "id": 4245251041, "lat": 51.5182006, "lon": -0.1319646, "tags": {"amenity": "bicycle_parking", "bicycle_parking": "stands", "capacity": "4", "covered": "no"}}, {"type": "node", "id": 4249404249, "lat": 51.5182006, "lon": -0.1345557, "tags": {"amenity": "bicycle_parking", "bicycle_parking": "stands", "capacity": "12", "covered": "no", "note": "Stands are in the roadway"}}, {"type": "node", "id": 4249404262, "lat": 51.5185866, "lon": -0.1348045, "tags": {"amenity": "motorcycle_parking", "capacity": "9", "covered": "no", "note": "on street", "parking": "surface"}}, {"type": "node", "id": 4249404318, "lat": 51.5189533, "lon": -0.1335954, "tags": {"amenity": "bicycle_parking", "bicycle_parking": "stands", "capacity": "4", "covered": "no"}}, {"type": "node", "id": 4302224815, "lat": 51.5109359, "lon": -0.1339377, "tags": {"amenity": "bicycle_parking", "bicycle_parking": "stands", "capacity": "26", "covered": "no"}}, {"type": "node", "id": 4307486646, "lat": 51.519391, "lon": -0.1396487, "tags": {"amenity": "motorcycle_parking", "covered": "no"}}, {"type": "node", "id": 4307880972, "lat": 51.5186878, "lon": -0.1401211, "tags": {"amenity": "bicycle_parking", "bicycle_parking": "stands", "capacity": "6", "covered": "no"}}, {"type": "node", "id": 4311813206, "lat": 51.5192623, "lon": -0.1404739, "tags": {"amenity": "bicycle_parking", "bicycle_parking": "stands", "covered": "no"}}, {"type": "node", "id": 4315061158, "lat": 51.5223928, "lon": -0.142496, "tags": {"access": "yes", "amenity": "parking", "fee": "yes", "layer": "-1", "operator": "NCP", "parking": "underground"}}, {"type": "node", "id": 4327901470, "lat": 51.5238122, "lon": -0.1435983, "tags": {"amenity": "bicycle_parking", "bicycle_parking": "stands", "capacity": "6", "covered": "no"}}, {"type": "node", "id": 4329378422, "lat": 51.5223837, "lon": -0.1411224, "tags": {"amenity": "bicycle_parking", "bicycle_parking": "stands", "capacity": "6", "covered": "no"}}, {"type": "node", "id": 4338218747, "lat": 51.5221623, "lon": -0.1392457}, {"type": "node", "id": 4338218759, "lat": 51.5222016, "lon": -0.1391599}, {"type": "node", "id": 4368839121, "lat": 51.5213904, "lon": -0.1379108, "tags": {"amenity": "bicycle_parking", "bicycle_parking": "stands", "capacity": "8", "covered": "no"}}, {"type": "node", "id": 4368839142, "lat": 51.5222295, "lon": -0.1391877}, {"type": "node", "id": 4368839152, "lat": 51.5222591, "lon": -0.139118}, {"type": "node", "id": 4368839160, "lat": 51.5222845, "lon": -0.1390543}, {"type": "node", "id": 4368839202, "lat": 51.522035, "lon": -0.1385014, "tags": {"amenity": "bicycle_parking", "bicycle_parking": "stands", "capacity": "16", "covered": "no"}}, {"type": "node", "id": 4368839222, "lat": 51.5221191, "lon": -0.1393447}, {"type": "node", "id": 4641488604, "lat": 51.5156352, "lon": -0.126118, "tags": {"amenity": "bicycle_parking", "bicycle_parking": "stands", "capacity": "8", "covered": "no"}}, {"type": "node", "id": 4641488721, "lat": 51.5155232, "lon": -0.1260375, "tags": {"amenity": "bicycle_parking", "bicycle_parking": "stands", "capacity": "4", "check_date:capacity": "2021-05-26", "covered": "no"}}, {"type": "node", "id": 4684520847, "lat": 51.5151783, "lon": -0.1390978, "tags": {"amenity": "bicycle_parking", "bicycle_parking": "stands"}}, {"type": "node", "id": 4709189403, "lat": 51.5142362, "lon": -0.1371533, "tags": {"amenity": "parking_entrance", "name": "QPark Soho", "operator": "QPark", "parking": "multi-storey"}}, {"type": "node", "id": 4709189429, "lat": 51.514145, "lon": -0.1374164, "tags": {"amenity": "parking", "brand": "Q-Park", "brand:wikidata": "Q1127798", "brand:wikipedia": "en:Q-Park", "fee": "yes", "name": "QPark Soho", "operator": "Q-Park", "operator:wikidata": "Q1127798", "operator:wikipedia": "en:Q-Park", "parking": "multi-storey"}}, {"type": "node", "id": 4712556895, "lat": 51.514993, "lon": -0.1352005}, {"type": "node", "id": 4712556896, "lat": 51.5149995, "lon": -0.1351809}, {"type": "node", "id": 4712556897, "lat": 51.5150504, "lon": -0.1352191}, {"type": "node", "id": 4712556898, "lat": 51.515043, "lon": -0.13524}, {"type": "node", "id": 4718984459, "lat": 51.5139646, "lon": -0.1366329}, {"type": "node", "id": 4718984460, "lat": 51.5139777, "lon": -0.136623}, {"type": "node", "id": 4718984461, "lat": 51.5139093, "lon": -0.1365747}, {"type": "node", "id": 4718984462, "lat": 51.5138943, "lon": -0.136585}, {"type": "node", "id": 4731045395, "lat": 51.5131432, "lon": -0.1354034}, {"type": "node", "id": 4731045397, "lat": 51.5131088, "lon": -0.1355052}, {"type": "node", "id": 4851419432, "lat": 51.509368, "lon": -0.1310265, "tags": {"access": "yes", "amenity": "parking", "brand": "Q-Park", "brand:wikidata": "Q1127798", "brand:wikipedia": "en:Q-Park", "fee": "yes", "name": "Q-Park Leicester Square", "operator": "Q-Park", "operator:wikidata": "Q1127798", "operator:wikipedia": "en:Q-Park", "parking": "multi-storey"}}, {"type": "node", "id": 5073207570, "lat": 51.5223308, "lon": -0.1344595}, {"type": "node", "id": 5073207571, "lat": 51.5222429, "lon": -0.1343855}, {"type": "node", "id": 5359988812, "lat": 51.5174709, "lon": -0.1269047, "tags": {"amenity": "bicycle_parking"}}, {"type": "node", "id": 5375732597, "lat": 51.5201039, "lon": -0.1434908, "tags": {"amenity": "motorcycle_parking", "covered": "no"}}, {"type": "node", "id": 5438277150, "lat": 51.5084265, "lon": -0.1270819, "tags": {"amenity": "bicycle_parking", "bicycle_parking": "stands", "capacity": "6", "covered": "no"}}, {"type": "node", "id": 5438277151, "lat": 51.5100087, "lon": -0.1283097, "tags": {"amenity": "bicycle_parking", "bicycle_parking": "stands", "capacity": "22", "covered": "no"}}, {"type": "node", "id": 5605966544, "lat": 51.5253917, "lon": -0.1356101, "tags": {"amenity": "bicycle_parking", "bicycle_parking": "stands", "capacity": "8", "covered": "no"}}, {"type": "node", "id": 5605966545, "lat": 51.5252727, "lon": -0.1357274, "tags": {"amenity": "bicycle_parking", "bicycle_parking": "stands", "capacity": "10", "covered": "no"}}, {"type": "node", "id": 5610035555, "lat": 51.5134774, "lon": -0.1360442, "tags": {"amenity": "bicycle_parking", "bicycle_parking": "stands", "capacity": "6", "covered": "no"}}, {"type": "node", "id": 5991176946, "lat": 51.5210045, "lon": -0.1420713, "tags": {"amenity": "motorcycle_parking", "covered": "no"}}, {"type": "node", "id": 6110368375, "lat": 51.5180204, "lon": -0.1375826, "tags": {"access": "yes", "amenity": "parking", "capacity": "96", "fee": "yes", "layer": "-1", "name": "NCP Car Park London Berners Street", "parking": "underground", "website": "https://www.ncp.co.uk/find-a-car-park/car-parks/london-berners-street/"}}, {"type": "node", "id": 6187619853, "lat": 51.5224665, "lon": -0.1450002}, {"type": "node", "id": 6214704098, "lat": 51.509857, "lon": -0.1311133, "tags": {"amenity": "bicycle_parking", "bicycle_parking": "stands", "capacity": "6", "covered": "no"}}, {"type": "node", "id": 6250445845, "lat": 51.5111671, "lon": -0.1384802, "tags": {"amenity": "bicycle_parking", "capacity": "36"}}, {"type": "node", "id": 6308571256, "lat": 51.5151046, "lon": -0.1328812, "tags": {"amenity": "charging_station", "brand": "ChargePoint", "brand:wikidata": "Q5176149", "brand:wikipedia": "en:ChargePoint", "capacity": "0", "name": "ChargePoint", "operator": "ChargePoint", "operator:wikidata": "Q5176149", "operator:wikipedia": "en:ChargePoint"}}, {"type": "node", "id": 6384523735, "lat": 51.5193792, "lon": -0.1327142, "tags": {"amenity": "motorcycle_parking", "capacity": "10", "covered": "no"}}, {"type": "node", "id": 6384601008, "lat": 51.5220723, "lon": -0.1361182, "tags": {"amenity": "bicycle_parking", "bicycle_parking": "stands", "capacity": "10", "covered": "no"}}, {"type": "node", "id": 6387500435, "lat": 51.5204268, "lon": -0.1304428, "tags": {"amenity": "bicycle_parking", "bicycle_parking": "stands", "capacity": "4", "covered": "no"}}, {"type": "node", "id": 6387818321, "lat": 51.5190469, "lon": -0.1331954, "tags": {"amenity": "bicycle_parking", "bicycle_parking": "stands", "capacity": "12", "covered": "no"}}, {"type": "node", "id": 6387828802, "lat": 51.5199915, "lon": -0.1312495, "tags": {"amenity": "bicycle_parking", "bicycle_parking": "stands", "capacity": "8", "covered": "no"}}, {"type": "node", "id": 6387828803, "lat": 51.5200865, "lon": -0.131056, "tags": {"amenity": "bicycle_parking", "bicycle_parking": "stands", "capacity": "4", "covered": "no"}}, {"type": "node", "id": 6387828804, "lat": 51.5199278, "lon": -0.1312871, "tags": {"amenity": "charging_station"}}, {"type": "node", "id": 6387828805, "lat": 51.5194025, "lon": -0.1326138, "tags": {"amenity": "bicycle_parking", "bicycle_parking": "stands", "capacity": "2", "covered": "no"}}, {"type": "node", "id": 6444359903, "lat": 51.5233399, "lon": -0.136843, "tags": {"amenity": "taxi"}}, {"type": "node", "id": 6444359904, "lat": 51.5209688, "lon": -0.1345846, "tags": {"amenity": "taxi"}}, {"type": "node", "id": 6524235918, "lat": 51.5082257, "lon": -0.1297554, "tags": {"amenity": "bicycle_parking", "bicycle_parking": "stands", "capacity": "4", "covered": "no"}}, {"type": "node", "id": 6524235919, "lat": 51.5079677, "lon": -0.1302227, "tags": {"amenity": "bicycle_parking", "capacity": "6"}}, {"type": "node", "id": 6524235920, "lat": 51.5081905, "lon": -0.1304513, "tags": {"amenity": "motorcycle_parking", "capacity": "12"}}, {"type": "node", "id": 6524252945, "lat": 51.5184568, "lon": -0.1374319, "tags": {"amenity": "motorcycle_parking", "capacity": "20", "covered": "no"}}, {"type": "node", "id": 6524252946, "lat": 51.5192581, "lon": -0.1374639, "tags": {"amenity": "bicycle_parking", "bicycle_parking": "stands", "capacity": "12", "covered": "no"}}, {"type": "node", "id": 6524252947, "lat": 51.5174447, "lon": -0.136807, "tags": {"amenity": "charging_station", "capacity": "2"}}, {"type": "node", "id": 6524252948, "lat": 51.517693, "lon": -0.1371215, "tags": {"amenity": "bicycle_parking", "capacity": "2"}}, {"type": "node", "id": 6524302794, "lat": 51.512319, "lon": -0.1328292, "tags": {"amenity": "motorcycle_parking", "capacity": "20"}}, {"type": "node", "id": 6524302795, "lat": 51.5100043, "lon": -0.1311442, "tags": {"amenity": "taxi"}}, {"type": "node", "id": 6524302797, "lat": 51.5103121, "lon": -0.1313412, "tags": {"amenity": "bicycle_parking", "bicycle_parking": "stands", "capacity": "6", "covered": "no"}}, {"type": "node", "id": 6524303289, "lat": 51.5161535, "lon": -0.1359932, "tags": {"amenity": "bicycle_parking", "bicycle_parking": "stands", "capacity": "8", "covered": "no"}}, {"type": "node", "id": 6524303290, "lat": 51.5139312, "lon": -0.1342406, "tags": {"amenity": "bicycle_parking", "capacity": "2"}}, {"type": "node", "id": 6524303291, "lat": 51.5152102, "lon": -0.1353659, "tags": {"amenity": "motorcycle_parking", "capacity": "10", "covered": "no"}}, {"type": "node", "id": 6524338469, "lat": 51.5223517, "lon": -0.1371994, "tags": {"amenity": "motorcycle_parking", "capacity": "10", "covered": "no"}}, {"type": "node", "id": 6524338470, "lat": 51.5227977, "lon": -0.1366396, "tags": {"amenity": "bicycle_parking", "bicycle_parking": "stands", "capacity": "10", "covered": "no"}}, {"type": "node", "id": 6524338471, "lat": 51.5224434, "lon": -0.1373016, "tags": {"amenity": "bicycle_parking", "bicycle_parking": "stands", "capacity": "16", "covered": "no"}}, {"type": "node", "id": 6524345316, "lat": 51.5229276, "lon": -0.1369179, "tags": {"amenity": "bicycle_parking", "bicycle_parking": "stands", "capacity": "10", "covered": "no"}}, {"type": "node", "id": 6524354167, "lat": 51.5204439, "lon": -0.1356653, "tags": {"amenity": "bicycle_parking", "bicycle_parking": "stands", "capacity": "6", "covered": "no"}}, {"type": "node", "id": 6524354168, "lat": 51.5208341, "lon": -0.1356505, "tags": {"amenity": "motorcycle_parking", "capacity": "6", "covered": "no"}}, {"type": "node", "id": 6524354169, "lat": 51.5223769, "lon": -0.133973, "tags": {"amenity": "bicycle_parking", "bicycle_parking": "stands", "capacity": "2", "covered": "no"}}, {"type": "node", "id": 6524354170, "lat": 51.5205646, "lon": -0.1351567, "tags": {"amenity": "bicycle_parking", "bicycle_parking": "stands", "capacity": "4", "covered": "no"}}, {"type": "node", "id": 6524354171, "lat": 51.5206064, "lon": -0.1354711, "tags": {"amenity": "bicycle_parking", "bicycle_parking": "stands", "capacity": "4", "covered": "no"}}, {"type": "node", "id": 6524354172, "lat": 51.5204521, "lon": -0.1354389, "tags": {"amenity": "motorcycle_parking", "capacity": "20", "covered": "no"}}, {"type": "node", "id": 6524354173, "lat": 51.520717, "lon": -0.1354969, "tags": {"amenity": "bicycle_parking", "bicycle_parking": "stands", "capacity": "2", "covered": "no"}}, {"type": "node", "id": 6524354174, "lat": 51.5233472, "lon": -0.1359544, "tags": {"amenity": "motorcycle_parking", "capacity": "16", "covered": "no"}}, {"type": "node", "id": 6524371762, "lat": 51.5197309, "lon": -0.134899, "tags": {"amenity": "bicycle_parking", "bicycle_parking": "stands", "capacity": "4", "covered": "no"}}, {"type": "node", "id": 6524371763, "lat": 51.5207804, "lon": -0.1348156, "tags": {"amenity": "bicycle_parking", "bicycle_parking": "stands", "capacity": "16", "covered": "no"}}, {"type": "node", "id": 6524371764, "lat": 51.5198213, "lon": -0.1361908, "tags": {"amenity": "motorcycle_parking", "capacity": "20", "covered": "no"}}, {"type": "node", "id": 6524527717, "lat": 51.5200337, "lon": -0.1341513, "tags": {"amenity": "bicycle_parking", "bicycle_parking": "stands", "capacity": "10", "covered": "no"}}, {"type": "node", "id": 6524630687, "lat": 51.519489, "lon": -0.135558, "tags": {"amenity": "bicycle_parking", "bicycle_parking": "stands", "capacity": "2", "covered": "no"}}, {"type": "node", "id": 6524649805, "lat": 51.5204375, "lon": -0.1336248, "tags": {"amenity": "motorcycle_parking", "capacity": "20", "covered": "no"}}, {"type": "node", "id": 6524664766, "lat": 51.5202998, "lon": -0.1304979, "tags": {"amenity": "motorcycle_parking", "capacity": "6"}}, {"type": "node", "id": 6524664767, "lat": 51.5203251, "lon": -0.1304402, "tags": {"amenity": "bicycle_parking", "capacity": "4"}}, {"type": "node", "id": 6528649088, "lat": 51.5236736, "lon": -0.143764, "tags": {"amenity": "bicycle_parking", "bicycle_parking": "stands", "capacity": "8", "covered": "no"}}, {"type": "node", "id": 6528649096, "lat": 51.5237492, "lon": -0.1433534, "tags": {"amenity": "bicycle_parking", "bicycle_parking": "stands", "capacity": "2", "covered": "no"}}, {"type": "node", "id": 6528660991, "lat": 51.5237594, "lon": -0.1427935, "tags": {"access": "permissive", "amenity": "bicycle_parking", "bicycle_parking": "stands", "capacity": "22", "covered": "no"}}, {"type": "node", "id": 6528660993, "lat": 51.523762, "lon": -0.1415117, "tags": {"amenity": "bicycle_parking", "bicycle_parking": "stands", "capacity": "2", "covered": "no"}}, {"type": "node", "id": 6528660994, "lat": 51.5241422, "lon": -0.1406665, "tags": {"amenity": "bicycle_parking", "bicycle_parking": "stands", "capacity": "8", "covered": "no"}}, {"type": "node", "id": 6528660995, "lat": 51.5234427, "lon": -0.1422812, "tags": {"amenity": "motorcycle_parking", "capacity": "8", "covered": "no"}}, {"type": "node", "id": 6528660996, "lat": 51.5237935, "lon": -0.1412405, "tags": {"amenity": "bicycle_parking", "bicycle_parking": "stands", "capacity": "2", "covered": "no"}}, {"type": "node", "id": 6528660997, "lat": 51.5241824, "lon": -0.1391054, "tags": {"amenity": "bicycle_parking", "bicycle_parking": "stands", "capacity": "2", "covered": "no"}}, {"type": "node", "id": 6528660998, "lat": 51.5235451, "lon": -0.1420997, "tags": {"amenity": "charging_station", "brand": "Source London", "brand:wikidata": "Q7565133", "brand:wikipedia": "en:Source London", "capacity": "1", "name": "Source London", "operator": "Source London", "operator:wikidata": "Q7565133", "operator:wikipedia": "en:Source London"}}, {"type": "node", "id": 6528660999, "lat": 51.5238254, "lon": -0.1401727, "tags": {"amenity": "bicycle_parking", "bicycle_parking": "stands", "capacity": "12", "covered": "no"}}, {"type": "node", "id": 6528661000, "lat": 51.5235021, "lon": -0.142207, "tags": {"amenity": "bicycle_parking", "bicycle_parking": "stands", "capacity": "2", "covered": "no"}}, {"type": "node", "id": 6528661001, "lat": 51.5239701, "lon": -0.1417219, "tags": {"amenity": "bicycle_parking", "bicycle_parking": "stands", "capacity": "2", "covered": "no"}}, {"type": "node", "id": 6528661002, "lat": 51.5240041, "lon": -0.1402167, "tags": {"amenity": "bicycle_parking", "bicycle_parking": "stands", "capacity": "2", "covered": "no"}}, {"type": "node", "id": 6528661003, "lat": 51.5233667, "lon": -0.1421915, "tags": {"amenity": "bicycle_parking", "bicycle_parking": "stands", "capacity": "2", "covered": "no"}}, {"type": "node", "id": 6528661004, "lat": 51.5238039, "lon": -0.1408319, "tags": {"amenity": "bicycle_parking", "bicycle_parking": "stands", "capacity": "2", "covered": "no"}}, {"type": "node", "id": 6528708501, "lat": 51.5248139, "lon": -0.1376867, "tags": {"amenity": "bicycle_parking", "bicycle_parking": "stands", "capacity": "8", "covered": "no"}}, {"type": "node", "id": 6528708502, "lat": 51.5245101, "lon": -0.1352886, "tags": {"amenity": "bicycle_parking", "bicycle_parking": "stands", "capacity": "48", "covered": "yes"}}, {"type": "node", "id": 6528708503, "lat": 51.5247474, "lon": -0.1352716, "tags": {"amenity": "bicycle_parking", "bicycle_parking": "stands", "capacity": "48", "covered": "yes"}}, {"type": "node", "id": 6529957818, "lat": 51.5195672, "lon": -0.1447254, "tags": {"amenity": "bicycle_parking", "bicycle_parking": "stands", "capacity": "10", "covered": "no"}}, {"type": "node", "id": 6530025125, "lat": 51.5223845, "lon": -0.1372742, "tags": {"amenity": "bicycle_parking", "bicycle_parking": "stands", "capacity": "12", "covered": "no"}}, {"type": "node", "id": 6571452367, "lat": 51.5212302, "lon": -0.135072, "tags": {"amenity": "bicycle_parking", "bicycle_parking": "stands", "capacity": "10", "covered": "no"}}, {"type": "node", "id": 6809901483, "lat": 51.5188897, "lon": -0.1335881, "tags": {"amenity": "bicycle_parking", "bicycle_parking": "stands", "capacity": "2", "covered": "no"}}, {"type": "node", "id": 6812104102, "lat": 51.5252036, "lon": -0.1354295, "tags": {"amenity": "bicycle_parking", "bicycle_parking": "stands", "capacity": "6", "covered": "no"}}, {"type": "node", "id": 6855115787, "lat": 51.5235581, "lon": -0.1372192, "tags": {"amenity": "bicycle_parking", "bicycle_parking": "stands", "capacity": "10", "covered": "no"}}, {"type": "node", "id": 6855115791, "lat": 51.5186338, "lon": -0.1326162, "tags": {"amenity": "bicycle_parking", "bicycle_parking": "stands", "capacity": "10", "covered": "no"}}, {"type": "node", "id": 6855115887, "lat": 51.5183831, "lon": -0.1321874, "tags": {"amenity": "bicycle_parking", "bicycle_parking": "stands", "capacity": "4", "covered": "no"}}, {"type": "node", "id": 6900051386, "lat": 51.5094468, "lon": -0.1328627, "tags": {"amenity": "bicycle_parking", "capacity": "8"}}, {"type": "node", "id": 6900063287, "lat": 51.5096899, "lon": -0.1331504, "tags": {"amenity": "bicycle_parking", "capacity": "10"}}, {"type": "node", "id": 6900063288, "lat": 51.5098392, "lon": -0.1331286, "tags": {"amenity": "bicycle_parking", "bicycle_parking": "stands", "capacity": "20", "covered": "no"}}, {"type": "node", "id": 6957504429, "lat": 51.5117782, "lon": -0.1368946, "tags": {"amenity": "bicycle_parking", "bicycle_parking": "stands", "capacity": "8", "covered": "no"}}, {"type": "node", "id": 6957504431, "lat": 51.5120169, "lon": -0.1371594, "tags": {"amenity": "bicycle_parking", "capacity": "4"}}, {"type": "node", "id": 6957504432, "lat": 51.5115857, "lon": -0.1367506, "tags": {"amenity": "motorcycle_parking", "capacity": "4"}}, {"type": "node", "id": 6957504433, "lat": 51.514399, "lon": -0.1390066, "tags": {"amenity": "bicycle_parking", "bicycle_parking": "stands", "capacity": "6", "covered": "no", "mapillary": "lQeHPCHgN8xGVYrC4718cw", "survey:date": "2019-12-03"}}, {"type": "node", "id": 6957504435, "lat": 51.5132971, "lon": -0.1379475, "tags": {"amenity": "motorcycle_parking", "capacity": "10"}}, {"type": "node", "id": 6957504436, "lat": 51.5119276, "lon": -0.1371017, "tags": {"amenity": "motorcycle_parking", "capacity": "4"}}, {"type": "node", "id": 6957504437, "lat": 51.5148199, "lon": -0.1373683, "tags": {"amenity": "bicycle_parking", "bicycle_parking": "stands", "capacity": "2", "covered": "no"}}, {"type": "node", "id": 6957504439, "lat": 51.5133504, "lon": -0.1379859, "tags": {"amenity": "bicycle_parking", "capacity": "6"}}, {"type": "node", "id": 6957504441, "lat": 51.5152072, "lon": -0.1363156, "tags": {"amenity": "bicycle_parking", "bicycle_parking": "stands", "capacity": "12", "covered": "no"}}, {"type": "node", "id": 6957535974, "lat": 51.5169045, "lon": -0.1367165, "tags": {"amenity": "bicycle_parking", "capacity": "2", "covered": "no"}}, {"type": "node", "id": 6957535975, "lat": 51.5185096, "lon": -0.1331869, "tags": {"amenity": "bicycle_parking", "bicycle_parking": "stands", "capacity": "22", "covered": "no"}}, {"type": "node", "id": 6957535976, "lat": 51.5168197, "lon": -0.1372249, "tags": {"amenity": "bicycle_parking", "bicycle_parking": "stands", "capacity": "6", "covered": "no", "mapillary": "1114631559042968", "survey:date": "2019-01-21"}}, {"type": "node", "id": 6957535977, "lat": 51.5173521, "lon": -0.1339098, "tags": {"amenity": "bicycle_parking", "bicycle_parking": "stands", "capacity": "36", "covered": "no"}}, {"type": "node", "id": 6957535978, "lat": 51.5186066, "lon": -0.1329179, "tags": {"amenity": "motorcycle_parking", "capacity": "10", "covered": "no"}}, {"type": "node", "id": 6957535979, "lat": 51.5179049, "lon": -0.1343153, "tags": {"amenity": "bicycle_parking", "bicycle_parking": "stands", "capacity": "2", "covered": "no"}}, {"type": "node", "id": 6957535980, "lat": 51.516757, "lon": -0.1375416, "tags": {"amenity": "bicycle_parking", "capacity": "2", "covered": "no"}}, {"type": "node", "id": 6957535981, "lat": 51.518024, "lon": -0.1341283, "tags": {"amenity": "bicycle_parking", "bicycle_parking": "stands", "capacity": "2", "covered": "no"}}, {"type": "node", "id": 6978048475, "lat": 51.5223899, "lon": -0.1391675}, {"type": "node", "id": 6978230012, "lat": 51.5223038, "lon": -0.1392425}, {"type": "node", "id": 6978230017, "lat": 51.5223321, "lon": -0.1391054}, {"type": "node", "id": 6979180526, "lat": 51.5176483, "lon": -0.1341403, "tags": {"amenity": "motorcycle_parking", "capacity": "12", "covered": "no", "note": "position approximate"}}, {"type": "node", "id": 6979180527, "lat": 51.5176277, "lon": -0.1341183, "tags": {"amenity": "bicycle_parking", "bicycle_parking": "stands", "capacity": "22", "covered": "no", "note": "position approximate"}}, {"type": "node", "id": 6992129451, "lat": 51.523391, "lon": -0.1385242, "tags": {"access": "private", "amenity": "parking_entrance"}}, {"type": "node", "id": 6996410285, "lat": 51.5134123, "lon": -0.1295627, "tags": {"amenity": "motorcycle_parking", "capacity": "8", "covered": "no"}}, {"type": "node", "id": 6996410286, "lat": 51.5164717, "lon": -0.1348243, "tags": {"amenity": "bicycle_parking", "bicycle_parking": "stands", "capacity": "1", "covered": "no"}}, {"type": "node", "id": 6996410287, "lat": 51.5187096, "lon": -0.1441112, "tags": {"amenity": "bicycle_parking"}}, {"type": "node", "id": 6996410385, "lat": 51.5148364, "lon": -0.1323978, "tags": {"amenity": "motorcycle_parking"}}, {"type": "node", "id": 6996410386, "lat": 51.5154781, "lon": -0.132898, "tags": {"amenity": "motorcycle_parking"}}, {"type": "node", "id": 6996420516, "lat": 51.5223207, "lon": -0.1392616}, {"type": "node", "id": 6996420520, "lat": 51.5221706, "lon": -0.1393971}, {"type": "node", "id": 6996420521, "lat": 51.5222561, "lon": -0.1391941}, {"type": "node", "id": 6996420522, "lat": 51.5223412, "lon": -0.1392848}, {"type": "node", "id": 6997022987, "lat": 51.5157223, "lon": -0.1318737, "tags": {"amenity": "motorcycle_parking"}}, {"type": "node", "id": 7045368670, "lat": 51.513026, "lon": -0.1353686}, {"type": "node", "id": 7098271390, "lat": 51.5100448, "lon": -0.1319683, "tags": {"amenity": "motorcycle_parking", "capacity": "12", "covered": "no"}}, {"type": "node", "id": 7098271885, "lat": 51.5158731, "lon": -0.1282362, "tags": {"access": "customers", "amenity": "bicycle_parking", "bicycle_parking": "wall_loops"}}, {"type": "node", "id": 7100002586, "lat": 51.5077556, "lon": -0.1301765, "tags": {"amenity": "bicycle_parking", "bicycle_parking": "stands", "capacity": "16", "covered": "no", "mapillary": "rhlfK6wzS43QJVphHRkmaT", "survey:date": "2021-03-31"}}, {"type": "node", "id": 7198014648, "lat": 51.5213654, "lon": -0.1433589, "tags": {"amenity": "bicycle_parking", "bicycle_parking": "stands", "capacity": "8", "covered": "no", "source": "survey"}}, {"type": "node", "id": 7198014649, "lat": 51.5214308, "lon": -0.1432622, "tags": {"amenity": "bicycle_parking", "bicycle_parking": "stands", "capacity": "4", "covered": "no", "source": "survey"}}, {"type": "node", "id": 7198014650, "lat": 51.5213777, "lon": -0.1432365, "tags": {"amenity": "bicycle_parking", "bicycle_parking": "stands", "capacity": "6", "covered": "no", "source": "survey"}}, {"type": "node", "id": 7261469798, "lat": 51.513347, "lon": -0.1402352, "tags": {"amenity": "bicycle_parking", "capacity": "10"}}, {"type": "node", "id": 7275445232, "lat": 51.5193039, "lon": -0.139018, "tags": {"amenity": "bicycle_parking", "bicycle_parking": "stands", "capacity": "8", "covered": "no"}}, {"type": "node", "id": 7699206385, "lat": 51.511846, "lon": -0.1386619, "tags": {"amenity": "bicycle_parking", "bicycle_parking": "stands", "covered": "no"}}, {"type": "node", "id": 7699206386, "lat": 51.5104681, "lon": -0.1378644, "tags": {"amenity": "bicycle_parking", "bicycle_parking": "wide_stands", "capacity": "8", "covered": "no"}}, {"type": "node", "id": 7699206585, "lat": 51.5104792, "lon": -0.137261, "tags": {"amenity": "bicycle_parking", "bicycle_parking": "stands", "capacity": "10", "covered": "no"}}, {"type": "node", "id": 7699206685, "lat": 51.5105441, "lon": -0.1371669, "tags": {"amenity": "bicycle_parking", "bicycle_parking": "stands", "capacity": "4", "covered": "no"}}, {"type": "node", "id": 7799441308, "lat": 51.5153182, "lon": -0.127004, "tags": {"amenity": "bicycle_parking", "capacity": "8", "covered": "no"}}, {"type": "node", "id": 7799441309, "lat": 51.5152755, "lon": -0.1267851, "tags": {"amenity": "bicycle_parking", "capacity": "2", "covered": "no"}}, {"type": "node", "id": 7854413085, "lat": 51.5188816, "lon": -0.1313441, "tags": {"amenity": "motorcycle_parking", "capacity": "22", "covered": "no"}}, {"type": "node", "id": 7854413585, "lat": 51.5193359, "lon": -0.1294568, "tags": {"amenity": "bicycle_parking", "bicycle_parking": "stands", "covered": "no"}}, {"type": "node", "id": 7895564829, "lat": 51.5158345, "lon": -0.1410179, "tags": {"addr:housenumber": "1", "addr:street": "Great Portland Street", "amenity": "bicycle_parking", "bicycle_parking": "building", "brand": "Bike-Drop", "email": "OxfordCircus@bike-drop.com", "fee": "yes", "name": "Bike-Drop", "phone": "+44 20 7019 9000", "website": "https://www.bike-drop.com/"}}, {"type": "node", "id": 8066827612, "lat": 51.5225759, "lon": -0.1322248, "tags": {"amenity": "bicycle_parking", "bicycle_parking": "stands", "capacity": "4", "covered": "no"}}, {"type": "node", "id": 8066827613, "lat": 51.5225396, "lon": -0.1323247, "tags": {"amenity": "bicycle_parking", "bicycle_parking": "stands", "capacity": "12", "covered": "no"}}, {"type": "node", "id": 8094435234, "lat": 51.5073516, "lon": -0.130265}, {"type": "node", "id": 8094435235, "lat": 51.5074401, "lon": -0.130225}, {"type": "node", "id": 8094435236, "lat": 51.5073523, "lon": -0.1302283}, {"type": "node", "id": 8094435237, "lat": 51.5073529, "lon": -0.1303044}, {"type": "node", "id": 8094435238, "lat": 51.5074113, "lon": -0.1303527}, {"type": "node", "id": 8169118803, "lat": 51.5213146, "lon": -0.1316106, "tags": {"amenity": "bicycle_parking", "bicycle_parking": "stands", "capacity": "6", "covered": "no"}}, {"type": "node", "id": 8208073061, "lat": 51.5221775, "lon": -0.1399699, "tags": {"amenity": "bicycle_parking", "bicycle_parking": "informal", "covered": "no", "description": "Road bay for dockless bike hire"}}, {"type": "node", "id": 8256100312, "lat": 51.5165546, "lon": -0.1266796, "tags": {"amenity": "bicycle_parking", "bicycle_parking": "stands", "capacity": "4", "covered": "no"}}, {"type": "node", "id": 8256100314, "lat": 51.5172074, "lon": -0.1272568, "tags": {"amenity": "bicycle_parking", "bicycle_parking": "stands", "capacity": "8", "covered": "no"}}, {"type": "node", "id": 8256100316, "lat": 51.5167716, "lon": -0.1268341, "tags": {"amenity": "bicycle_parking", "bicycle_parking": "stands", "capacity": "10", "covered": "no"}}, {"type": "node", "id": 8370114911, "lat": 51.5161452, "lon": -0.1406416, "tags": {"amenity": "bicycle_parking", "bicycle_parking": "stands", "capacity": "8", "covered": "no"}}, {"type": "node", "id": 8569287471, "lat": 51.5085323, "lon": -0.1269994, "tags": {"amenity": "bicycle_parking", "bicycle_parking": "stands", "capacity": "6", "covered": "no"}}, {"type": "node", "id": 8592798266, "lat": 51.5101329, "lon": -0.1387862, "tags": {"amenity": "motorcycle_parking"}}, {"type": "node", "id": 8592798267, "lat": 51.510003, "lon": -0.138813, "tags": {"amenity": "bicycle_parking", "bicycle_parking": "stands", "capacity": "12", "covered": "no", "fee": "no"}}, {"type": "node", "id": 8820597091, "lat": 51.5095683, "lon": -0.1329723, "tags": {"access": "customers", "amenity": "bicycle_parking", "bicycle_parking": "building", "fee": "yes", "name": "Bike Drop", "opening_hours": "Mo-Fr 07:00-20:00; Sa 08:00-20:00; Su 09:00-18:30", "operator": "Bike Drop", "supervised": "yes", "website": "https://www.bike-drop.com/"}}, {"type": "node", "id": 8998120939, "lat": 51.5170008, "lon": -0.1352052, "tags": {"amenity": "bicycle_parking", "bicycle_parking": "stands", "covered": "no"}}, {"type": "node", "id": 9173442341, "lat": 51.5143575, "lon": -0.1286401, "tags": {"amenity": "bicycle_parking", "bicycle_parking": "stands"}}, {"type": "node", "id": 9176400300, "lat": 51.5123577, "lon": -0.1295815, "tags": {"amenity": "parking_entrance", "foot": "no", "parking": "underground"}}, {"type": "node", "id": 9176403482, "lat": 51.5123337, "lon": -0.1295674, "tags": {"amenity": "parking_entrance", "foot": "no", "parking": "underground"}}, {"type": "node", "id": 9396819971, "lat": 51.5241275, "lon": -0.1397223, "tags": {"access": "private", "amenity": "bicycle_parking", "bicycle_parking": "shed", "capacity": "6", "operator": "cyclehoop", "ref": "Bikehangar 1517"}}, {"type": "node", "id": 9626234123, "lat": 51.5102899, "lon": -0.1389232, "tags": {"access": "yes", "amenity": "bicycle_parking", "bicycle_parking": "stands", "capacity": "10", "covered": "no", "fee": "no"}}, {"type": "node", "id": 9760774780, "lat": 51.5244367, "lon": -0.1355338}, {"type": "node", "id": 9872698640, "lat": 51.5238796, "lon": -0.1357309, "tags": {"amenity": "bicycle_parking", "bicycle_parking": "stands", "capacity": "20", "covered": "yes", "fixme": "double check number and cover"}}, {"type": "node", "id": 9904395670, "lat": 51.5141267, "lon": -0.1285482, "tags": {"access": "private", "amenity": "parking_entrance", "entrance": "exit", "parking": "underground"}}, {"type": "node", "id": 9904395671, "lat": 51.5140885, "lon": -0.1285406, "tags": {"access": "private", "amenity": "parking_entrance", "parking": "underground"}}, {"type": "way", "id": 99845114, "nodes": [1154267418, 1154267430, 1154267431, 1154267422, 1154267423, 1154267432, 1154267433, 1154267420, 1154267418], "tags": {"access": "private", "amenity": "parking", "parking": "surface", "source": "Bing;survey"}}, {"type": "way", "id": 117623620, "nodes": [1324710032, 4731045397, 1330788558, 1324710104, 1324710068, 7045368670, 1324710094, 1324710182, 1330788568, 1324710132, 1324710086, 4731045395, 1324710032], "tags": {"access": "private", "amenity": "parking"}}, {"type": "way", "id": 150920359, "nodes": [1637831098, 1637831131, 1637831132, 1637831100, 1637831098], "tags": {"amenity": "parking", "parking": "street_side"}}, {"type": "way", "id": 150920360, "nodes": [1637831106, 1637831103, 1637831080, 1637831090, 1637831106], "tags": {"amenity": "parking"}}, {"type": "way", "id": 265112972, "nodes": [2707718042, 2707718043, 2707718044, 2707718045, 2707718042], "tags": {"access": "yes", "amenity": "parking", "capacity": "1", "name": "Blue Badge Disabled", "parking": "surface"}}, {"type": "way", "id": 273610358, "nodes": [2357532944, 612420269, 2784434275, 2784434280, 2357532944], "tags": {"addr:housenumber": "57", "addr:street": "Carnaby Street", "amenity": "bicycle_parking", "bicycle_parking": "building", "capacity": "50", "fee": "no", "level": "0", "name": "Carnaby Bike Hub", "source": "https://www.carnaby.co.uk/bike-hub/", "was:name": "Pretty Green", "was:phone": "+44 20 7287 3122", "was:shop": "clothes", "website": "https://www.prettygreen.com/"}}, {"type": "way", "id": 279088498, "nodes": [2833448452, 2833448451, 2833448438, 2833448440, 2833448452], "tags": {"amenity": "taxi", "level": "0", "note": "Mini cab office", "phone": "+44 20 8616 8227", "source": "photograph", "taxi": "office"}}, {"type": "way", "id": 292623450, "nodes": [9760774780, 2961589452, 2961589454, 2961589453, 9760774780], "tags": {"access": "destination", "amenity": "bicycle_parking", "bicycle_parking": "stands", "covered": "yes", "level": "0", "operator": "University College Hospital", "source": "survey", "survey:date": "2012-07-12"}}, {"type": "way", "id": 292623451, "nodes": [2961589458, 2961589457, 2961589455, 2961589456, 2961589458], "tags": {"access": "destination", "amenity": "bicycle_parking", "bicycle_parking": "stands", "covered": "yes", "level": "0", "operator": "University College Hospital", "source": "survey", "survey:date": "2012-07-12"}}, {"type": "way", "id": 306378341, "nodes": [3112665789, 3112665790, 3112665791, 6187619853, 3112665789], "tags": {"addr:city": "London", "addr:housenumber": "2 - 5", "addr:postcode": "W1W 5AU", "addr:street": "Devonshire Row Mews", "amenity": "parking", "building": "yes", "fee": "yes", "name": "Union Car Parks", "supervised": "yes"}}, {"type": "way", "id": 318350455, "nodes": [2557051168, 497185851, 1138970634, 5073207571, 5073207570, 1138970628, 2557051168], "tags": {"access": "private", "amenity": "parking", "fee": "no", "parking": "surface", "supervised": "no"}}, {"type": "way", "id": 349937287, "nodes": [3557237029, 3557237027, 3557237024, 3557237023, 3557237025, 3557237029], "tags": {"addr:city": "London", "addr:housenumber": "41", "addr:street": "Frith Street", "amenity": "taxi", "building": "retail", "building:colour": "white", "building:levels": "4", "building:material": "plaster", "name": "Mini Cabs", "office": "taxi", "phone": "+44 20 7494 4004", "roof:colour": "grey", "source:addr:housenumber": "photo"}}, {"type": "way", "id": 424852308, "nodes": [4242234013, 4242234006, 4242234010, 4242234012, 4242234013], "tags": {"amenity": "taxi"}}, {"type": "way", "id": 477968027, "nodes": [4712556898, 4712556897, 4712556896, 4712556895, 4712556898], "tags": {"amenity": "motorcycle_parking", "parking": "surface"}}, {"type": "way", "id": 478686281, "nodes": [4718984462, 4718984461, 4718984460, 4718984459, 4718984462], "tags": {"amenity": "motorcycle_parking", "parking": "surface"}}, {"type": "way", "id": 747807934, "nodes": [4368839222, 6996420520, 6996420521, 333725790, 6978230012, 6996420516, 493149353, 6996420522, 497184054, 6978048475, 6978230017, 4368839160, 4368839152, 4368839142, 4338218759, 4338218747, 4368839222], "tags": {"access": "private", "amenity": "parking", "capacity": "10", "parking": "surface"}}, {"type": "way", "id": 868400436, "nodes": [8094435235, 8094435236, 8094435234, 8094435237, 8094435238, 8094435235], "tags": {"access": "private", "amenity": "parking", "capacity": "2", "parking": "surface", "surface": "asphalt"}}]}