{"version": 0.6, "generator": "Overpass API 0.7.58.5 b0c4acbb", "osm3s": {"timestamp_osm_base": "2022-09-01T21:34:06Z", "copyright": "The data included in this document is from www.openstreetmap.org. The data is made available under ODbL."}, "elements": [{"type": "node", "id": 839472023, "lat": 41.3994281, "lon": 2.1927937}, {"type": "node", "id": 839473605, "lat": 41.399889, "lon": 2.198611, "tags": {"addr:housenumber": "154", "addr:street": "CALLE PUJADES", "amenity": "fuel", "brand": "Repsol", "brand:wikidata": "Q174747", "brand:wikipedia": "es:Repsol", "fuel:diesel": "yes", "fuel:octane_95": "yes", "fuel:octane_98": "yes", "name": "Repsol", "opening_hours": "Mo-Su 06:00-20:00", "operator": "Repsol"}}, {"type": "node", "id": 860172649, "lat": 41.3972862, "lon": 2.1929844}, {"type": "node", "id": 3058781909, "lat": 41.4011849, "lon": 2.1999935, "tags": {"address": "C Pujades 176", "amenity": "bicycle_parking", "bicycle_parking": "stands", "capacity": "10", "operator": "http://ajuntament.barcelona.cat/bicicleta/ca", "website": "http://ajuntament.barcelona.cat/bicicleta/ca"}}, {"type": "node", "id": 3058781910, "lat": 41.4011083, "lon": 2.2000942, "tags": {"address": "C Pujades 176", "amenity": "bicycle_parking", "bicycle_parking": "stands", "capacity": "10", "covered": "no", "operator": "http://ajuntament.barcelona.cat/bicicleta/ca", "website": "http://ajuntament.barcelona.cat/bicicleta/ca"}}, {"type": "node", "id": 4280661017, "lat": 41.4001439, "lon": 2.1939931}, {"type": "node", "id": 4280661020, "lat": 41.400296, "lon": 2.1937936}, {"type": "node", "id": 4340445379, "lat": 41.4001482, "lon": 2.1935914}, {"type": "node", "id": 4340445383, "lat": 41.4000798, "lon": 2.193678}, {"type": "node", "id": 4340451032, "lat": 41.3994674, "lon": 2.1926912}, {"type": "node", "id": 5192158624, "lat": 41.3974606, "lon": 2.1968683, "tags": {"access": "yes", "amenity": "bicycle_parking", "bicycle_parking": "stands", "capacity": "10", "covered": "no", "fee": "no"}}, {"type": "node", "id": 5192158625, "lat": 41.3982831, "lon": 2.1983717, "tags": {"access": "yes", "amenity": "bicycle_parking", "capacity": "10", "covered": "no", "fee": "no"}}, {"type": "node", "id": 5192158722, "lat": 41.397048, "lon": 2.1947073, "tags": {"access": "yes", "address": "C Pujades 106", "amenity": "bicycle_parking", "bicycle_parking": "stands", "capacity": "10", "covered": "no", "fee": "no", "mapillary": "TETJcsH7afzQ5ylAIcPFAg", "operator": "http://ajuntament.barcelona.cat/bicicleta/ca", "survey:date": "2017-11-29", "website": "http://ajuntament.barcelona.cat/bicicleta/ca"}}, {"type": "node", "id": 5192190021, "lat": 41.3970845, "lon": 2.1953363, "tags": {"access": "yes", "address": "C \u00c0vila 71", "amenity": "bicycle_parking", "capacity": "10", "covered": "no", "fee": "no", "operator": "http://ajuntament.barcelona.cat/bicicleta/ca", "website": "http://ajuntament.barcelona.cat/bicicleta/ca"}}, {"type": "node", "id": 5772791454, "lat": 41.4000794, "lon": 2.1939126}, {"type": "node", "id": 6053179844, "lat": 41.4010114, "lon": 2.1996522, "tags": {"access": "private", "amenity": "parking_entrance"}}, {"type": "node", "id": 6053179858, "lat": 41.4012833, "lon": 2.2000119, "tags": {"access": "private", "amenity": "parking_entrance"}}, {"type": "node", "id": 6055668323, "lat": 41.400385, "lon": 2.200032, "tags": {"access": "private", "amenity": "parking_entrance"}}, {"type": "node", "id": 6055669726, "lat": 41.4006122, "lon": 2.1997316, "tags": {"access": "private", "amenity": "parking_entrance"}}, {"type": "node", "id": 6111551193, "lat": 41.4011787, "lon": 2.197307, "tags": {"access": "private", "amenity": "parking_entrance"}}, {"type": "node", "id": 6119733503, "lat": 41.3993502, "lon": 2.1977892, "tags": {"access": "private", "addr:housenumber": "142", "addr:postcode": "08005", "addr:street": "Carrer de Pujades", "amenity": "parking_entrance", "entrance": "yes"}}, {"type": "node", "id": 6119733506, "lat": 41.399087, "lon": 2.1981816, "tags": {"access": "private", "addr:housenumber": "27", "addr:postcode": "08005", "addr:street": "Passatge de Masoliver", "amenity": "parking_entrance"}}, {"type": "node", "id": 6119733507, "lat": 41.3990428, "lon": 2.1982406, "tags": {"access": "private", "amenity": "parking_entrance"}}, {"type": "node", "id": 6119733510, "lat": 41.3983983, "lon": 2.1981593, "tags": {"access": "private", "amenity": "parking_entrance"}}, {"type": "node", "id": 6119800668, "lat": 41.398257, "lon": 2.199269, "tags": {"access": "private", "amenity": "parking_entrance"}}, {"type": "node", "id": 6119838165, "lat": 41.3986735, "lon": 2.1992506, "tags": {"access": "private", "amenity": "parking_entrance"}}, {"type": "node", "id": 6121342548, "lat": 41.3987637, "lon": 2.1966734, "tags": {"access": "private", "amenity": "parking_entrance"}}, {"type": "node", "id": 6121342563, "lat": 41.3995754, "lon": 2.1958401, "tags": {"access": "private", "amenity": "parking_entrance"}}, {"type": "node", "id": 6121414659, "lat": 41.3987436, "lon": 2.1969785, "tags": {"access": "private", "amenity": "parking_entrance", "entrance": "yes"}}, {"type": "node", "id": 6121639410, "lat": 41.396782, "lon": 2.198943, "tags": {"access": "private", "addr:housenumber": "148", "addr:postcode": "08005", "addr:street": "Carrer de Ram\u00f3n Turr\u00f3", "amenity": "parking_entrance"}}, {"type": "node", "id": 6121712521, "lat": 41.3964046, "lon": 2.1998364, "tags": {"access": "private", "amenity": "parking_entrance"}}, {"type": "node", "id": 6123559746, "lat": 41.3968154, "lon": 2.1957433, "tags": {"access": "private", "amenity": "parking_entrance"}}, {"type": "node", "id": 6123559752, "lat": 41.3975341, "lon": 2.1953897, "tags": {"access": "private", "amenity": "parking_entrance"}}, {"type": "node", "id": 6123559777, "lat": 41.3978451, "lon": 2.1962852, "tags": {"access": "private", "amenity": "parking_entrance"}}, {"type": "node", "id": 6123559784, "lat": 41.3978868, "lon": 2.1958603, "tags": {"access": "customers", "amenity": "parking_entrance"}}, {"type": "node", "id": 6124130632, "lat": 41.3974599, "lon": 2.1930592}, {"type": "node", "id": 6124130643, "lat": 41.3974424, "lon": 2.1930956}, {"type": "node", "id": 6124130644, "lat": 41.3974827, "lon": 2.1930115}, {"type": "node", "id": 6124130654, "lat": 41.397464, "lon": 2.1929859}, {"type": "node", "id": 6124130656, "lat": 41.3974066, "lon": 2.1931701}, {"type": "node", "id": 6124130664, "lat": 41.3972457, "lon": 2.1930382}, {"type": "node", "id": 6124160307, "lat": 41.3971901, "lon": 2.1946078, "tags": {"access": "private", "amenity": "parking_entrance", "entrance": "yes"}}, {"type": "node", "id": 6124160377, "lat": 41.3973987, "lon": 2.1934462, "tags": {"access": "private", "amenity": "parking_entrance"}}, {"type": "node", "id": 6124160379, "lat": 41.3969167, "lon": 2.1934792, "tags": {"access": "private", "addr:housenumber": "70-82", "addr:street": "Carrer d'\u00c0laba", "amenity": "parking_entrance"}}, {"type": "node", "id": 6124160381, "lat": 41.3968488, "lon": 2.1941555, "tags": {"access": "private", "amenity": "parking_entrance"}}, {"type": "node", "id": 6124160382, "lat": 41.3969279, "lon": 2.1942605, "tags": {"access": "private", "amenity": "parking_entrance"}}, {"type": "node", "id": 6124244350, "lat": 41.3969521, "lon": 2.1952268, "tags": {"access": "private", "amenity": "parking_entrance"}}, {"type": "node", "id": 6124244351, "lat": 41.3970438, "lon": 2.1951038, "tags": {"access": "private", "amenity": "parking_entrance"}}, {"type": "node", "id": 6126847654, "lat": 41.397163, "lon": 2.1926623, "tags": {"access": "customers", "amenity": "parking_entrance"}}, {"type": "node", "id": 6133245833, "lat": 41.4009883, "lon": 2.1954538, "tags": {"access": "private", "amenity": "parking_entrance"}}, {"type": "node", "id": 6133245836, "lat": 41.4011593, "lon": 2.1962357, "tags": {"access": "customers", "amenity": "parking_entrance"}}, {"type": "node", "id": 6133307715, "lat": 41.3996455, "lon": 2.1942556, "tags": {"access": "private", "amenity": "parking_entrance"}}, {"type": "node", "id": 6133307721, "lat": 41.4002358, "lon": 2.1944528, "tags": {"access": "private", "amenity": "parking_entrance"}}, {"type": "node", "id": 6273962858, "lat": 41.3965963, "lon": 2.2003231, "tags": {"amenity": "charging_station"}}, {"type": "node", "id": 6416164463, "lat": 41.4001979, "lon": 2.193197, "tags": {"access": "private", "amenity": "parking_entrance"}}, {"type": "node", "id": 6416164483, "lat": 41.399272, "lon": 2.1928353}, {"type": "node", "id": 6416165585, "lat": 41.3993824, "lon": 2.1928403}, {"type": "node", "id": 6416165590, "lat": 41.3994217, "lon": 2.1926279}, {"type": "node", "id": 6416165593, "lat": 41.3994328, "lon": 2.1928351}, {"type": "node", "id": 6416165596, "lat": 41.3994599, "lon": 2.1926807}, {"type": "node", "id": 6416165604, "lat": 41.3993959, "lon": 2.1929255}, {"type": "node", "id": 6416165605, "lat": 41.3994221, "lon": 2.1927855}, {"type": "node", "id": 6416165609, "lat": 41.3993597, "lon": 2.1928927}, {"type": "node", "id": 6416165624, "lat": 41.3994213, "lon": 2.1928351}, {"type": "node", "id": 6416165639, "lat": 41.3993909, "lon": 2.1925856}, {"type": "node", "id": 6416165644, "lat": 41.3992347, "lon": 2.1927852}, {"type": "node", "id": 6416165648, "lat": 41.3992397, "lon": 2.1925821}, {"type": "node", "id": 6933372992, "lat": 41.39658, "lon": 2.19864, "tags": {"address": "C Ramon Turr\u00f3 142", "amenity": "bicycle_parking", "operator": "http://ajuntament.barcelona.cat/bicicleta/ca", "website": "http://ajuntament.barcelona.cat/bicicleta/ca"}}, {"type": "node", "id": 6933487008, "lat": 41.39752, "lon": 2.1967, "tags": {"address": "C Badajoz 65", "amenity": "bicycle_parking", "operator": "http://ajuntament.barcelona.cat/bicicleta/ca", "website": "http://ajuntament.barcelona.cat/bicicleta/ca"}}, {"type": "node", "id": 6933487115, "lat": 41.40007, "lon": 2.19839, "tags": {"address": "C Pujades 137", "amenity": "bicycle_parking", "operator": "http://ajuntament.barcelona.cat/bicicleta/ca", "website": "http://ajuntament.barcelona.cat/bicicleta/ca"}}, {"type": "node", "id": 6933487892, "lat": 41.39745, "lon": 2.19981, "tags": {"address": "C Ramon Turr\u00f3 162", "amenity": "bicycle_parking", "operator": "http://ajuntament.barcelona.cat/bicicleta/ca", "website": "http://ajuntament.barcelona.cat/bicicleta/ca"}}, {"type": "node", "id": 6933487897, "lat": 41.40129, "lon": 2.20009, "tags": {"address": "C Pujades 165", "amenity": "bicycle_parking", "operator": "http://ajuntament.barcelona.cat/bicicleta/ca", "website": "http://ajuntament.barcelona.cat/bicicleta/ca"}}, {"type": "node", "id": 6933490891, "lat": 41.39743, "lon": 2.19932, "tags": {"address": "C Ciutat de Granada 28", "amenity": "bicycle_parking", "operator": "http://ajuntament.barcelona.cat/bicicleta/ca", "website": "http://ajuntament.barcelona.cat/bicicleta/ca"}}, {"type": "node", "id": 6933490892, "lat": 41.3965, "lon": 2.19853, "tags": {"address": "C Ramon Turr\u00f3 140", "amenity": "bicycle_parking", "operator": "http://ajuntament.barcelona.cat/bicicleta/ca", "website": "http://ajuntament.barcelona.cat/bicicleta/ca"}}, {"type": "node", "id": 6933490940, "lat": 41.39717, "lon": 2.19323, "tags": {"address": "C \u00c0laba 84", "amenity": "bicycle_parking", "bicycle_parking": "ground_slots", "mapillary": "H_Y1BF1UHbyWIr6sfGMiWg", "operator": "http://ajuntament.barcelona.cat/bicicleta/ca", "survey:date": "2019-04-26", "website": "http://ajuntament.barcelona.cat/bicicleta/ca"}}, {"type": "node", "id": 6933492809, "lat": 41.39668, "lon": 2.20027, "tags": {"address": "C Ciutat de Granada 15", "amenity": "bicycle_parking", "operator": "http://ajuntament.barcelona.cat/bicicleta/ca", "website": "http://ajuntament.barcelona.cat/bicicleta/ca"}}, {"type": "node", "id": 6933494052, "lat": 41.39758, "lon": 2.19911, "tags": {"address": "C Ciutat de Granada 30", "amenity": "bicycle_parking", "bicycle_parking": "stands", "capacity": "18", "covered": "no", "operator": "http://ajuntament.barcelona.cat/bicicleta/ca", "website": "http://ajuntament.barcelona.cat/bicicleta/ca"}}, {"type": "node", "id": 6933504720, "lat": 41.4012, "lon": 2.19798, "tags": {"address": "C Pallars 202", "amenity": "bicycle_parking", "operator": "http://ajuntament.barcelona.cat/bicicleta/ca", "website": "http://ajuntament.barcelona.cat/bicicleta/ca"}}, {"type": "node", "id": 6933504748, "lat": 41.40023, "lon": 2.19991, "tags": {"address": "C Llacuna 49", "amenity": "bicycle_parking", "capacity": "10", "operator": "http://ajuntament.barcelona.cat/bicicleta/ca", "website": "http://ajuntament.barcelona.cat/bicicleta/ca"}}, {"type": "node", "id": 6933504757, "lat": 41.39847, "lon": 2.19344, "tags": {"address": "C \u00c0vila 99", "amenity": "bicycle_parking", "bicycle_parking": "ground_slots", "mapillary": "VrmtdIilzxuX15I2vF_nuw", "operator": "http://ajuntament.barcelona.cat/bicicleta/ca", "survey:date": "2019-04-26", "website": "http://ajuntament.barcelona.cat/bicicleta/ca"}}, {"type": "node", "id": 6933504772, "lat": 41.39763, "lon": 2.19979, "tags": {"address": "C Ramon Turr\u00f3 149", "amenity": "bicycle_parking", "operator": "http://ajuntament.barcelona.cat/bicicleta/ca", "website": "http://ajuntament.barcelona.cat/bicicleta/ca"}}, {"type": "node", "id": 6933504985, "lat": 41.39794, "lon": 2.20046, "tags": {"address": "C Ramon Turr\u00f3 178", "amenity": "bicycle_parking", "operator": "http://ajuntament.barcelona.cat/bicicleta/ca", "website": "http://ajuntament.barcelona.cat/bicicleta/ca"}}, {"type": "node", "id": 6933504998, "lat": 41.3995, "lon": 2.19772, "tags": {"address": "C Pujades 127", "amenity": "bicycle_parking", "covered": "no", "operator": "http://ajuntament.barcelona.cat/bicicleta/ca", "website": "http://ajuntament.barcelona.cat/bicicleta/ca"}}, {"type": "node", "id": 6933504999, "lat": 41.39852, "lon": 2.19641, "tags": {"address": "C Pujades 105", "amenity": "bicycle_parking", "operator": "http://ajuntament.barcelona.cat/bicicleta/ca", "website": "http://ajuntament.barcelona.cat/bicicleta/ca"}}, {"type": "node", "id": 6933505041, "lat": 41.40052, "lon": 2.19529, "tags": {"address": "C Ciutat de Granada 91", "amenity": "bicycle_parking", "operator": "http://ajuntament.barcelona.cat/bicicleta/ca", "website": "http://ajuntament.barcelona.cat/bicicleta/ca"}}, {"type": "node", "id": 6933505042, "lat": 41.39846, "lon": 2.19797, "tags": {"address": "C Ciutat de Granada 50", "amenity": "bicycle_parking", "bicycle_parking": "stands", "covered": "no", "operator": "http://ajuntament.barcelona.cat/bicicleta/ca", "website": "http://ajuntament.barcelona.cat/bicicleta/ca"}}, {"type": "node", "id": 6933505085, "lat": 41.39709, "lon": 2.19932, "tags": {"address": "C Ramon Turr\u00f3 156", "amenity": "bicycle_parking", "operator": "http://ajuntament.barcelona.cat/bicicleta/ca", "website": "http://ajuntament.barcelona.cat/bicicleta/ca"}}, {"type": "node", "id": 6933505421, "lat": 41.39828, "lon": 2.19821, "tags": {"address": "C Ciutat de Granada 44", "amenity": "bicycle_parking", "bicycle_parking": "stands", "capacity": "10", "covered": "no", "mapillary": "RTnc0y9D2RHMZ7-Kxrrd3Q", "operator": "http://ajuntament.barcelona.cat/bicicleta/ca", "survey:date": "2019-04-30", "website": "http://ajuntament.barcelona.cat/bicicleta/ca"}}, {"type": "node", "id": 6933505431, "lat": 41.40009, "lon": 2.19649, "tags": {"address": "C Pallars 172", "amenity": "bicycle_parking", "operator": "http://ajuntament.barcelona.cat/bicicleta/ca", "website": "http://ajuntament.barcelona.cat/bicicleta/ca"}}, {"type": "node", "id": 6933505496, "lat": 41.39788, "lon": 2.19558, "tags": {"address": "C Pujades 93", "amenity": "bicycle_parking", "operator": "http://ajuntament.barcelona.cat/bicicleta/ca", "website": "http://ajuntament.barcelona.cat/bicicleta/ca"}}, {"type": "node", "id": 6933505529, "lat": 41.40012, "lon": 2.19581, "tags": {"address": "C Ciutat de Granada 90", "amenity": "bicycle_parking", "operator": "http://ajuntament.barcelona.cat/bicicleta/ca", "website": "http://ajuntament.barcelona.cat/bicicleta/ca"}}, {"type": "node", "id": 6933505576, "lat": 41.39976, "lon": 2.19627, "tags": {"address": "C Ciutat de Granada 81", "amenity": "bicycle_parking", "operator": "http://ajuntament.barcelona.cat/bicicleta/ca", "website": "http://ajuntament.barcelona.cat/bicicleta/ca"}}, {"type": "node", "id": 6933509488, "lat": 41.39929, "lon": 2.19543, "tags": {"address": "C Pallars 156", "amenity": "bicycle_parking", "operator": "http://ajuntament.barcelona.cat/bicicleta/ca", "website": "http://ajuntament.barcelona.cat/bicicleta/ca"}}, {"type": "node", "id": 6933509489, "lat": 41.39785, "lon": 2.19355, "tags": {"address": "C Pallars 138", "amenity": "bicycle_parking", "operator": "http://ajuntament.barcelona.cat/bicicleta/ca", "website": "http://ajuntament.barcelona.cat/bicicleta/ca"}}, {"type": "node", "id": 6933509546, "lat": 41.39725, "lon": 2.19966, "tags": {"address": "C Ciutat de Granada 26", "amenity": "bicycle_parking", "operator": "http://ajuntament.barcelona.cat/bicicleta/ca", "website": "http://ajuntament.barcelona.cat/bicicleta/ca"}}, {"type": "node", "id": 6933509786, "lat": 41.39803, "lon": 2.19855, "tags": {"address": "C Ciutat de Granada 42", "amenity": "bicycle_parking", "operator": "http://ajuntament.barcelona.cat/bicicleta/ca", "website": "http://ajuntament.barcelona.cat/bicicleta/ca"}}, {"type": "node", "id": 6933509818, "lat": 41.39925, "lon": 2.19694, "tags": {"address": "C Ciutat de Granada 74", "amenity": "bicycle_parking", "operator": "http://ajuntament.barcelona.cat/bicicleta/ca", "website": "http://ajuntament.barcelona.cat/bicicleta/ca"}}, {"type": "node", "id": 6933511619, "lat": 41.40138, "lon": 2.2005, "tags": {"address": "C Pujades 184", "amenity": "bicycle_parking", "operator": "http://ajuntament.barcelona.cat/bicicleta/ca", "website": "http://ajuntament.barcelona.cat/bicicleta/ca"}}, {"type": "node", "id": 6933513692, "lat": 41.40099, "lon": 2.19892, "tags": {"address": "C Llacuna 63", "amenity": "bicycle_parking", "operator": "http://ajuntament.barcelona.cat/bicicleta/ca", "website": "http://ajuntament.barcelona.cat/bicicleta/ca"}}, {"type": "node", "id": 6933519485, "lat": 41.39837, "lon": 2.20013, "tags": {"address": "C Roc Boronat 31", "amenity": "bicycle_parking", "operator": "http://ajuntament.barcelona.cat/bicicleta/ca", "website": "http://ajuntament.barcelona.cat/bicicleta/ca"}}, {"type": "node", "id": 6933522087, "lat": 41.40001, "lon": 2.19596, "tags": {"address": "C Ciutat de Granada 88", "amenity": "bicycle_parking", "operator": "http://ajuntament.barcelona.cat/bicicleta/ca", "website": "http://ajuntament.barcelona.cat/bicicleta/ca"}}, {"type": "node", "id": 6933528285, "lat": 41.39777, "lon": 2.19638, "tags": {"address": "C Badajoz 73", "amenity": "bicycle_parking", "operator": "http://ajuntament.barcelona.cat/bicicleta/ca", "website": "http://ajuntament.barcelona.cat/bicicleta/ca"}}, {"type": "node", "id": 6974004798, "lat": 41.40004, "lon": 2.20082, "tags": {"address": "C Llull 161", "amenity": "taxi", "website": "www.taxibarcelona.cat"}}, {"type": "node", "id": 6974004803, "lat": 41.39719, "lon": 2.19271, "tags": {"address": "C \u00c0laba 75", "amenity": "taxi", "website": "www.taxibarcelona.cat"}}, {"type": "node", "id": 6974007087, "lat": 41.39727, "lon": 2.19694, "tags": {"address": "C Llull 111", "amenity": "taxi", "website": "www.taxibarcelona.cat"}}, {"type": "node", "id": 6974013791, "lat": 41.40112, "lon": 2.19435, "tags": {"address": "C Ciutat de Granada 99", "amenity": "taxi", "website": "www.taxibarcelona.cat"}}, {"type": "node", "id": 6974014301, "lat": 41.40072, "lon": 2.19286, "tags": {"address": "C Badajoz 126", "amenity": "taxi", "website": "www.taxibarcelona.cat"}}, {"type": "node", "id": 8062388108, "lat": 41.4009572, "lon": 2.1976733, "tags": {"amenity": "parking_entrance", "name": "Platinum@BCN"}}, {"type": "way", "id": 436166611, "nodes": [4340445379, 4280661020, 4280661017, 5772791454, 4340445383, 4340445379], "tags": {"amenity": "fuel", "brand": "Petroprix", "name": "Petroprix", "opening_hours": "Mo-Su,PH 12:00+", "operator": "Petroprix"}}, {"type": "way", "id": 436167068, "nodes": [6416165590, 6416165596, 4340451032, 839472023, 6416165605, 6416165624, 6416165593, 6416165604, 6416165609, 6416165585, 6416164483, 6416165644, 6416165648, 6416165639, 6416165590], "tags": {"amenity": "fuel", "brand": "BP", "brand:wikidata": "Q152057", "brand:wikipedia": "es:BP", "building": "industrial", "building:levels": "2", "fuel:GTL_diesel": "yes", "fuel:diesel": "yes", "fuel:octane_95": "yes", "fuel:octane_98": "yes", "name": "BP", "opening_hours": "Mo-Fr 06:00-23:00; Sa 06:00-00:00; Su 06:00-22:00", "source": "Ministerio de Industria, Turismo y Comercio", "source:date": "2010-08-06"}}, {"type": "way", "id": 653464313, "nodes": [6124130654, 6124130644, 6124130632, 6124130643, 6124130656, 6124130664, 860172649, 6124130654], "tags": {"addr:housenumber": "79", "addr:street": "Carrer de Pere IV", "amenity": "fuel", "brand": "Evolution Oil", "building": "roof", "building:levels": "1", "email": "info@evolutionoil.es", "fuel:GTL_diesel": "yes", "fuel:diesel": "yes", "fuel:octane_95": "yes", "fuel:octane_98": "yes", "name": "Evolution - Pere IV", "opening_hours": "24/7", "phone": "+34 600 22 18 58", "self_service": "yes", "source": "https://www.evolutionoil.es/pedro-iv"}}]}