{"version": 0.6, "generator": "Overpass API 0.7.58.5 b0c4acbb", "osm3s": {"timestamp_osm_base": "2022-09-05T11:37:34Z", "copyright": "The data included in this document is from www.openstreetmap.org. The data is made available under ODbL."}, "elements": [{"type": "node", "id": 1740040531, "lat": 40.422763, "lon": -3.6806427, "tags": {"addr:city": "Madrid", "addr:country": "ES", "addr:housenumber": "121", "addr:postcode": "28009", "addr:street": "Calle de Alcal\u00e1", "name": "Peluquer\u00eda Moderna", "shop": "hairdresser"}}, {"type": "node", "id": 2352834708, "lat": 40.423863, "lon": -3.6879042, "tags": {"brand": "Camper", "brand:wikidata": "Q1030922", "brand:wikipedia": "en:Camper (company)", "name": "Camper", "shop": "shoes", "source": "survey"}}, {"type": "node", "id": 2352834709, "lat": 40.4226354, "lon": -3.6881045, "tags": {"name": "Carolina Herrera", "payment:bitcoin": "yes", "shop": "clothes", "source": "survey"}}, {"type": "node", "id": 2377017681, "lat": 40.4240656, "lon": -3.6878536, "tags": {"addr:city": "Madrid", "addr:housenumber": "26", "addr:street": "Calle de Serrano", "name": "Rabat", "payment:bitcoin": "yes", "shop": "watches", "source": "survey"}}, {"type": "node", "id": 2377017686, "lat": 40.4242627, "lon": -3.6878351, "tags": {"addr:city": "Madrid", "addr:housenumber": "26", "addr:street": "Calle de Serrano", "brand": "Prada", "brand:wikidata": "Q193136", "brand:wikipedia": "en:Prada", "name": "Prada", "payment:bitcoin": "yes", "shop": "clothes", "source": "survey"}}, {"type": "node", "id": 2377614871, "lat": 40.4246888, "lon": -3.677002, "tags": {"name": "Antonio Parriego", "shop": "shoes", "source": "survey"}}, {"type": "node", "id": 2377614878, "lat": 40.4247178, "lon": -3.6773914, "tags": {"name": "Dama de Copas", "shop": "shoes", "source": "survey"}}, {"type": "node", "id": 2574323756, "lat": 40.4227529, "lon": -3.6870522, "tags": {"addr:city": "Madrid", "addr:housenumber": "19", "addr:postcode": "28001", "addr:street": "Calle de Claudio Coello", "name": "Avirex", "opening_hours": "Mo-Sa 10:00-20:30", "shop": "clothes"}}, {"type": "node", "id": 2615463391, "lat": 40.4254205, "lon": -3.685241, "tags": {"brand": "Tous", "brand:wikidata": "Q3815128", "brand:wikipedia": "en:Tous (company)", "name": "Tous", "shop": "jewelry", "source": "survey"}}, {"type": "node", "id": 2620304711, "lat": 40.4252958, "lon": -3.6826345, "tags": {"addr:city": "Madrid", "addr:country": "ES", "addr:housenumber": "47", "addr:postcode": "28001", "addr:street": "Calle de Goya", "name": "Zapatos Antonio Parriego", "shop": "shoes", "source": "survey"}}, {"type": "node", "id": 2621636935, "lat": 40.4251717, "lon": -3.6798165, "tags": {"brand": "Oysho", "brand:wikidata": "Q3327046", "brand:wikipedia": "en:Oysho", "name": "Oysho", "shop": "clothes", "source": "survey"}}, {"type": "node", "id": 2621636936, "lat": 40.4251622, "lon": -3.6805403, "tags": {"beauty": "cosmetics", "brand": "Yves Rocher", "brand:wikidata": "Q28496595", "brand:wikipedia": "en:Yves Rocher (company)", "name": "Yves Rocher", "shop": "beauty", "source": "survey"}}, {"type": "node", "id": 2621636937, "lat": 40.4251774, "lon": -3.6803386, "tags": {"brand": "United Colors of Benetton", "brand:wikidata": "Q817139", "brand:wikipedia": "en:Benetton Group", "name": "United Colors of Benetton", "shop": "clothes", "short_name": "Benetton", "source": "survey"}}, {"type": "node", "id": 2627702743, "lat": 40.4321964, "lon": -3.6719463, "tags": {"name": "Mulaya", "shop": "clothes", "source": "survey"}}, {"type": "node", "id": 2642295711, "lat": 40.4265529, "lon": -3.6865218, "tags": {"addr:city": "Madrid", "addr:housenumber": "15", "addr:postcode": "28001", "addr:street": "Calle de Hermosilla", "name": "& Other Stories", "old_name": "Restaurante Teatriz", "opening_hours": "Mo-Su 10:00-21:00", "shop": "clothes", "website": "https://www.stories.com/es/"}}, {"type": "node", "id": 2927924235, "lat": 40.4271061, "lon": -3.6877225, "tags": {"addr:city": "Madrid", "addr:housenumber": "27", "addr:postcode": "28001", "addr:street": "Calle de Serrano", "name": "\u00c1gatha Ruiz de la Prada", "payment:bitcoin": "yes", "shop": "clothes", "website": "https://www.agatharuizdelaprada.com/"}}, {"type": "node", "id": 3006727460, "lat": 40.4261314, "lon": -3.6784527, "tags": {"addr:city": "Madrid", "addr:country": "ES", "addr:housenumber": "75", "addr:postcode": "28001", "addr:street": "Calle de Hermosilla", "name": "Cuyl\u00e1s", "opening_hours": "Mo-Fr 10:30-20:30; Sa 10:30-14:30,16:30-20:30; Dec Su 10:30-14:30,16:30-20:30", "phone": "+34 914361085", "shop": "clothes", "website": "https://www.cuylas.com/", "wheelchair": "yes"}}, {"type": "node", "id": 3094565361, "lat": 40.4238748, "lon": -3.6835752, "tags": {"addr:city": "Madrid", "addr:housenumber": "31", "addr:postcode": "28001", "addr:street": "Calle de Jorge Juan", "name": "Scotta1985", "payment:bitcoin": "yes", "shop": "clothes", "website": "https://www.scotta1985.com/"}}, {"type": "node", "id": 3097040793, "lat": 40.4334919, "lon": -3.6864374, "tags": {"addr:city": "Madrid", "addr:housenumber": "98", "addr:postcode": "28006", "addr:street": "Calle de Serrano", "name": "Ibermaison", "payment:bitcoin": "yes", "phone": "+34 914 26 28 37", "shop": "boutique", "website": "https://ibermaison.com/"}}, {"type": "node", "id": 3097584268, "lat": 40.4306584, "lon": -3.6876426, "tags": {"addr:city": "Madrid", "addr:housenumber": "5", "addr:postcode": "28006", "addr:street": "Calle de Jos\u00e9 Ortega y Gasset", "name": "New Town Market", "payment:bitcoin": "yes", "shop": "clothes"}}, {"type": "node", "id": 3135915680, "lat": 40.4248597, "lon": -3.6807534, "tags": {"name": "The Shoe Collection", "shop": "shoes"}}, {"type": "node", "id": 3135943329, "lat": 40.4253007, "lon": -3.6829733, "tags": {"addr:city": "Madrid", "addr:country": "ES", "addr:housenumber": "45", "addr:postcode": "28001", "addr:street": "Calle de Goya", "brand": "KIKO Milano", "brand:wikidata": "Q3812045", "brand:wikipedia": "it:KIKO", "name": "KIKO Milano", "shop": "cosmetics"}}, {"type": "node", "id": 3195842281, "lat": 40.4346408, "lon": -3.6845674, "tags": {"addr:city": "Madrid", "addr:housenumber": "107", "addr:postcode": "28006", "addr:street": "Calle de Lagasca", "name": "Crownhill Shoes", "payment:bitcoin": "yes", "shop": "clothes", "website": "https://www.crownhillshoes.com/"}}, {"type": "node", "id": 3231361081, "lat": 40.4248735, "lon": -3.680495, "tags": {"addr:city": "Madrid", "addr:country": "ES", "addr:housenumber": "40", "addr:postcode": "28001", "addr:street": "Calle de Goya", "name": "Pilar Prieto", "phone": "+34 915 75 21 40", "shop": "clothes"}}, {"type": "node", "id": 3448545211, "lat": 40.4283934, "lon": -3.6756344, "tags": {"addr:city": "Madrid", "addr:housenumber": "37", "addr:postcode": "28006", "addr:street": "Calle del Conde de Pe\u00f1alver", "brand": "Clarks", "brand:wikidata": "Q1095857", "brand:wikipedia": "en:C. & J. Clark", "contact:phone": "+34 91 4012384", "contact:website": "http://www.clarks.es/", "name": "Clarks", "shop": "shoes"}}, {"type": "node", "id": 3450069973, "lat": 40.4266506, "lon": -3.6842113, "tags": {"addr:city": "Madrid", "addr:housenumber": "41", "addr:postcode": "28001", "addr:street": "Calle de Vel\u00e1zquez", "brand": "Sephora", "brand:wikidata": "Q2408041", "brand:wikipedia": "en:Sephora", "name": "Sephora", "shop": "cosmetics"}}, {"type": "node", "id": 3579363551, "lat": 40.4293804, "lon": -3.6858442, "tags": {"addr:city": "Madrid", "addr:housenumber": "72", "addr:postcode": "28001", "addr:street": "Calle de Claudio Coello", "name": "Miu Miu", "shop": "clothes"}}, {"type": "node", "id": 3691975460, "lat": 40.4249599, "lon": -3.6759317, "tags": {"brand": "Sfera", "brand:wikidata": "Q110065666", "clothes": "fashion", "name": "Sfera", "shop": "clothes", "source": "survey"}}, {"type": "node", "id": 3903740882, "lat": 40.4237502, "lon": -3.6860969, "tags": {"name": "Aspesi", "shop": "clothes"}}, {"type": "node", "id": 3903740884, "lat": 40.4239622, "lon": -3.6861932, "tags": {"name": "Berwick 1707", "shop": "clothes"}}, {"type": "node", "id": 3903740885, "lat": 40.4236601, "lon": -3.6861054, "tags": {"name": "B\u00faho", "shop": "clothes"}}, {"type": "node", "id": 3903740886, "lat": 40.4239658, "lon": -3.6863017, "tags": {"name": "Church's", "shop": "clothes"}}, {"type": "node", "id": 3903740887, "lat": 40.4236578, "lon": -3.6840415, "tags": {"name": "Cremieux", "shop": "clothes"}}, {"type": "node", "id": 3903740888, "lat": 40.4235563, "lon": -3.6867018, "tags": {"name": "Delitto e Castigo", "shop": "clothes"}}, {"type": "node", "id": 3903740889, "lat": 40.4235779, "lon": -3.6859658, "tags": {"brand": "El Ganso", "brand:wikidata": "Q51955203", "brand:wikipedia": "es:El Ganso (cadena de tiendas)", "name": "El Ganso", "shop": "clothes"}}, {"type": "node", "id": 3903740891, "lat": 40.4236788, "lon": -3.6859491, "tags": {"name": "Glent", "shop": "clothes"}}, {"type": "node", "id": 3903740892, "lat": 40.4237542, "lon": -3.6859451, "tags": {"brand": "Hackett London", "brand:wikidata": "Q1136426", "brand:wikipedia": "en:Hackett London", "clothes": "men", "name": "Hackett London", "shop": "clothes"}}, {"type": "node", "id": 3903740893, "lat": 40.4235962, "lon": -3.6861118, "tags": {"name": "Hadas", "shop": "clothes"}}, {"type": "node", "id": 3903740894, "lat": 40.4237369, "lon": -3.6854147, "tags": {"name": "Jo Malone", "shop": "clothes", "wheelchair": "no"}}, {"type": "node", "id": 3903740895, "lat": 40.4239531, "lon": -3.6859207, "tags": {"addr:city": "Madrid", "addr:housenumber": "15", "addr:postcode": "28001", "addr:street": "Calle de Jorge Juan", "name": "Kenzo", "phone": "+34 914 35 65 93", "shop": "clothes"}}, {"type": "node", "id": 3903740898, "lat": 40.4234131, "lon": -3.6861393, "tags": {"name": "Marni", "shop": "clothes"}}, {"type": "node", "id": 3903740904, "lat": 40.4230703, "lon": -3.6861854, "tags": {"name": "Scooter", "shop": "clothes"}}, {"type": "node", "id": 3903740906, "lat": 40.4239559, "lon": -3.6860048, "tags": {"name": "Villebrequin", "shop": "clothes"}}, {"type": "node", "id": 3903740911, "lat": 40.4234002, "lon": -3.685987, "tags": {"name": "\u00c1ngel Schlesser", "shop": "clothes"}}, {"type": "node", "id": 4140732307, "lat": 40.4278107, "lon": -3.6875962, "tags": {"addr:street": "Calle de Ayala", "name": "Roberto Verino", "shop": "clothes"}}, {"type": "node", "id": 4242211889, "lat": 40.4234367, "lon": -3.6856734, "tags": {"name": "Patricia Avenda\u00f1o", "shop": "clothes"}}, {"type": "node", "id": 4242211890, "lat": 40.4233224, "lon": -3.6856874, "tags": {"name": "Llongueras", "shop": "hairdresser"}}, {"type": "node", "id": 4288518691, "lat": 40.4256245, "lon": -3.6875479, "tags": {"brand": "Salvatore Ferragamo", "brand:wikidata": "Q3946053", "brand:wikipedia": "en:Salvatore Ferragamo S.p.A.", "name": "Salvatore Ferragamo", "shop": "shoes"}}, {"type": "node", "id": 4288679690, "lat": 40.4261875, "lon": -3.6851574, "tags": {"addr:city": "Madrid", "addr:street": "Calle de Lagasca", "name": "Maksu", "shop": "clothes"}}, {"type": "node", "id": 4305379991, "lat": 40.4237752, "lon": -3.6861639, "tags": {"name": "Pedro Garcia", "shop": "shoes"}}, {"type": "node", "id": 4440091189, "lat": 40.4284357, "lon": -3.6870677, "tags": {"shop": "jewelry"}}, {"type": "node", "id": 4461044990, "lat": 40.4252036, "lon": -3.6874657, "tags": {"addr:city": "Madrid", "addr:country": "ES", "addr:housenumber": "4", "addr:postcode": "28001", "addr:street": "Calle de Goya", "brand": "Prada", "brand:wikidata": "Q193136", "brand:wikipedia": "en:Prada", "name": "Prada", "shop": "clothes"}}, {"type": "node", "id": 4461044991, "lat": 40.4263169, "lon": -3.6878974, "tags": {"addr:city": "Madrid", "addr:country": "ES", "addr:housenumber": "23", "addr:postcode": "28001", "addr:street": "Calle de Serrano", "alt_name": "Zara Serrano", "brand": "Zara", "brand:wikidata": "Q147662", "brand:wikipedia": "en:Zara (retailer)", "name": "Zara", "phone": "+34 914 36 31 58", "shop": "clothes", "website": "https://www.zara.com/es/"}}, {"type": "node", "id": 4461044992, "lat": 40.4306268, "lon": -3.687095, "tags": {"addr:housenumber": "49", "addr:street": "Calle de Serrano", "brand": "Gucci", "brand:wikidata": "Q178516", "brand:wikipedia": "en:Gucci", "name": "Gucci", "shop": "clothes"}}, {"type": "node", "id": 4461044993, "lat": 40.4305692, "lon": -3.6861492, "tags": {"addr:housenumber": "13", "addr:street": "Calle de Jos\u00e9 Ortega y Gasset", "name": "Bottega Veneta", "shop": "bag"}}, {"type": "node", "id": 4461044994, "lat": 40.4302438, "lon": -3.6854079, "tags": {"addr:city": "Madrid", "addr:country": "ES", "addr:housenumber": "12", "addr:postcode": "28006", "addr:street": "Calle de Jos\u00e9 Ortega y Gasset", "brand": "Herm\u00e8s", "brand:wikidata": "Q843887", "brand:wikipedia": "en:Herm\u00e8s", "name": "Herm\u00e8s", "name:en": "Hermes", "shop": "clothes"}}, {"type": "node", "id": 4461044995, "lat": 40.4305399, "lon": -3.6854471, "tags": {"addr:housenumber": "17", "addr:street": "Calle de Jos\u00e9 Ortega y Gasset", "brand": "Tod's", "brand:wikidata": "Q1342350", "brand:wikipedia": "en:Tod's", "name": "Tod's", "shop": "shoes"}}, {"type": "node", "id": 4461053389, "lat": 40.4296402, "lon": -3.6868844, "tags": {"addr:housenumber": "66", "addr:street": "Calle de Serrano", "brand": "Louis Vuitton", "brand:wikidata": "Q191485", "brand:wikipedia": "en:Louis Vuitton", "name": "Louis Vuitton", "opening_hours": "Mo-Th 10:30-20:30; Fr-Sa 10:30-21:00; Su 12:00-20:00", "shop": "clothes"}}, {"type": "node", "id": 4461053390, "lat": 40.4291923, "lon": -3.6873531, "tags": {"addr:housenumber": "45", "addr:street": "Calle de Serrano", "name": "Rolex", "shop": "jewelry"}}, {"type": "node", "id": 4461053489, "lat": 40.4252093, "lon": -3.6876806, "tags": {"addr:housenumber": "34", "addr:street": "Calle de Serrano", "name": "LOEWE", "shop": "bag"}}, {"type": "node", "id": 4461053589, "lat": 40.4270153, "lon": -3.687341, "tags": {"addr:housenumber": "46", "addr:street": "Calle de Serrano", "name": "Furla", "shop": "bag"}}, {"type": "node", "id": 4461053789, "lat": 40.4310834, "lon": -3.6866607, "tags": {"addr:housenumber": "78", "addr:street": "Calle de Serrano", "brand": "Rimowa", "brand:wikidata": "Q1287437", "brand:wikipedia": "en:Rimowa", "name": "Rimowa", "name:en": "RIMOWA", "shop": "bag"}}, {"type": "node", "id": 4461053889, "lat": 40.4301667, "lon": -3.6846532, "tags": {"addr:housenumber": "16", "addr:street": "Calle de Jos\u00e9 Ortega y Gasset", "brand": "Chanel", "brand:wikidata": "Q218115", "brand:wikipedia": "en:Chanel", "name": "Chanel", "opening_hours": "Mo-Sa 11:00-19:00; PH closed", "phone": "+34 914 31 30 36", "shop": "clothes"}}, {"type": "node", "id": 4486113389, "lat": 40.4253865, "lon": -3.6851765, "tags": {"name": "Aristocrazy", "name:es": "Aristocrazy", "shop": "jewelry"}}, {"type": "node", "id": 4490956089, "lat": 40.425452, "lon": -3.6860852, "tags": {"name": "Brandy Melvile", "shop": "clothes"}}, {"type": "node", "id": 4505415847, "lat": 40.4239618, "lon": -3.6857026, "tags": {"addr:city": "Madrid", "addr:housenumber": "15", "addr:postcode": "28001", "addr:street": "Calle de Jorge Juan", "brand": "El Ganso", "brand:wikidata": "Q51955203", "brand:wikipedia": "es:El Ganso (cadena de tiendas)", "name": "El Ganso", "phone": "+34 914 35 86 97", "shop": "clothes", "website": "https://www.elganso.com/es/"}}, {"type": "node", "id": 4554286489, "lat": 40.4249904, "lon": -3.6832196, "tags": {"addr:city": "Madrid", "addr:country": "ES", "addr:housenumber": "22", "addr:postcode": "28001", "addr:street": "Calle de Goya", "name": "Perfumer\u00eda Primor", "name:es": "Perfumer\u00eda Primor", "opening_hours": "Mo-Sa 09:30-21:30", "phone": "+34 810520858", "shop": "perfumery", "website": "http://www.franckprovost.es"}}, {"type": "node", "id": 4576234309, "lat": 40.4275667, "lon": -3.6841293, "tags": {"name": "Colour Nude", "shop": "clothes", "source": "survey"}}, {"type": "node", "id": 4576234316, "lat": 40.4279175, "lon": -3.6860535, "tags": {"name": "Uterq\u00fce", "shop": "clothes", "source": "survey"}}, {"type": "node", "id": 4576234318, "lat": 40.4283005, "lon": -3.6871138, "tags": {"brand": "Intimissimi", "brand:wikidata": "Q305404", "brand:wikipedia": "en:Intimissimi", "clothes": "underwear", "name": "Intimissimi", "shop": "clothes", "source": "survey"}}, {"type": "node", "id": 4576234320, "lat": 40.4279639, "lon": -3.6871608, "tags": {"name": "Miu Miu", "shop": "shoes", "source": "survey"}}, {"type": "node", "id": 4576234321, "lat": 40.4273845, "lon": -3.687277, "tags": {"brand": "Tous", "brand:wikidata": "Q3815128", "brand:wikipedia": "en:Tous (company)", "name": "Tous", "shop": "jewelry", "source": "survey"}}, {"type": "node", "id": 4576234327, "lat": 40.4265837, "lon": -3.6874084, "tags": {"brand": "Swarovski", "brand:wikidata": "Q611115", "brand:wikipedia": "en:Swarovski", "name": "Swarovski", "shop": "jewelry", "source": "survey"}}, {"type": "node", "id": 4576234349, "lat": 40.4245033, "lon": -3.6878092, "tags": {"brand": "Hugo Boss", "brand:wikidata": "Q491627", "brand:wikipedia": "en:Hugo Boss", "name": "Hugo Boss", "shop": "clothes", "short_name": "Boss", "source": "survey"}}, {"type": "node", "id": 4576234352, "lat": 40.4236976, "lon": -3.6879497, "tags": {"name": "Pedro del Hierro", "shop": "clothes", "source": "survey"}}, {"type": "node", "id": 4576234353, "lat": 40.4228148, "lon": -3.688087, "tags": {"brand": "Versace", "brand:wikidata": "Q696376", "brand:wikipedia": "en:Versace", "name": "Versace", "shop": "clothes", "source": "survey"}}, {"type": "node", "id": 4576234357, "lat": 40.4222588, "lon": -3.6881731, "tags": {"brand": "Diesel", "brand:wikidata": "Q158285", "brand:wikipedia": "en:Diesel (brand)", "name": "Diesel", "shop": "clothes", "source": "survey"}}, {"type": "node", "id": 4576234378, "lat": 40.4213632, "lon": -3.6887194, "tags": {"name": "Adolfo Dom\u00ednguez", "shop": "clothes", "source": "survey"}}, {"type": "node", "id": 4579292596, "lat": 40.4244877, "lon": -3.6800592, "tags": {"name": "Person@Co", "name:es": "Person@Co", "shop": "clothes"}}, {"type": "node", "id": 4579350792, "lat": 40.424889, "lon": -3.6808374, "tags": {"brand": "Marco Aldany", "name": "Marco Aldany", "name:es": "Marco Aldany", "shop": "hairdresser"}}, {"type": "node", "id": 4579350793, "lat": 40.4251891, "lon": -3.6809766, "tags": {"name": "Primor", "name:es": "Primor", "shop": "perfumery"}}, {"type": "node", "id": 4579350794, "lat": 40.4251826, "lon": -3.6807586, "tags": {"name": "Calzados D\u00edez", "name:es": "Calzados D\u00edez", "shop": "shoes"}}, {"type": "node", "id": 4579353590, "lat": 40.424569, "lon": -3.6800366, "tags": {"name": "Okeysi", "name:es": "Okeysi", "shop": "clothes"}}, {"type": "node", "id": 4579359489, "lat": 40.4249286, "lon": -3.6813621, "tags": {"name": "Layda", "name:es": "Layda", "shop": "clothes"}}, {"type": "node", "id": 4581586792, "lat": 40.4252525, "lon": -3.6819457, "tags": {"brand": "Women'secret", "brand:wikidata": "Q16648226", "brand:wikipedia": "es:Women'secret", "clothes": "underwear;women", "name": "Women'secret", "name:es": "Women's Secret", "shop": "clothes"}}, {"type": "node", "id": 4581606893, "lat": 40.4252475, "lon": -3.6818343, "tags": {"addr:city": "Madrid", "addr:country": "ES", "addr:housenumber": "45", "addr:postcode": "28001", "addr:street": "Calle de Goya", "brand": "Douglas", "brand:wikidata": "Q2052213", "brand:wikipedia": "de:Parf\u00fcmerie Douglas", "name": "Douglas", "shop": "perfumery", "website": "https://douglas.es/g/nuestras_tiendas/300509"}}, {"type": "node", "id": 4581636698, "lat": 40.425258, "lon": -3.6820376, "tags": {"addr:city": "Madrid", "addr:country": "ES", "addr:housenumber": "49", "addr:postcode": "28001", "addr:street": "Calle de Goya", "brand": "Samsonite", "brand:wikidata": "Q1203426", "brand:wikipedia": "en:Samsonite", "name": "Samsonite", "shop": "bag"}}, {"type": "node", "id": 4594020090, "lat": 40.4276973, "lon": -3.6876046, "tags": {"name": "Javier Simorra", "shop": "clothes"}}, {"type": "node", "id": 4594496991, "lat": 40.4311544, "lon": -3.6710493, "tags": {"name": "Sastrer\u00eda Javier P\u00e9rez", "name:es": "Sastrer\u00eda Javier P\u00e9rez", "shop": "tailor"}}, {"type": "node", "id": 4594569397, "lat": 40.4333347, "lon": -3.6736821, "tags": {"name": "Le\u00f3n Bazar", "shop": "variety_store"}}, {"type": "node", "id": 4594569599, "lat": 40.4335715, "lon": -3.6737528, "tags": {"name": "Joyer\u00eda", "name:es": "Joyer\u00eda", "shop": "jewelry"}}, {"type": "node", "id": 4594569600, "lat": 40.4288637, "lon": -3.669796, "tags": {"name": "L'Etoile", "name:es": "L'Etoile", "shop": "hairdresser"}}, {"type": "node", "id": 4594571295, "lat": 40.4324808, "lon": -3.6728194, "tags": {"name": "Madrigal", "name:es": "Madrigal", "shop": "hairdresser"}}, {"type": "node", "id": 4594571296, "lat": 40.4294838, "lon": -3.6703201, "tags": {"brand": "Marco Aldany", "name": "Marco Aldany", "name:es": "Marco Aldany", "shop": "hairdresser"}}, {"type": "node", "id": 4594613989, "lat": 40.4350708, "lon": -3.675336, "tags": {"name": "Style & Cut", "name:en": "Style & Cut", "shop": "hairdresser"}}, {"type": "node", "id": 4626808989, "lat": 40.4273308, "lon": -3.686367, "tags": {"addr:housenumber": "53 55", "addr:street": "Calle de Claudio Coello", "brand": "COS", "brand:wikidata": "Q60772401", "brand:wikipedia": "en:COS (clothing)", "internet_access": "wlan", "name": "COS", "name:en": "COS", "name:es": "COS", "opening_hours": "Mo-Sa 10:00-21:00; Su 12:00-20:00", "shop": "clothes"}}, {"type": "node", "id": 4648352033, "lat": 40.4194609, "lon": -3.6911915, "tags": {"addr:city": "Madrid", "addr:housenumber": "52", "addr:postcode": "28014", "addr:street": "Calle de Alcal\u00e1", "contact:phone": "+34 915 328 515", "contact:website": "https://www.ansorena.com", "name": "Ansorena", "shop": "jewelry"}}, {"type": "node", "id": 4704036992, "lat": 40.4250384, "lon": -3.6747301, "tags": {"name": "Antonio Badiola", "shop": "shoes"}}, {"type": "node", "id": 4704036993, "lat": 40.4252063, "lon": -3.6743867, "tags": {"shop": "jewelry"}}, {"type": "node", "id": 4719356291, "lat": 40.4250871, "lon": -3.685277, "tags": {"shop": "clothes"}}, {"type": "node", "id": 4719418389, "lat": 40.4251228, "lon": -3.6787976, "tags": {"name": "Trucco", "shop": "clothes"}}, {"type": "node", "id": 4804364909, "lat": 40.4251824, "lon": -3.6744399, "tags": {"brand": "Lush", "brand:wikidata": "Q1585448", "brand:wikipedia": "en:Lush (company)", "name": "Lush", "shop": "cosmetics"}}, {"type": "node", "id": 4804364915, "lat": 40.4249057, "lon": -3.6750099, "tags": {"brand": "Springfield", "brand:wikidata": "Q958209", "brand:wikipedia": "es:Springfield (cadena de tiendas)", "name": "Springfield", "shop": "clothes"}}, {"type": "node", "id": 4804364916, "lat": 40.4250762, "lon": -3.6754766, "tags": {"brand": "Intimissimi", "brand:wikidata": "Q305404", "brand:wikipedia": "en:Intimissimi", "clothes": "underwear", "name": "Intimissimi", "shop": "clothes"}}, {"type": "node", "id": 4885020992, "lat": 40.4211998, "lon": -3.6842112, "tags": {"addr:city": "Madrid", "addr:country": "ES", "addr:housenumber": "2", "addr:postcode": "28001", "addr:street": "Calle de Vel\u00e1zquez", "email": "info@degussa-mp.es", "name": "Degussa", "opening_hours": "Mo-Fr 10:00-19:00", "phone": "+34 91 19 82 900", "shop": "jewelry", "source": "survey", "website": "https://www.degussa-mp.es"}}, {"type": "node", "id": 4885056595, "lat": 40.4210293, "lon": -3.687049, "tags": {"addr:city": "Madrid", "addr:country": "ES", "addr:housenumber": "6", "addr:postcode": "28001", "addr:street": "Calle de Serrano", "name": "Allegra", "shop": "clothes", "source": "survey"}}, {"type": "node", "id": 4885056599, "lat": 40.4210038, "lon": -3.6887831, "tags": {"addr:city": "Madrid", "addr:country": "ES", "addr:housenumber": "3", "addr:postcode": "28001", "addr:street": "Calle de Serrano", "brand": "Superdry", "brand:wikidata": "Q1684445", "brand:wikipedia": "en:Superdry", "name": "Superdry", "shop": "clothes", "source": "survey"}}, {"type": "node", "id": 4885056601, "lat": 40.4208629, "lon": -3.6883794, "tags": {"addr:city": "Madrid", "addr:country": "ES", "addr:housenumber": "2", "addr:postcode": "28001", "addr:street": "Calle de Serrano", "name": "Prima Travel", "name:ko": "Pilma Travel Madrid(Rimowa)", "shop": "bag", "source": "survey"}}, {"type": "node", "id": 4885056602, "lat": 40.4207016, "lon": -3.6884008, "tags": {"addr:city": "Madrid", "addr:country": "ES", "addr:housenumber": "2", "addr:postcode": "28001", "addr:street": "Calle de Serrano", "name": "Guzm\u00e1n", "shop": "clothes", "source": "survey"}}, {"type": "node", "id": 4927508822, "lat": 40.4206697, "lon": -3.6873224, "tags": {"shop": "clothes"}}, {"type": "node", "id": 4951801026, "lat": 40.4231108, "lon": -3.6799089, "tags": {"name": "Oro Madrid", "name:es": "Oro Madrid", "shop": "jewelry"}}, {"type": "node", "id": 5147840321, "lat": 40.4250975, "lon": -3.6774182, "tags": {"addr:city": "Madrid", "addr:country": "ES", "addr:housenumber": "85", "addr:postcode": "28001", "addr:street": "Calle de Goya", "brand": "Massimo Dutti", "brand:wikidata": "Q788231", "brand:wikipedia": "en:Massimo Dutti", "name": "Massimo Dutti", "shop": "clothes"}}, {"type": "node", "id": 5147841521, "lat": 40.4272102, "lon": -3.6872724, "tags": {"addr:housenumber": "48", "addr:street": "Calle de Serrano", "brand": "Massimo Dutti", "brand:wikidata": "Q788231", "brand:wikipedia": "en:Massimo Dutti", "name": "Massimo Dutti", "shop": "clothes"}}, {"type": "node", "id": 5148185222, "lat": 40.4268125, "lon": -3.6873668, "tags": {"name": "Atrezzo", "shop": "clothes"}}, {"type": "node", "id": 5158621521, "lat": 40.4288475, "lon": -3.686962, "tags": {"brand": "Mango", "brand:wikidata": "Q136503", "brand:wikipedia": "en:Mango (retailer)", "name": "Mango", "shop": "clothes"}}, {"type": "node", "id": 5208251621, "lat": 40.4225623, "lon": -3.6828851, "tags": {"addr:housenumber": "8", "addr:postcode": "28001", "addr:street": "Calle de N\u00fa\u00f1ez de Balboa", "name": "Cherubina", "opening_hours": "Mo-Sa 11:00-14:00, 15:00-18:00", "phone": "+34 910517795", "shop": "clothes"}}, {"type": "node", "id": 5279310479, "lat": 40.4291428, "lon": -3.6869309, "tags": {"addr:city": "Madrid", "addr:country": "ES", "addr:housenumber": "62", "addr:postcode": "28001", "addr:street": "Calle de Serrano", "brand": "Stella McCartney", "brand:wikidata": "Q28940614", "clothes": "women", "name": "Stella McCartney", "phone": "+34 914 14 23 35", "shop": "clothes"}}, {"type": "node", "id": 5294089123, "lat": 40.4273916, "lon": -3.6861161, "tags": {"addr:city": "Madrid", "addr:street": "Calle de Claudio Coello", "brand:wikipedia": "en:Pepe Jeans", "name": "Claudie Pierlot", "shop": "clothes"}}, {"type": "node", "id": 5310392674, "lat": 40.4259393, "lon": -3.6828517, "tags": {"name": "Warlock", "shop": "jewelry"}}, {"type": "node", "id": 5350945621, "lat": 40.4257865, "lon": -3.6828842, "tags": {"addr:housenumber": "37", "addr:street": "Calle de N\u00fa\u00f1ez de Balboa", "name": "Nueva Nuevo Arreglos", "shop": "clothes", "wheelchair": "no"}}, {"type": "node", "id": 5376015221, "lat": 40.4240116, "lon": -3.6869871, "tags": {"addr:housenumber": "7", "addr:street": "Calle de Jorge Juan", "name": "Scalpers", "shop": "clothes"}}, {"type": "node", "id": 5376015222, "lat": 40.4269383, "lon": -3.6873462, "tags": {"addr:housenumber": "46", "addr:street": "Calle de Serrano", "brand": "El Ganso", "brand:wikidata": "Q51955203", "brand:wikipedia": "es:El Ganso (cadena de tiendas)", "name": "El Ganso", "shop": "clothes"}}, {"type": "node", "id": 5485077122, "lat": 40.4260684, "lon": -3.6733995, "tags": {"brand": "Dealz", "brand:wikidata": "Q16942585", "brand:wikipedia": "en:Dealz", "name": "Dealz", "name:en": "Dealz", "shop": "variety_store"}}, {"type": "node", "id": 5717310321, "lat": 40.4216582, "lon": -3.6871791, "tags": {"addr:housenumber": "13 Bis", "addr:street": "Calle de Claudio Coello", "name": "The Lab Room", "shop": "beauty"}}, {"type": "node", "id": 5748979125, "lat": 40.4234171, "lon": -3.6781793, "tags": {"name": "oh my cut", "shop": "hairdresser"}}, {"type": "node", "id": 5748984023, "lat": 40.433758, "lon": -3.6844262, "tags": {"addr:housenumber": "106", "addr:street": "Calle de Lagasca", "name": "Casilda Finat", "shop": "jewelry"}}, {"type": "node", "id": 5758859524, "lat": 40.4334503, "lon": -3.6819811, "tags": {"addr:housenumber": "90", "addr:street": "Calle de N\u00fa\u00f1ez de Balboa", "name": "Iguana Sell", "shop": "jewelry"}}, {"type": "node", "id": 5869015485, "lat": 40.422726, "lon": -3.6885296, "tags": {"name": "Adolfo Dom\u00ednguez", "shop": "clothes"}}, {"type": "node", "id": 5920151185, "lat": 40.4286692, "lon": -3.6862221, "tags": {"addr:housenumber": "69", "addr:street": "Calle de Claudio Coello", "name": "Dolores Promesas", "shop": "clothes"}}, {"type": "node", "id": 5920151285, "lat": 40.4287342, "lon": -3.686211, "tags": {"addr:housenumber": "69", "addr:street": "Calle de Claudio Coello", "name": "Teor\u00eda Ybar", "shop": "clothes"}}, {"type": "node", "id": 5920151385, "lat": 40.4287974, "lon": -3.6862021, "tags": {"addr:housenumber": "69", "addr:street": "Calle de Claudio Coello", "name": "DELITO Y CASTIGO", "shop": "clothes"}}, {"type": "node", "id": 5937513686, "lat": 40.4276551, "lon": -3.6863471, "tags": {"name": "Maison Eduardo S\u00e1nchez", "phone": "+34 915 77 67 22", "shop": "hairdresser", "website": "https://maisoneduardosanchez.com/"}}, {"type": "node", "id": 6189881277, "lat": 40.4250645, "lon": -3.6777915, "tags": {"addr:city": "Madrid", "addr:country": "ES", "addr:postcode": "28001", "addr:street": "Calle de Goya", "name": "Gilgo", "shop": "perfumery"}}, {"type": "node", "id": 6189881279, "lat": 40.4250646, "lon": -3.6777131, "tags": {"addr:city": "Madrid", "addr:country": "ES", "addr:postcode": "28001", "addr:street": "Calle de Goya", "name": "Misako", "shop": "bag"}}, {"type": "node", "id": 6189974656, "lat": 40.4267995, "lon": -3.6753418, "tags": {"addr:city": "Madrid", "addr:housenumber": "16", "addr:street": "Calle del Conde de Pe\u00f1alver", "brand": "Zara", "brand:wikidata": "Q147662", "brand:wikipedia": "en:Zara (retailer)", "name": "Zara", "shop": "clothes"}}, {"type": "node", "id": 6189974658, "lat": 40.426589, "lon": -3.6753592, "tags": {"addr:city": "Madrid", "addr:housenumber": "14", "addr:street": "Calle del Conde de Pe\u00f1alver", "brand": "H&M", "brand:wikidata": "Q188326", "brand:wikipedia": "en:H&M", "name": "H&M", "shop": "clothes"}}, {"type": "node", "id": 6190053410, "lat": 40.4258341, "lon": -3.6758721, "tags": {"addr:city": "Madrid", "addr:street": "Calle del Conde de Pe\u00f1alver", "name": "Lomas", "shop": "shoes"}}, {"type": "node", "id": 6190248780, "lat": 40.4252841, "lon": -3.6799616, "tags": {"name": "Pepe Gonz\u00e1lez", "shop": "clothes"}}, {"type": "node", "id": 6190248781, "lat": 40.4251198, "lon": -3.679462, "tags": {"brand": "Swatch", "brand:wikidata": "Q573422", "brand:wikipedia": "en:Swatch", "name": "Swatch", "shop": "watches"}}, {"type": "node", "id": 6190248782, "lat": 40.4251223, "lon": -3.6789438, "tags": {"brand": "Calzedonia", "brand:wikidata": "Q1027874", "brand:wikipedia": "en:Calzedonia", "name": "Calzedonia", "shop": "clothes"}}, {"type": "node", "id": 6190248783, "lat": 40.425006, "lon": -3.6836368, "tags": {"addr:city": "Madrid", "addr:country": "ES", "addr:housenumber": "22", "addr:postcode": "28001", "addr:street": "Calle de Goya", "brand": "Flying Tiger Copenhagen", "brand:wikidata": "Q2786319", "brand:wikipedia": "en:Flying Tiger Copenhagen", "name": "Flying Tiger Copenhagen", "shop": "variety_store", "short_name": "Flying Tiger"}}, {"type": "node", "id": 6190249586, "lat": 40.4250651, "lon": -3.6779783, "tags": {"addr:city": "Madrid", "addr:country": "ES", "addr:postcode": "28001", "addr:street": "Calle de Goya", "brand": "Mango", "brand:wikidata": "Q136503", "brand:wikipedia": "en:Mango (retailer)", "name": "Mango", "shop": "clothes"}}, {"type": "node", "id": 6190249588, "lat": 40.4250618, "lon": -3.6778706, "tags": {"addr:city": "Madrid", "addr:country": "ES", "addr:postcode": "28001", "addr:street": "Calle de Goya", "brand": "Parfois", "brand:wikidata": "Q7136948", "brand:wikipedia": "en:Parfois", "name": "Parfois", "shop": "fashion_accessories"}}, {"type": "node", "id": 6190249589, "lat": 40.4253043, "lon": -3.683052, "tags": {"addr:city": "Madrid", "addr:country": "ES", "addr:housenumber": "45", "addr:postcode": "28001", "addr:street": "Calle de Goya", "brand": "Clarks", "brand:wikidata": "Q1095857", "brand:wikipedia": "en:C. & J. Clark", "name": "Clarks", "shop": "shoes"}}, {"type": "node", "id": 6190249592, "lat": 40.4251409, "lon": -3.6759232, "tags": {"brand": "Women'secret", "brand:wikidata": "Q16648226", "brand:wikipedia": "es:Women'secret", "clothes": "underwear;women", "name": "Women'secret", "shop": "clothes"}}, {"type": "node", "id": 6190249593, "lat": 40.4252665, "lon": -3.6821959, "tags": {"addr:city": "Madrid", "addr:country": "ES", "addr:housenumber": "45", "addr:postcode": "28001", "addr:street": "Calle de Goya", "brand": "Nyx", "brand:wikidata": "Q23671513", "brand:wikipedia": "fr:NYX Professional Makeup", "name": "Nyx", "shop": "cosmetics"}}, {"type": "node", "id": 6190268315, "lat": 40.4255141, "lon": -3.687398, "tags": {"name": "Mac's", "shop": "cosmetics"}}, {"type": "node", "id": 6190268316, "lat": 40.4253799, "lon": -3.6847871, "tags": {"name": "Cortefiel", "shop": "clothes"}}, {"type": "node", "id": 6190268319, "lat": 40.4250138, "lon": -3.6837735, "tags": {"name": "Menbur", "shop": "shoes"}}, {"type": "node", "id": 6190268320, "lat": 40.4250116, "lon": -3.6837126, "tags": {"name": "Rumbo", "shop": "shoes"}}, {"type": "node", "id": 6199526885, "lat": 40.4301526, "lon": -3.6720598, "tags": {"name": "Peluqueria Coreana", "name:en": "Haru\ud55c\uc778", "name:ko": "\ud55c\uc778 \ubbf8\uc6a9\uc2e4 \ud558\ub8e8", "shop": "beauty"}}, {"type": "node", "id": 6334389255, "lat": 40.4298831, "lon": -3.6784172, "tags": {"name": "Blundell", "shop": "clothes"}}, {"type": "node", "id": 6334389256, "lat": 40.4298856, "lon": -3.6784841, "tags": {"name": "Onix", "shop": "clothes"}}, {"type": "node", "id": 6684049133, "lat": 40.4265163, "lon": -3.6851439, "tags": {"name": "Perfumer\u00eda Nuria", "shop": "perfumery"}}, {"type": "node", "id": 6807487777, "lat": 40.427478, "lon": -3.677445, "tags": {"name": "Sagaz Ayala", "shop": "clothes"}}, {"type": "node", "id": 6807487778, "lat": 40.426165, "lon": -3.6790179, "tags": {"name": "Sagaz Hermosilla", "shop": "clothes"}}, {"type": "node", "id": 6807487779, "lat": 40.4257174, "lon": -3.6871447, "tags": {"name": "Suela", "shop": "shoes"}}, {"type": "node", "id": 6815508685, "lat": 40.4265691, "lon": -3.687166, "tags": {"name": "Bally", "name:en": "Bally", "shop": "shoes", "website": "https://www.bally.eu/"}}, {"type": "node", "id": 6833344304, "lat": 40.43031, "lon": -3.6804408, "tags": {"brand": "Abercrombie & Fitch", "brand:wikidata": "Q319344", "brand:wikipedia": "en:Abercrombie & Fitch", "clothes": "men;women", "name": "Abercrombie & Fitch", "name:en": "Abercrombie & Fitch", "name:es": "Abercrombie & Fitch", "shop": "clothes"}}, {"type": "node", "id": 6912403234, "lat": 40.4251127, "lon": -3.6793291, "tags": {"name": "Umber", "shop": "shoes"}}, {"type": "node", "id": 6967224685, "lat": 40.4251706, "lon": -3.6871494, "tags": {"brand": "Uniqlo", "brand:wikidata": "Q26070", "brand:wikipedia": "en:Uniqlo", "name": "Uniqlo", "shop": "clothes"}}, {"type": "node", "id": 7170871385, "lat": 40.4271308, "lon": -3.6871595, "tags": {"brand": "Timberland", "brand:wikidata": "Q1539185", "brand:wikipedia": "en:The Timberland Company", "name": "Timberland", "shop": "clothes"}}, {"type": "node", "id": 7180513785, "lat": 40.4214297, "lon": -3.6898364, "tags": {"name": "Ferreteria", "shop": "variety_store"}}, {"type": "node", "id": 7180519785, "lat": 40.42585, "lon": -3.6762441, "tags": {"name": "Ferreteria", "shop": "variety_store"}}, {"type": "node", "id": 7187507985, "lat": 40.4345888, "lon": -3.6809027, "tags": {"name": "Ropa parroquia virgen peregrina vtornik I pyatnica 9:30", "shop": "clothes"}}, {"type": "node", "id": 7650055057, "lat": 40.4223693, "lon": -3.6871155, "tags": {"name": "SuitSupply", "shop": "tailor"}}, {"type": "node", "id": 7650091123, "lat": 40.4225731, "lon": -3.6870824, "tags": {"name": "Felix Ramiro", "shop": "tailor"}}, {"type": "node", "id": 7650091413, "lat": 40.4223706, "lon": -3.6866757, "tags": {"name": "Daniel Romero", "shop": "hairdresser"}}, {"type": "node", "id": 7750082141, "lat": 40.4328311, "lon": -3.6864509, "tags": {"name": "The Fulham", "shop": "clothes"}}, {"type": "node", "id": 7995782903, "lat": 40.4317581, "lon": -3.6858161, "tags": {"name": "Oh My Cut", "shop": "hairdresser"}}, {"type": "node", "id": 8263467617, "lat": 40.4234831, "lon": -3.6817383, "tags": {"addr:housenumber": "15", "addr:street": "Calle de Castell\u00f3", "name": "Aneko Madrid", "shop": "variety_store"}}, {"type": "node", "id": 8634990952, "lat": 40.4266893, "lon": -3.6812777, "tags": {"addr:city": "Madrid", "addr:housenumber": "46", "addr:postcode": "28001", "addr:street": "Calle de Castell\u00f3", "name": "Artis Clinic centro m\u00e9dico est\u00e9tico", "shop": "beauty"}}, {"type": "node", "id": 8634990957, "lat": 40.4275169, "lon": -3.6814309, "tags": {"addr:city": "Madrid", "addr:housenumber": "60", "addr:postcode": "28001", "addr:street": "Calle de Ayala", "name": "Knack Men", "shop": "clothes"}}, {"type": "node", "id": 8634990961, "lat": 40.4252202, "lon": -3.6813922, "tags": {"addr:city": "Madrid", "addr:country": "ES", "addr:housenumber": "55", "addr:postcode": "28001", "addr:street": "Calle de Goya", "name": "Nicols", "shop": "jewelry"}}, {"type": "node", "id": 8662298111, "lat": 40.4274355, "lon": -3.6872588, "tags": {"name": "Montblanc", "shop": "watches"}}, {"type": "node", "id": 8662325097, "lat": 40.4273958, "lon": -3.6876705, "tags": {"name": "Pedro del Hierro", "shop": "clothes"}}, {"type": "node", "id": 8662378921, "lat": 40.4275929, "lon": -3.6876374, "tags": {"name": "Pronovias", "shop": "clothes"}}, {"type": "node", "id": 8984164456, "lat": 40.4306525, "lon": -3.6874847, "tags": {"name": "Philipp Plein", "payment:bitcoincash": "yes", "shop": "clothes", "website": "https://www.plein.com/on/demandware.store/Sites-PhilippPleinEU-Site/en_AL/Stores-GetStore?storeid=263"}}, {"type": "node", "id": 9287678242, "lat": 40.4313416, "lon": -3.6834147, "tags": {"name": "Rojo", "shop": "clothes"}}, {"type": "node", "id": 9712615088, "lat": 40.4273257, "lon": -3.6849557, "tags": {"email": "customerservice@crownhillshoes.com", "name": "Crownhill Shoes", "phone": "+34 910320990", "shop": "shoes", "website": "https://www.crownhillshoes.com/es/"}}, {"type": "node", "id": 9990621261, "lat": 40.4260237, "lon": -3.6863405, "tags": {"addr:city": "Madrid", "addr:housenumber": "40", "addr:street": "Calle de Claudio Coello", "name": "Gios Eppo", "shop": "shoes"}}, {"type": "node", "id": 9990621263, "lat": 40.4269111, "lon": -3.6862179, "tags": {"addr:city": "Madrid", "addr:housenumber": "46", "addr:street": "Calle de Claudio Coello", "name": "Aveda", "shop": "perfumery"}}, {"type": "node", "id": 9990621264, "lat": 40.4255238, "lon": -3.6866822, "tags": {"addr:city": "Madrid", "addr:street": "Calle de Goya", "name": "Dur\u00e1n", "shop": "watches"}}, {"type": "node", "id": 9990621265, "lat": 40.4262652, "lon": -3.686567, "tags": {"addr:city": "Madrid", "addr:housenumber": "43", "addr:street": "Calle de Claudio Coello", "name": "American Vintage", "shop": "clothes"}}, {"type": "node", "id": 9990621266, "lat": 40.4244177, "lon": -3.6878166, "tags": {"addr:city": "Madrid", "addr:housenumber": "28", "addr:street": "Calle de Serrano", "name": "Purificaci\u00f3n Garc\u00eda", "shop": "clothes"}}, {"type": "node", "id": 9990621267, "lat": 40.4263668, "lon": -3.6867942, "tags": {"addr:street": "Calle de Hermosilla", "name": "Oyshyo", "shop": "clothes"}}, {"type": "node", "id": 9990621269, "lat": 40.4269953, "lon": -3.6864427, "tags": {"addr:city": "Madrid", "addr:housenumber": "61", "addr:street": "Calle de Claudio Coello", "name": "Claudalie", "shop": "perfumery"}}, {"type": "node", "id": 9990621271, "lat": 40.4251576, "lon": -3.6867327, "tags": {"addr:city": "Madrid", "addr:street": "Calle de Goya", "name": "Aristocrazy", "shop": "jewelry"}}, {"type": "node", "id": 9990621272, "lat": 40.4249643, "lon": -3.687715, "tags": {"addr:city": "Madrid", "addr:housenumber": "32", "addr:street": "Calle de Serrano", "brand": "GANT", "brand:wikidata": "Q1493667", "name": "GANT", "shop": "clothes"}}, {"type": "node", "id": 9990621273, "lat": 40.4262012, "lon": -3.6854309, "tags": {"addr:city": "Madrid", "addr:housenumber": "37", "addr:street": "Calle de Lagasca", "name": "Aragoneses", "shop": "jewelry"}}, {"type": "node", "id": 9990621274, "lat": 40.4248353, "lon": -3.6877389, "tags": {"addr:city": "Madrid", "addr:housenumber": "32", "addr:street": "Calle de Serrano", "brand": "Michael Kors", "brand:wikidata": "Q19572998", "name": "Michael Kors", "shop": "clothes"}}, {"type": "node", "id": 9990621275, "lat": 40.4247306, "lon": -3.6877583, "tags": {"addr:city": "Madrid", "addr:housenumber": "30", "addr:street": "Calle de Serrano", "brand": "Geox", "brand:wikidata": "Q588001", "name": "Geox", "shop": "shoes"}}, {"type": "node", "id": 9990621277, "lat": 40.426147, "lon": -3.6865902, "tags": {"addr:city": "Madrid", "addr:housenumber": "43", "addr:street": "Calle de Claudio Coello", "name": "Scotch & Soda", "shop": "clothes"}}, {"type": "node", "id": 9990621278, "lat": 40.426074, "lon": -3.6866021, "tags": {"addr:city": "Madrid", "addr:housenumber": "43", "addr:street": "Calle de Claudio Coello", "name": "The Kooples", "shop": "clothes"}}, {"type": "node", "id": 9990621279, "lat": 40.4258538, "lon": -3.6863554, "tags": {"addr:city": "Madrid", "addr:housenumber": "38", "addr:street": "Calle de Claudio Coello", "name": "Nud", "shop": "clothes"}}, {"type": "node", "id": 9990621280, "lat": 40.4269538, "lon": -3.6862114, "tags": {"addr:city": "Madrid", "addr:housenumber": "46", "addr:street": "Calle de Claudio Coello", "name": "Coosy", "shop": "clothes"}}, {"type": "node", "id": 9990621282, "lat": 40.4246073, "lon": -3.6877743, "tags": {"addr:city": "Madrid", "addr:housenumber": "30", "addr:street": "Calle de Serrano", "name": "Hublot", "shop": "watches"}}, {"type": "node", "id": 9990621283, "lat": 40.426646, "lon": -3.6862472, "tags": {"addr:city": "Madrid", "addr:housenumber": "46", "addr:street": "Calle de Claudio Coello", "name": "Ted Baker", "shop": "clothes"}}, {"type": "node", "id": 9990621284, "lat": 40.4259526, "lon": -3.6866208, "tags": {"addr:city": "Madrid", "addr:housenumber": "41", "addr:street": "Calle de Claudio Coello", "name": "IKKS", "shop": "clothes"}}, {"type": "node", "id": 9990621285, "lat": 40.4270511, "lon": -3.6864332, "tags": {"addr:city": "Madrid", "addr:housenumber": "48", "addr:street": "Calle de Claudio Coello", "name": "The Extreme Collection", "shop": "clothes"}}, {"type": "node", "id": 9990621286, "lat": 40.4259783, "lon": -3.6863486, "tags": {"addr:city": "Madrid", "addr:housenumber": "40", "addr:street": "Calle de Claudio Coello", "name": "Cosi", "shop": "jewelry"}}, {"type": "node", "id": 9990621287, "lat": 40.427596, "lon": -3.686355, "tags": {"addr:city": "Madrid", "addr:street": "Calle de Claudio Coello", "name": "Lester", "shop": "clothes"}}, {"type": "node", "id": 9990621290, "lat": 40.4257075, "lon": -3.686379, "tags": {"name": "Biscuit", "shop": "clothes"}}, {"type": "node", "id": 9990621292, "lat": 40.4263519, "lon": -3.6865519, "tags": {"name": "Salsa", "shop": "clothes"}}, {"type": "node", "id": 9990621294, "lat": 40.4251688, "lon": -3.6869298, "tags": {"brand": "L'Occitane", "brand:wikidata": "Q1880676", "name": "L'Occitane", "shop": "cosmetics"}}]}