{"version": 0.6, "generator": "Overpass API 0.7.58.5 b0c4acbb", "osm3s": {"timestamp_osm_base": "2022-08-28T13:57:04Z", "copyright": "The data included in this document is from www.openstreetmap.org. The data is made available under ODbL."}, "elements": [{"type": "node", "id": 420068862, "lat": 41.4049693, "lon": 2.1894182}, {"type": "node", "id": 420068865, "lat": 41.4044103, "lon": 2.1904275}, {"type": "node", "id": 506202703, "lat": 41.3962323, "lon": 2.1890864, "tags": {"addr:street": "Carrer dels Almog\u00e0vers", "amenity": "cafe", "cuisine": "regional", "internet_access": "yes", "internet_access:fee": "no", "name": "Bar Almog\u00e1vares", "opening_hours": "Mo-Fr 07:00-17:00", "opening_hours:covid19": "open", "outdoor_seating": "yes"}}, {"type": "node", "id": 506202705, "lat": 41.3949813, "lon": 2.1916505, "tags": {"addr:housenumber": "36", "addr:street": "Pere IV", "amenity": "restaurant", "description": "Wifi", "name": "La Braser\u00eda", "phone": "+34 931876537", "website": "www.lawebdelabraseria.com"}}, {"type": "node", "id": 1307297607, "lat": 41.4047275, "lon": 2.191709}, {"type": "node", "id": 1307297612, "lat": 41.4051187, "lon": 2.193249}, {"type": "node", "id": 1307297613, "lat": 41.4047988, "lon": 2.1919649}, {"type": "node", "id": 1307297614, "lat": 41.4056259, "lon": 2.1927972}, {"type": "node", "id": 1357828862, "lat": 41.4037433, "lon": 2.1938343, "tags": {"amenity": "cafe", "name": "Cafeter\u00eda universitaria", "opening_hours": "Mo-Fr 09:00-19:00"}}, {"type": "node", "id": 1658424921, "lat": 41.3972738, "lon": 2.1884132, "tags": {"amenity": "fast_food", "name": "Forastera"}}, {"type": "node", "id": 1658425572, "lat": 41.3967185, "lon": 2.1890325, "tags": {"addr:city": "Barcelona", "addr:postcode": "08018", "addr:street": "Carrer de Zamora", "amenity": "cafe", "cuisine": "regional", "internet_access": "yes", "internet_access:fee": "no", "name": "Rebeka", "opening_hours": "Mo-Fr 08:00-17:00", "opening_hours:covid19": "open", "outdoor_seating": "yes"}}, {"type": "node", "id": 2075453725, "lat": 41.4012569, "lon": 2.1966826, "tags": {"addr:housenumber": "92", "addr:street": "Carrer Roc Boronat", "amenity": "restaurant", "cuisine": "spanish", "name": "La Mossegada del Poblenou", "smoking": "outside"}}, {"type": "node", "id": 2158865607, "lat": 41.399043, "lon": 2.1884309, "tags": {"addr:housenumber": "22", "addr:street": "Carrer de T\u00e0nger", "amenity": "cafe", "contact:phone": "+34 933 09 33 75", "contact:website": "http://www.carrotcafe.es/", "name": "Carrot Caf\u00e9", "name:ca": "Carrot caf\u00e9", "name:en": "Carrot caf\u00e9", "name:es": "Carrot caf\u00e9"}}, {"type": "node", "id": 2187210264, "lat": 41.4023416, "lon": 2.1952788, "tags": {"addr:city": "Barcelona", "addr:housenumber": "114", "addr:postcode": "08018", "addr:street": "Carrer de Roc Boronat", "amenity": "restaurant", "cuisine": "mediterranean", "diet:vegan": "no", "diet:vegetarian": "only", "name": "Sopa", "organic": "only", "phone": "+34 933 09 56 76", "smoking": "outside", "takeaway": "yes", "website": "http://www.sopa.vg/"}}, {"type": "node", "id": 2187275712, "lat": 41.4061323, "lon": 2.1909641}, {"type": "node", "id": 2187282137, "lat": 41.4017897, "lon": 2.196068, "tags": {"addr:city": "Barcelona", "addr:housenumber": "211", "addr:postcode": "08018", "addr:street": "Carrer dels Almog\u00e0vers", "amenity": "restaurant", "cuisine": "spanish", "name": "El Catacroquet", "phone": "+34932809059", "website": "http://catacroquet.es/"}}, {"type": "node", "id": 2193421646, "lat": 41.405634, "lon": 2.1917031, "tags": {"brand": "Carrefour", "brand:wikidata": "Q217599", "brand:wikipedia": "fr:Carrefour (enseigne)", "name": "Carrefour", "shop": "supermarket", "toilets:wheelchair": "yes", "wheelchair": "yes"}}, {"type": "node", "id": 2193421652, "lat": 41.405107, "lon": 2.1919659, "tags": {"amenity": "fast_food", "brand": "Burger King", "brand:wikidata": "Q177054", "brand:wikipedia": "es:Burger King", "cuisine": "burger", "name": "Burger King", "opening_hours": "Su-Th 11:00-24:00; Fr,Sa 11:00-01:00", "takeaway": "yes", "toilets:wheelchair": "yes", "wheelchair": "yes"}}, {"type": "node", "id": 2292687549, "lat": 41.395911, "lon": 2.190529}, {"type": "node", "id": 2400689820, "lat": 41.4006365, "lon": 2.1961225, "tags": {"addr:city": "Barcelona", "addr:housenumber": "132", "addr:postcode": "08005", "addr:street": "Carrer de Pere IV", "amenity": "restaurant", "cuisine": "international", "name": "L\u00facuma", "phone": "+34 933569310", "smoking": "outside", "takeaway": "yes"}}, {"type": "node", "id": 2408482659, "lat": 41.402164, "lon": 2.193314, "tags": {"addr:city": "Barcelona", "addr:street": "Carrer Ciutat de Granada", "amenity": "restaurant", "cuisine": "spanish", "name": "Quinabarra", "opening_hours": "Mo-Fr 08:00-17:00", "smoking": "no"}}, {"type": "node", "id": 2528521163, "lat": 41.4003612, "lon": 2.1959358, "tags": {"name": "Alimentacion", "shop": "convenience"}}, {"type": "node", "id": 2617962817, "lat": 41.4049285, "lon": 2.1919361, "tags": {"addr:city": "Barcelona", "addr:housenumber": "188", "addr:postcode": "08018", "addr:street": "Avinguda Diagonal", "amenity": "fast_food", "brand": "McDonald's", "brand:wikidata": "Q38076", "brand:wikipedia": "es:McDonald's", "cuisine": "burger", "name": "McDonald's", "opening_hours": "Su-Th 08:00-23:30; Fr,Sa 08:00-01:00"}}, {"type": "node", "id": 2684052224, "lat": 41.4052109, "lon": 2.1931117, "tags": {"addr:city": "Barcelona", "addr:housenumber": "208", "addr:postcode": "08018", "addr:street": "Avinguda Diagonal", "amenity": "restaurant", "cuisine": "japanese", "name": "Pai Mei", "opening_hours": "Mo-Su 12:30-16:30,19:00-23:00", "outdoor_seating": "no"}}, {"type": "node", "id": 2756677882, "lat": 41.4051928, "lon": 2.1932736}, {"type": "node", "id": 2923421005, "lat": 41.4043568, "lon": 2.1902175}, {"type": "node", "id": 2923421010, "lat": 41.4052501, "lon": 2.1932935}, {"type": "node", "id": 3005463983, "lat": 41.3972585, "lon": 2.1916091, "tags": {"addr:city": "Barcelona", "addr:housenumber": "88", "addr:postcode": "08018", "addr:street": "Carrer de Pamplona", "amenity": "pub", "name": "Ceferino", "smoking": "outside"}}, {"type": "node", "id": 3361212874, "lat": 41.3965202, "lon": 2.1918882, "tags": {"addr:housenumber": "120", "addr:street": "Carrer de Pallars", "amenity": "fast_food", "cuisine": "american"}}, {"type": "node", "id": 3386550692, "lat": 41.4051386, "lon": 2.1928962, "tags": {"addr:street": "Barcelona Glorias", "amenity": "fast_food", "cuisine": "german", "name": "kurz & gut", "phone": "93486096", "toilets:wheelchair": "yes", "wheelchair": "yes"}}, {"type": "node", "id": 4138769013, "lat": 41.3970017, "lon": 2.1913538, "tags": {"addr:housenumber": "88", "addr:street": "Carrer de Pamplona", "amenity": "cafe", "name": "SKYE Coffee", "opening_hours": "Mo-Tu 09:00-13:30; We-Fr 09:00-17:00"}}, {"type": "node", "id": 4254685758, "lat": 41.3967509, "lon": 2.1929295, "tags": {"amenity": "cafe", "name": "Bread Bucket", "shop": "bakery"}}, {"type": "node", "id": 4254686706, "lat": 41.3970854, "lon": 2.1928808, "tags": {"amenity": "cafe"}}, {"type": "node", "id": 4289659124, "lat": 41.3947754, "lon": 2.1873544, "tags": {"addr:city": "Barcelona", "addr:housenumber": "114", "addr:postcode": "08018", "addr:street": "Carrer de la Marina", "amenity": "restaurant", "name": "MABEL the Granja", "opening_hours": "Mo-Fr 06:00-22:00; Sa 08:00-16:00", "phone": "+34 934 85 20 28", "smoking": "outside"}}, {"type": "node", "id": 4289682653, "lat": 41.3978888, "lon": 2.189968, "tags": {"addr:city": "Barcelona", "addr:housenumber": "96", "addr:postcode": "08018", "addr:street": "Carrer de Pamplona", "amenity": "pub", "name": "Sonora Sport Tavern"}}, {"type": "node", "id": 4534907393, "lat": 41.4058059, "lon": 2.1905307, "tags": {"addr:housenumber": "866-872", "addr:street": "Gran Via de les Corts Catalanes"}}, {"type": "node", "id": 4534954334, "lat": 41.4047773, "lon": 2.1918877}, {"type": "node", "id": 4563459833, "lat": 41.4048291, "lon": 2.1914585, "tags": {"amenity": "restaurant", "diet:vegan": "no", "diet:vegetarian": "no", "name": "El Mussol", "opening_hours": "Mo-Th 13:00-16:30,20:00-24:00, Fr-Su 13:00-16:30,20:00-01:00", "survey:date": "2022-01-19", "wheelchair": "yes"}}, {"type": "node", "id": 4582968963, "lat": 41.4050337, "lon": 2.1895054}, {"type": "node", "id": 4734086768, "lat": 41.4061298, "lon": 2.1921339}, {"type": "node", "id": 4734086770, "lat": 41.4064808, "lon": 2.1914251}, {"type": "node", "id": 4734086771, "lat": 41.406482, "lon": 2.1916692}, {"type": "node", "id": 4878130692, "lat": 41.4034739, "lon": 2.1887038, "tags": {"shop": "kiosk"}}, {"type": "node", "id": 4906707987, "lat": 41.4060107, "lon": 2.1922947, "tags": {"addr:city": "Barcelona", "addr:country": "ES", "addr:housenumber": "151-156", "addr:street": "Carrer de la Llacuna", "barrier": "entrance"}}, {"type": "node", "id": 4906707988, "lat": 41.4059271, "lon": 2.1924039}, {"type": "node", "id": 4906707990, "lat": 41.4053169, "lon": 2.1932043}, {"type": "node", "id": 4906707996, "lat": 41.4061039, "lon": 2.192173}, {"type": "node", "id": 5010794821, "lat": 41.3979072, "lon": 2.1955319, "tags": {"addr:housenumber": "95", "addr:street": "Carrer de Pujades", "amenity": "cafe", "name": "N\u00f8mad Roaster's Home", "name:en": "N\u00f8mad Roaster's Home", "opening_hours": "Mo-Fr 09:00-17:00"}}, {"type": "node", "id": 5028979721, "lat": 41.3987513, "lon": 2.1950702, "tags": {"addr:housenumber": "95", "addr:street": "Carrer de Badajoz", "amenity": "cafe", "contact:facebook": "https://www.facebook.com/espaijoliu/", "name": "Espai Joliu", "opening_hours": "Mo-Fr 09:00-19:00; Sa 10:00-15:00", "website": "http://espaijoliu.tumblr.com/"}}, {"type": "node", "id": 5363506797, "lat": 41.4022944, "lon": 2.1881778, "tags": {"amenity": "cafe"}}, {"type": "node", "id": 5380241103, "lat": 41.4004924, "lon": 2.1903645, "tags": {"amenity": "restaurant", "name": "Diamantico"}}, {"type": "node", "id": 5380241629, "lat": 41.4004229, "lon": 2.1906076, "tags": {"amenity": "restaurant", "name": "el Jard\u00ed"}}, {"type": "node", "id": 5522265621, "lat": 41.3990264, "lon": 2.194494}, {"type": "node", "id": 5531275475, "lat": 41.3980449, "lon": 2.1941948, "tags": {"brand": "Dia", "brand:wikidata": "Q925132", "brand:wikipedia": "es:DIA (supermercados)", "name": "Dia", "operator": "Distribuidora Internacional de Alimentaci\u00f3n, S.A.", "shop": "supermarket", "website": "https://www.dia.es"}}, {"type": "node", "id": 5676005621, "lat": 41.3931048, "lon": 2.1910878, "tags": {"amenity": "bar", "name": "CA L'ERIC"}}, {"type": "node", "id": 5878496985, "lat": 41.4051569, "lon": 2.1921906, "tags": {"amenity": "restaurant", "cuisine": "japanese", "email": "glories@udon.es", "name": "UDON Gl\u00f2ries", "opening_hours": "Su-Th 13:00-00:00; Fr,Sa 13:00-01:00", "phone": "+34 93 486 13 14", "toilets:wheelchair": "yes", "website": "https://www.udon.es/es/restaurants/barcelona/udon-glories", "wheelchair": "yes"}}, {"type": "node", "id": 5881622778, "lat": 41.4013423, "lon": 2.1977952, "tags": {"name": "El Fornet", "shop": "bakery"}}, {"type": "node", "id": 6036931539, "lat": 41.4050517, "lon": 2.1926832, "tags": {"amenity": "fast_food", "name": "Viena", "toilets:wheelchair": "yes", "wheelchair": "yes"}}, {"type": "node", "id": 6126749461, "lat": 41.3942111, "lon": 2.1902433, "tags": {"addr:housenumber": "27", "addr:postcode": "08018", "addr:street": "Carrer de Pujades", "amenity": "restaurant", "entrance": "yes", "name": "Cantero"}}, {"type": "node", "id": 6138906566, "lat": 41.3990235, "lon": 2.1944916, "tags": {"man_made": "surveillance", "surveillance:type": "camera"}}, {"type": "node", "id": 6138906835, "lat": 41.3989804, "lon": 2.1943079}, {"type": "node", "id": 6138906836, "lat": 41.3990757, "lon": 2.1943864}, {"type": "node", "id": 6138906883, "lat": 41.3989288, "lon": 2.1944148}, {"type": "node", "id": 6138906896, "lat": 41.3989667, "lon": 2.1944456, "tags": {"addr:housenumber": "101", "addr:postcode": "08018", "addr:street": "Carrer de Pere IV", "entrance": "yes"}}, {"type": "node", "id": 6139197908, "lat": 41.3961614, "lon": 2.1897405, "tags": {"addr:city": "Barcelona", "addr:housenumber": "90", "addr:postcode": "08018", "addr:street": "Carrer de Zamora", "entrance": "yes"}}, {"type": "node", "id": 6139197909, "lat": 41.395822, "lon": 2.1903811, "tags": {"entrance": "yes"}}, {"type": "node", "id": 6139197910, "lat": 41.395822, "lon": 2.1902597, "tags": {"entrance": "yes"}}, {"type": "node", "id": 6139197911, "lat": 41.3958219, "lon": 2.1902074, "tags": {"addr:city": "Barcelona", "addr:housenumber": "78", "addr:postcode": "08018", "addr:street": "Carrer de Zamora", "entrance": "yes"}}, {"type": "node", "id": 6139197953, "lat": 41.395822, "lon": 2.1902347}, {"type": "node", "id": 6139197977, "lat": 41.3962114, "lon": 2.1898118}, {"type": "node", "id": 6139197978, "lat": 41.3959821, "lon": 2.190376}, {"type": "node", "id": 6139197981, "lat": 41.3961507, "lon": 2.1897282}, {"type": "node", "id": 6139198732, "lat": 41.3958217, "lon": 2.1901653}, {"type": "node", "id": 6139198736, "lat": 41.3961572, "lon": 2.1897354}, {"type": "node", "id": 6139198749, "lat": 41.395822, "lon": 2.1904069}, {"type": "node", "id": 6164141341, "lat": 41.4049918, "lon": 2.1923017, "tags": {"addr:city": "Barcelona", "addr:country": "ES", "addr:housenumber": "218", "addr:postcode": "08018", "addr:street": "Avinguda Diagonal", "addr:unit": "293-304", "amenity": "restaurant", "branch": "C.C. Les Glories", "contact:phone": "+34 932663601", "contact:website": "https://www.latagliatella.es/restaurantes/barcelona/cc-les-glories-barcelona", "cuisine": "pizza;italian", "name": "La Tagliatella", "opening_hours": "Su-Th 13:00-23:00; Fr-Sa 12:00-00:00", "payment:mastercard": "yes", "payment:visa": "yes", "toilets:wheelchair": "yes", "wheelchair": "yes"}}, {"type": "node", "id": 6164234382, "lat": 41.4052321, "lon": 2.1924708, "tags": {"addr:city": "Barcelona", "addr:country": "ES", "addr:housenumber": "208", "addr:postcode": "08018", "addr:street": "Avinguda Diagonal", "amenity": "restaurant", "branch": "C.C. Glories", "contact:website": "https://pokesi.es/", "cuisine": "poke", "delivery": "yes", "level": "-1", "name": "Pok\u00e9 S\u00ed", "opening_hours": "Mo-Su 12:00-23:00", "outdoor_seating": "no", "smoking": "no", "takeaway": "yes", "toilets:wheelchair": "yes", "wheelchair": "yes"}}, {"type": "node", "id": 6263376152, "lat": 41.401928, "lon": 2.1945021, "tags": {"addr:street": "Carrer de Sancho d'Avila", "amenity": "restaurant", "name": "MyKasa"}}, {"type": "node", "id": 6330262252, "lat": 41.4014849, "lon": 2.1895987, "tags": {"addr:housenumber": "160", "addr:street": "Carrer \u00c1vila", "amenity": "restaurant", "name": "Raco del Poble Nou", "opening_hours": "Mo-Su 07:00-22:00"}}, {"type": "node", "id": 6451346360, "lat": 41.4054304, "lon": 2.1930548, "tags": {"addr:city": "Barcelona", "addr:country": "ES", "addr:housenumber": "139-145", "addr:street": "Carrer de la Llacuna"}}, {"type": "node", "id": 6516563967, "lat": 41.404438, "lon": 2.1905395, "tags": {"addr:housenumber": "240-252", "addr:street": "Avinguda Diagonal", "entrance": "yes"}}, {"type": "node", "id": 6516563968, "lat": 41.4045252, "lon": 2.1908919, "tags": {"addr:housenumber": "230-238", "addr:street": "Avinguda Diagonal", "entrance": "yes"}}, {"type": "node", "id": 6516563969, "lat": 41.4046702, "lon": 2.1914774, "tags": {"addr:housenumber": "220-228", "addr:street": "Avinguda Diagonal", "entrance": "yes"}}, {"type": "node", "id": 6516563970, "lat": 41.4048436, "lon": 2.1921448, "tags": {"addr:housenumber": "210-218", "addr:street": "Avinguda Diagonal", "entrance": "yes"}}, {"type": "node", "id": 6516563971, "lat": 41.4049295, "lon": 2.1924896, "tags": {"addr:housenumber": "200-208", "addr:street": "Avinguda Diagonal", "entrance": "yes"}}, {"type": "node", "id": 6516563972, "lat": 41.4050723, "lon": 2.1930626, "tags": {"addr:housenumber": "188-198", "addr:street": "Avinguda Diagonal", "entrance": "yes"}}, {"type": "node", "id": 6516572963, "lat": 41.4051123, "lon": 2.1896098, "tags": {"addr:housenumber": "850-852", "addr:street": "Gran Via de les Corts Catalanes"}}, {"type": "node", "id": 6516572964, "lat": 41.4054001, "lon": 2.1899919, "tags": {"addr:housenumber": "854-864", "addr:street": "Gran Via de les Corts Catalanes"}}, {"type": "node", "id": 6516572965, "lat": 41.406337, "lon": 2.1912349, "tags": {"addr:housenumber": "874-888", "addr:street": "Gran Via de les Corts Catalanes"}}, {"type": "node", "id": 6532230691, "lat": 41.3991988, "lon": 2.1885302, "tags": {"addr:street": "Carrer de T\u00e0nger", "amenity": "restaurant", "name": "L'Estoneta"}}, {"type": "node", "id": 6532239885, "lat": 41.4001402, "lon": 2.1897924, "tags": {"addr:housenumber": "44", "addr:postcode": "08018", "addr:street": "Carrer de T\u00e0nger", "amenity": "restaurant", "entrance": "yes", "name": "Casa Mar\u00eda"}}, {"type": "node", "id": 6532239886, "lat": 41.4003823, "lon": 2.1901179, "tags": {"addr:housenumber": "50", "addr:street": "Carrer de T\u00e0nger", "amenity": "restaurant", "name": "T\u00e1nger"}}, {"type": "node", "id": 6532239887, "lat": 41.4003684, "lon": 2.1901005, "tags": {"addr:housenumber": "50", "addr:postcode": "08018", "addr:street": "Carrer de T\u00e0nger", "entrance": "yes", "name": "David", "shop": "convenience"}}, {"type": "node", "id": 6533543186, "lat": 41.3954241, "lon": 2.1927662, "tags": {"amenity": "restaurant", "name": "La Terrassa"}}, {"type": "node", "id": 6535101586, "lat": 41.3962666, "lon": 2.1921849, "tags": {"addr:housenumber": ",78", "addr:street": "Carrer de Pamplona", "amenity": "restaurant", "name": "Xiscarexantar"}}, {"type": "node", "id": 6535101685, "lat": 41.4000317, "lon": 2.1956346, "tags": {"amenity": "bar", "name": "Catalunya"}}, {"type": "node", "id": 6535101786, "lat": 41.3974655, "lon": 2.1967141, "tags": {"amenity": "restaurant", "name": "Leka"}}, {"type": "node", "id": 6552263885, "lat": 41.4021166, "lon": 2.1898084, "tags": {"addr:housenumber": "31", "addr:street": "Carrer de Bol\u00edvia", "amenity": "restaurant", "cuisine": "local", "internet_access": "wlan", "name": "Mare Meva", "opening_hours": "Mo-Fr 07:30-17:00"}}, {"type": "node", "id": 6552264185, "lat": 41.402359, "lon": 2.1931161, "tags": {"addr:housenumber": "98", "addr:street": "Carrer de T\u00e0nger", "amenity": "restaurant", "email": "info22@casapepe.es", "name": "Casa Pepe", "opening_hours": "Mo-Fr 08:00-17:30", "phone": "+34 933569680"}}, {"type": "node", "id": 6563307386, "lat": 41.4016002, "lon": 2.1889242, "tags": {"amenity": "bar", "name": "Eva-2"}}, {"type": "node", "id": 6563312285, "lat": 41.3971005, "lon": 2.187613, "tags": {"addr:housenumber": "7", "addr:street": "Carrer de Sancho de \u00c0vila", "amenity": "restaurant", "cuisine": "local", "name": "Sancho", "opening_hours": "Mo-Fr 07:00-22:00, Sa-Su 08:00-22:00"}}, {"type": "node", "id": 6576044985, "lat": 41.4010063, "lon": 2.1880935, "tags": {"addr:housenumber": "1-3", "addr:street": "Carrer de Bol\u00edvia", "amenity": "restaurant", "cuisine": "arab", "name": "Al Jaima - Els Encants", "name:es": "Al-Jaima - Els Encants", "opening_hours": "Mo-Sa 07:00-23:00", "phone": "034930178487"}}, {"type": "node", "id": 6576045085, "lat": 41.4010388, "lon": 2.1883527, "tags": {"addr:housenumber": "1", "addr:street": "Carrer de Bol\u00edvia", "name": "Alimentaci\u00f3 Escribano", "opening_hours": "Mo-Sa 07:45-15:00, 17:00-21:00", "shop": "convenience"}}, {"type": "node", "id": 6576045185, "lat": 41.4013195, "lon": 2.1887189, "tags": {"addr:housenumber": "11", "addr:street": "Carrer de Bol\u00edvia", "amenity": "restaurant", "name": "Tovar", "opening_hours": "Mo-Sa 06:00-17:00"}}, {"type": "node", "id": 6588176585, "lat": 41.4013749, "lon": 2.1887841, "tags": {"addr:housenumber": "15,17", "addr:street": "Carrer de Bol\u00edvia", "amenity": "restaurant", "name": "La Fonda", "opening_hours": "Mo-Fr 07:00-20:00"}}, {"type": "node", "id": 6588191385, "lat": 41.4014243, "lon": 2.188848, "tags": {"addr:housenumber": "15,17", "addr:street": "Carrer de Bol\u00edvia", "amenity": "restaurant", "name": "Can Miguel\u00edn", "opening_hours": "Mo-Su 09:00-00:00"}}, {"type": "node", "id": 6973926711, "lat": 41.3965047, "lon": 2.1941864, "tags": {"addr:housenumber": "100", "addr:street": "Carrer de Pujades", "amenity": "cafe", "name": "Syra Coffee", "name:en": "Itnig", "website": "https://syra.coffee/"}}, {"type": "node", "id": 7044957955, "lat": 41.405803, "lon": 2.1905336}, {"type": "node", "id": 7234692489, "lat": 41.3942304, "lon": 2.1901096, "tags": {"amenity": "restaurant", "name": "Van van var"}}, {"type": "node", "id": 7777999388, "lat": 41.4049345, "lon": 2.1913268, "tags": {"amenity": "cafe", "brand": "Starbucks", "brand:wikidata": "Q37158", "brand:wikipedia": "en:Starbucks", "cuisine": "coffee_shop", "name": "Starbucks", "name:en": "Starbucks", "official_name": "Starbucks Coffee", "survey:date": "2022-01-19", "takeaway": "yes"}}, {"type": "node", "id": 7995069726, "lat": 41.3965693, "lon": 2.1887208, "tags": {"addr:city": "Barcelona", "addr:street": "Carrer de Zamora", "amenity": "cafe", "cuisine": "regional", "internet_access": "yes", "internet_access:fee": "no", "name": "Eurest  Catalunya S.L.", "opening_hours": "Mo-Su 08:00-21:00", "opening_hours:covid19": "open", "outdoor_seating": "yes"}}, {"type": "node", "id": 8035019187, "lat": 41.400417, "lon": 2.1955634, "tags": {"amenity": "restaurant", "name": "Die Spiegel"}}, {"type": "node", "id": 8064873686, "lat": 41.3977404, "lon": 2.1934117, "tags": {"amenity": "restaurant", "name": "La Cantonada del Xenia"}}, {"type": "node", "id": 8064873887, "lat": 41.396904, "lon": 2.1931193, "tags": {"amenity": "restaurant", "name": "Cala Joana"}}, {"type": "node", "id": 8064873986, "lat": 41.3974759, "lon": 2.1931865, "tags": {"amenity": "restaurant", "name": "Xenia"}}, {"type": "node", "id": 8064873987, "lat": 41.3993018, "lon": 2.1920928, "tags": {"amenity": "cafe", "name": "Oasis"}}, {"type": "node", "id": 8064874185, "lat": 41.396382, "lon": 2.1935012, "tags": {"amenity": "cafe", "name": "El primer caf\u00e9"}}, {"type": "node", "id": 8489755907, "lat": 41.4053896, "lon": 2.1918005, "tags": {"level": "0", "name": "Buenas Migas", "shop": "pastry"}}, {"type": "node", "id": 8818975889, "lat": 41.4054744, "lon": 2.1919237, "tags": {"level": "0", "name": "Danone", "shop": "ice_cream"}}, {"type": "node", "id": 9023362418, "lat": 41.3955052, "lon": 2.1923565, "tags": {"amenity": "fast_food", "cuisine": "kebab", "name": "J\u00e9rusalem", "name:ca": "Jerusalem", "name:en": "Jerusalem"}}, {"type": "node", "id": 9124922432, "lat": 41.3968342, "lon": 2.1888871, "tags": {"addr:housenumber": "96", "addr:street": "Carrer de Zamora", "amenity": "cafe", "cuisine": "coffee_shop", "name": "Caf\u00e9 de Finca", "opening_hours:covid19": "open", "outdoor_seating": "no"}}, {"type": "node", "id": 9376342919, "lat": 41.3966728, "lon": 2.1919552, "tags": {"addr:housenumber": "122", "addr:postcode": "08018", "addr:street": "Carrer de Pallars", "air_conditioning": "no", "amenity": "bar", "email": "hijoscain@hotmail.com", "indoor_seating": "yes", "name": "Hijos de cain Bar", "opening_hours": "Fr-Sa 22:30-03:00", "operator": "PH Fr,Sa 23:00-03:00", "outdoor_seating": "no", "payment:credit_cards": "yes", "payment:debit_cards": "yes", "smoking": "no", "website": "http://www.hijosdecain.es/", "wheelchair": "no"}}, {"type": "node", "id": 9376343220, "lat": 41.3963512, "lon": 2.1922632, "tags": {"addr:housenumber": "61", "addr:postcode": "08018", "addr:street": "Carrer de Pere IV", "amenity": "bar", "contact:facebook": "airbarpoblenou", "email": "airbarpoblenou@hotmail.com", "name:en": "Airbar"}}, {"type": "node", "id": 9376372117, "lat": 41.3967903, "lon": 2.1921194, "tags": {"addr:housenumber": "122", "addr:postcode": "08018", "addr:street": "Carrer de Pallars", "air_conditioning": "no", "amenity": "bar", "contact:facebook": "D9bar", "contact:instagram": "d9poblenou", "email": "ramon@denou.bar", "indoor_seating": "yes", "name": "D9", "opening_hours": "Mo-Su 18:00-01:00", "outdoor_seating": "yes", "payment:credit_cards": "yes", "payment:debit_cards": "yes", "phone": "+34 933 099 202;+34 687 955 816", "smoking": "outside", "website": "https://denou.bar/", "wheelchair": "no"}}, {"type": "node", "id": 9377066517, "lat": 41.3983197, "lon": 2.1942274, "tags": {"addr:housenumber": "100", "addr:postcode": "08006", "addr:street": "Carrer de Pere IV", "amenity": "restaurant", "name": "El rey del kebab", "opening_hours": "Mo-Fr 11:30-23:00; Sa-Su 14:00-23:00"}}, {"type": "node", "id": 9431243821, "lat": 41.4050963, "lon": 2.190739, "tags": {"amenity": "fast_food", "cuisine": "coffee_shop", "level": "-1", "name": "Giovanni", "survey:date": "2022-01-19"}}, {"type": "node", "id": 9431244017, "lat": 41.4053897, "lon": 2.1913509, "tags": {"amenity": "fast_food", "cuisine": "coffee_shop", "name": "Secrets", "survey:date": "2022-01-19"}}, {"type": "node", "id": 9590876717, "lat": 41.3930591, "lon": 2.1899199, "tags": {"addr:postcode": "08005", "air_conditioning": "yes", "amenity": "bar", "name": "Ve De Gust", "name:ca": "Ve de Gust", "opening_hours": "Sa 09:00-00:30; Mo, We-Th 08:00-23:00; Fr 08:00-00:30; Su 09:00-23:00; Tu 08:00-16:00", "phone": "+34 936 27 23 27", "smoking": "outside", "website": "https://h5.clewm.net/?url=qr61.cn%2Fo1Ua8r%2FqI3ey4g&hasredirect=1", "wheelchair": "limited"}}, {"type": "node", "id": 9983395817, "lat": 41.4050171, "lon": 2.1925921, "tags": {"amenity": "cafe", "name:en": "Honest greens"}}, {"type": "way", "id": 499392314, "nodes": [4906707988, 1307297614]}, {"type": "way", "id": 499392316, "nodes": [4582968963, 6516572963, 6516572964, 7044957955, 4534907393, 2187275712]}, {"type": "way", "id": 499392317, "nodes": [4906707996, 4734086768]}, {"type": "way", "id": 499392318, "nodes": [1307297614, 6451346360, 4906707990]}, {"type": "way", "id": 499392319, "nodes": [4906707996, 4906707987, 4906707988], "tags": {"barrier": "wall"}}, {"type": "way", "id": 499392321, "nodes": [1307297607, 6516563969, 6516563968, 6516563967, 420068865]}, {"type": "way", "id": 499392323, "nodes": [420068865, 2923421005, 420068862, 4582968963]}, {"type": "way", "id": 499392324, "nodes": [1307297613, 4534954334, 1307297607], "tags": {"barrier": "gate"}}, {"type": "way", "id": 499392327, "nodes": [4906707990, 2923421010, 2756677882, 1307297612, 6516563972, 6516563971, 6516563970, 1307297613]}, {"type": "way", "id": 499392329, "nodes": [2187275712, 6516572965, 4734086770, 4734086771, 4734086768]}, {"type": "way", "id": 655182341, "nodes": [6138906835, 6138906836, 5522265621, 6138906566, 6138906896, 6138906883, 6138906835], "tags": {"amenity": "bar", "building": "industrial", "building:levels": "2", "name": "Comtu bar"}}, {"type": "way", "id": 655221168, "nodes": [6139197977, 6139197978, 2292687549, 6139198749, 6139197909, 6139197910, 6139197953, 6139197911, 6139198732, 6139197981, 6139198736, 6139197908, 6139197977], "tags": {"amenity": "bar", "building": "industrial", "building:levels": "2", "building:levels:underground": "1", "name": "L'ovella negra Marina"}}, {"type": "relation", "id": 7323157, "members": [{"type": "way", "ref": 499392323, "role": "outer"}, {"type": "way", "ref": 499392321, "role": "outer"}, {"type": "way", "ref": 499392324, "role": "outer"}, {"type": "way", "ref": 499392327, "role": "outer"}, {"type": "way", "ref": 499392318, "role": "outer"}, {"type": "way", "ref": 499392314, "role": "outer"}, {"type": "way", "ref": 499392319, "role": "outer"}, {"type": "way", "ref": 499392317, "role": "outer"}, {"type": "way", "ref": 499392329, "role": "outer"}, {"type": "way", "ref": 499392316, "role": "outer"}], "tags": {"addr:city": "Barcelona", "addr:housenumber": "208", "addr:postcode": "08018", "addr:street": "Avinguda Diagonal", "name": "Gl\u00f2ries", "name:ca": "Gl\u00f2ries", "opening_hours": "Mo-Sa 10:00-22:00", "shop": "mall", "type": "multipolygon", "website": "http://lesglories.com/", "wheelchair": "yes", "wikidata": "Q16571897", "wikipedia": "es:Gl\u00f2ries (centro comercial)"}}]}