{"version": 0.6, "generator": "Overpass API 0.7.58.5 b0c4acbb", "osm3s": {"timestamp_osm_base": "2022-09-12T20:21:19Z", "copyright": "The data included in this document is from www.openstreetmap.org. The data is made available under ODbL."}, "elements": [{"type": "node", "id": 1340330376, "lat": 41.4058536, "lon": 2.1625313, "tags": {"name": "El Ratol\u00ed", "shop": "clothes"}}, {"type": "node", "id": 1357211199, "lat": 41.4037814, "lon": 2.1568909, "tags": {"name": "El Canillita", "shop": "clothes"}}, {"type": "node", "id": 1377225890, "lat": 41.4053467, "lon": 2.1599869, "tags": {"addr:country": "ES", "name": "Sesion Perruquers (Home)", "shop": "hairdresser"}}, {"type": "node", "id": 1483283406, "lat": 41.4075582, "lon": 2.1587471, "tags": {"addr:city": "Barcelona", "addr:country": "ES", "addr:housenumber": "5", "addr:postcode": "08024", "addr:street": "Pla\u00e7a de Rovira Trias", "name": "Carol Bruguera", "shop": "hairdresser"}}, {"type": "node", "id": 2968921887, "lat": 41.4054267, "lon": 2.1632312, "tags": {"name": "Borsache", "shop": "clothes"}}, {"type": "node", "id": 2968921889, "lat": 41.4054829, "lon": 2.1631799, "tags": {"name": "Roger", "shop": "clothes"}}, {"type": "node", "id": 2968921891, "lat": 41.4055766, "lon": 2.1631781, "tags": {"name": "Magarvi", "shop": "clothes"}}, {"type": "node", "id": 2969276830, "lat": 41.4051021, "lon": 2.1606627, "tags": {"name": "Highway 61 Revisited", "shop": "clothes"}}, {"type": "node", "id": 2970750105, "lat": 41.4023676, "lon": 2.1528387, "tags": {"name": "Luxury. Productes de perruqueria", "shop": "cosmetics"}}, {"type": "node", "id": 2970750106, "lat": 41.4023286, "lon": 2.1528697, "tags": {"name": "Redlove", "shop": "shoes"}}, {"type": "node", "id": 2970750110, "lat": 41.4041963, "lon": 2.1568024, "tags": {"name": "Calendula", "shop": "clothes"}}, {"type": "node", "id": 2970751842, "lat": 41.4020642, "lon": 2.1548248, "tags": {"name": "Creaciones Paquita", "shop": "clothes"}}, {"type": "node", "id": 2970751848, "lat": 41.4013615, "lon": 2.1537846, "tags": {"addr:housenumber": "124", "addr:postcode": "08012", "addr:street": "Carrer Gran de Gr\u00e0cia", "brand": "Calzedonia", "brand:wikidata": "Q1027874", "brand:wikipedia": "en:Calzedonia", "name": "Calzedonia", "name:en": "Calcedonia", "shop": "clothes", "website": "https://es.calzedonia.com/"}}, {"type": "node", "id": 2970751950, "lat": 41.4035458, "lon": 2.1547601, "tags": {"name": "Anna V. Rey", "shop": "hairdresser"}}, {"type": "node", "id": 3006606307, "lat": 41.4068152, "lon": 2.158893, "tags": {"addr:city": "Barcelona", "addr:housenumber": "40", "addr:postcode": "08024", "addr:street": "Carrer de les Tres Senyores", "name": "Mercer\u00eda", "shop": "sewing"}}, {"type": "node", "id": 3006691909, "lat": 41.4076943, "lon": 2.1608106, "tags": {"shop": "jewelry", "wheelchair": "no"}}, {"type": "node", "id": 3006693835, "lat": 41.4077688, "lon": 2.1607167, "tags": {"addr:city": "Barcelona", "addr:housenumber": "41", "addr:postcode": "08024", "addr:street": "Carrer de l'Escorial", "name": "La Balear", "opening_hours": "09:00-20:00", "phone": "+34 932 10 16 62", "shop": "chemist", "website": "http://www.labalear.es"}}, {"type": "node", "id": 3006694061, "lat": 41.4072307, "lon": 2.1614944, "tags": {"name": "Ropa de Hombre", "shop": "clothes", "wheelchair": "no"}}, {"type": "node", "id": 3007616736, "lat": 41.407531, "lon": 2.1587061, "tags": {"shop": "chemist", "wheelchair": "limited"}}, {"type": "node", "id": 3010792536, "lat": 41.406795, "lon": 2.1587478, "tags": {"shop": "hairdresser"}}, {"type": "node", "id": 3209789943, "lat": 41.4035026, "lon": 2.1616785, "tags": {"addr:postcode": "08037", "addr:street": "Carrer de Bail\u00e8n", "name": "Joyer\u00eda Miralles", "opening_hours": "Mo-Fr 10:00-14:00, 17:00-20:15; Sa 10:00-14:00", "shop": "jewelry", "website": "http://www.mirallesjoiers.com/"}}, {"type": "node", "id": 4262017890, "lat": 41.4026561, "lon": 2.1567073, "tags": {"addr:city": "Barcelona", "addr:housenumber": "130", "addr:postcode": "08012", "addr:street": "Carrer del Torrent de l'Olla", "contact:facebook": "VegetartCuinaVegana", "diet:vegan": "only", "name": "Depiline", "shop": "beauty", "toilets:wheelchair": "no", "website": "https://depiline.com", "wheelchair": "yes"}}, {"type": "node", "id": 4422068989, "lat": 41.402484, "lon": 2.1595615, "tags": {"addr:housenumber": "10", "addr:street": "Travessera de Gr\u00e0cia", "name": "The Barberist", "opening_hours": "Mo-Su 10:00-21:00", "shop": "hairdresser", "website": "http://thebarberist.com"}}, {"type": "node", "id": 4503368189, "lat": 41.4043633, "lon": 2.1538572, "tags": {"name": "Sole Cester cursos y servicios de maquillaje", "shop": "cosmetics"}}, {"type": "node", "id": 4664450391, "lat": 41.4037181, "lon": 2.1614683, "tags": {"addr:housenumber": "227", "addr:postcode": "08012", "addr:street": "Travessera de Gr\u00e0cia", "name:en": "Clarel", "shop": "beauty"}}, {"type": "node", "id": 4664572589, "lat": 41.4002151, "lon": 2.1551551, "tags": {"addr:housenumber": "80", "addr:postcode": "08012", "addr:street": "Carrer Gran de Gr\u00e0cia", "brand": "Tezenis", "brand:wikidata": "Q28056374", "name": "Tezenis", "opening_hours": "Mo-Sa 10:00-21:00", "phone": "+34933681346", "shop": "clothes", "source": "https://es.tezenis.com/store/BARCELONA-C-GRAN-DE-GRACIA-80/6846.uts", "website": "https://es.tezenis.com/home.jsp"}}, {"type": "node", "id": 4664576790, "lat": 41.4027383, "lon": 2.1602032, "tags": {"addr:housenumber": "196", "addr:postcode": "08012", "addr:street": "Travessera de Gr\u00e0cia", "name": "lily", "name:en": "La Balear", "opening_hours": "Mo-Sa 10:00-20:30", "shop": "beauty"}}, {"type": "node", "id": 4776357925, "lat": 41.402121, "lon": 2.1588814, "tags": {"shop": "hairdresser"}}, {"type": "node", "id": 4883465621, "lat": 41.4003148, "lon": 2.1559995, "tags": {"addr:housenumber": "129", "addr:street": "Travessera de Gr\u00e0cia", "email": "info@amapolaveganshop.com", "name": "Amapola", "opening_hours": "Tu-Sa 11:00-14:00, 17:00-20:30; Mo 17:00-20:30", "phone": "+34 930 106 273", "shop": "clothes", "website": "https://amapolaveganshop.com/", "wheelchair": "limited"}}, {"type": "node", "id": 4939283721, "lat": 41.4051277, "lon": 2.1555548, "tags": {"name:en": "The Barberist", "shop": "hairdresser", "wheelchair": "no"}}, {"type": "node", "id": 4997807555, "lat": 41.4037522, "lon": 2.1548692, "tags": {"name": "Sole Rebels", "shop": "shoes"}}, {"type": "node", "id": 4998307604, "lat": 41.3999963, "lon": 2.1552275, "tags": {"brand": "Celio", "brand:wikidata": "Q2672003", "brand:wikipedia": "en:Celio (retailer)", "name": "Celio", "shop": "clothes"}}, {"type": "node", "id": 5415445171, "lat": 41.4018745, "lon": 2.157294, "tags": {"name": "GreenLifeStyle", "shop": "clothes"}}, {"type": "node", "id": 5415445264, "lat": 41.403656, "lon": 2.1554003, "tags": {"name": "Amantis", "shop": "erotic"}}, {"type": "node", "id": 5415452482, "lat": 41.4026031, "lon": 2.1586688, "tags": {"description": "Ethical clothes", "name": "Sunsais", "opening_hours": "Tu-Sa 11:00-14:00, Mo-Sa 17:00-20:00, Mo 17:00-20:00", "shop": "clothes"}}, {"type": "node", "id": 6048311501, "lat": 41.4048303, "lon": 2.154322, "tags": {"addr:city": "Barcelona", "addr:housenumber": "2", "addr:postcode": "08012", "addr:street": "Carrer de Biada", "description": "Exclusive makeup, hairstyling & nails studio.", "email": "info@nikoletastudio.com", "name": "Nikoleta Makeup and Hair Studio", "payment:american_express": "yes", "payment:cash": "yes", "payment:contactless": "yes", "payment:mastercard": "yes", "payment:visa": "yes", "phone": "+34931564623", "shop": "beauty", "website": "https://www.nikoletastudio.com"}}, {"type": "node", "id": 6163444287, "lat": 41.4029083, "lon": 2.1534655, "tags": {"addr:housenumber": "15", "addr:postcode": "08012", "addr:street": "Carrer d'Ast\u00faries", "check_date:opening_hours": "2022-06-20", "entrance": "yes", "name": "Padam", "name:en": "Padam", "opening_hours": "Mo-Fr 11:00-21:00; Sa 11:00-15:00,16:00-21:00", "shop": "clothes"}}, {"type": "node", "id": 6163478426, "lat": 41.4034451, "lon": 2.1522246, "tags": {"name": "Arc Iris", "opening_hours": "Tu-Sa 09:30-14:00,16:30-20:00; Mo 16:30-20:00", "shop": "clothes"}}, {"type": "node", "id": 6163478427, "lat": 41.4036249, "lon": 2.1521435, "tags": {"name": "Arc Iris", "shop": "clothes"}}, {"type": "node", "id": 6176966585, "lat": 41.4024105, "lon": 2.1589629, "tags": {"addr:housenumber": "32", "addr:postcode": "08012", "addr:street": "Carrer Ram\u00f3n y Cajal 32", "email": "info@vegere.es", "name:en": "V\u00e9gere - Belleza Vegana", "opening_hours": "Mo-Sa 10:00-20:00", "phone": "+34 93617", "shop": "cosmetics", "website": "http://www.vegere.es"}}, {"type": "node", "id": 6178807863, "lat": 41.4053197, "lon": 2.1553204, "tags": {"addr:housenumber": "80", "addr:postcode": "08012", "addr:street": "Carrer de Verdi", "entrance": "yes", "name:en": "Revolution vintage clothing", "shop": "clothes"}}, {"type": "node", "id": 6254040539, "lat": 41.4036288, "lon": 2.1546223, "tags": {"addr:housenumber": "42", "addr:street": "Carrer d'Ast\u00faries", "name": "Humana", "second_hand": "only", "shop": "clothes", "wheelchair": "yes"}}, {"type": "node", "id": 6259341993, "lat": 41.4045021, "lon": 2.1603248, "tags": {"name": "Slide&Swing", "shop": "shoes", "wheelchair": "yes"}}, {"type": "node", "id": 6259341994, "lat": 41.4042449, "lon": 2.1564758, "tags": {"check_date:opening_hours": "2022-06-20", "name": "Velvet bcn", "opening_hours:signed": "no", "shop": "clothes", "wheelchair": "limited"}}, {"type": "node", "id": 6457504988, "lat": 41.4047853, "lon": 2.1571325, "tags": {"name": "Mina mina", "shop": "clothes"}}, {"type": "node", "id": 6641668185, "lat": 41.4036342, "lon": 2.1546815, "tags": {"addr:housenumber": "45", "addr:street": "Carrer d'Ast\u00faries", "name": "La Comet", "shop": "clothes", "website": "http://www.lacomet.com"}}, {"type": "node", "id": 6976166985, "lat": 41.4066818, "lon": 2.1616913, "tags": {"name": "Antoni", "shop": "hairdresser", "wheelchair": "no"}}, {"type": "node", "id": 7737769085, "lat": 41.4046145, "lon": 2.1543601, "tags": {"addr:housenumber": "163", "addr:street": "Carrer del Torrent de l'Olla", "name": "Barite", "shop": "clothes"}}, {"type": "node", "id": 7739157986, "lat": 41.4053247, "lon": 2.1553417, "tags": {"addr:housenumber": "80", "addr:street": "Carrer de Verdi", "contact:facebook": "https://www.facebook.com/revolution.vintageclothing/", "name": "Revolution Vintage Clothing Retro", "shop": "clothes"}}, {"type": "node", "id": 7805847685, "lat": 41.402553, "lon": 2.1586208, "tags": {"name": "V\u00e9gere", "shop": "cosmetics"}}, {"type": "node", "id": 8450250641, "lat": 41.4018575, "lon": 2.1589805, "tags": {"addr:housenumber": "17", "addr:street": "Carrer de la Mare de D\u00e9u dels Desamparats", "name": "Perruqueria Ali", "shop": "hairdresser"}}, {"type": "node", "id": 9399446031, "lat": 41.4050055, "lon": 2.1638765, "tags": {"beauty": "nails", "name": "Kelly Nails Beauty Salon", "shop": "beauty"}}, {"type": "node", "id": 9777641120, "lat": 41.4043319, "lon": 2.159983, "tags": {"addr:housenumber": "9, local 5", "addr:postcode": "08012", "addr:street": "Carrer de Bruniquer", "name": "Ecolectia", "name:ca": "Ecolectia - Caf\u00e8, Te, Cacau de comer\u00e7 just", "name:en": "Ecolectia - Fair trade coffee, tea", "name:es": "Ecolectia - Caf\u00e9, t\u00e9 de comercio justo", "opening_hours": "Mo-Sa 11:00-14:00, 16:30-20:30", "shop": "variety_store", "website": "https://ecolectia.com/"}}, {"type": "node", "id": 9956845932, "lat": 41.4049566, "lon": 2.1512052, "tags": {"description": "Electr\u00f3nica usada, art\u00edculos para el hogar, CD y DVD, videojuegos, etc.", "name": "Second Best", "shop": "second_hand"}}, {"type": "node", "id": 9962090837, "lat": 41.4038224, "lon": 2.1569791, "tags": {"addr:housenumber": "28", "addr:street": "Carrer de Verdi", "name": "28 De Verdi", "shop": "clothes"}}, {"type": "node", "id": 9992923318, "lat": 41.4012681, "lon": 2.1550383, "tags": {"addr:city": "Barcelona", "addr:housenumber": "13", "addr:postcode": "08012", "addr:street": "Carrer de Ros de Olano", "name": "Motxilles13", "name:es": "Mochilas13", "opening_hours": "Mo-Fr 11:00-14:30; 17:00-21:00", "payment:cash": "yes", "payment:credit_cards": "yes", "phone": "+34931583174", "shop": "bag", "website": "https://mochilas13.com/"}}]}