{"version": 0.6, "generator": "Overpass API 0.7.58.5 b0c4acbb", "osm3s": {"timestamp_osm_base": "2022-09-01T21:51:23Z", "copyright": "The data included in this document is from www.openstreetmap.org. The data is made available under ODbL."}, "elements": [{"type": "node", "id": 506202703, "lat": 41.3962323, "lon": 2.1890864, "tags": {"addr:street": "Carrer dels Almog\u00e0vers", "amenity": "cafe", "cuisine": "regional", "internet_access": "yes", "internet_access:fee": "no", "name": "Bar Almog\u00e1vares", "opening_hours": "Mo-Fr 07:00-17:00", "opening_hours:covid19": "open", "outdoor_seating": "yes"}}, {"type": "node", "id": 1658424921, "lat": 41.3972738, "lon": 2.1884132, "tags": {"amenity": "fast_food", "name": "Forastera"}}, {"type": "node", "id": 1658425572, "lat": 41.3967185, "lon": 2.1890325, "tags": {"addr:city": "Barcelona", "addr:postcode": "08018", "addr:street": "Carrer de Zamora", "amenity": "cafe", "cuisine": "regional", "internet_access": "yes", "internet_access:fee": "no", "name": "Rebeka", "opening_hours": "Mo-Fr 08:00-17:00", "opening_hours:covid19": "open", "outdoor_seating": "yes"}}, {"type": "node", "id": 2158865607, "lat": 41.399043, "lon": 2.1884309, "tags": {"addr:housenumber": "22", "addr:street": "Carrer de T\u00e0nger", "amenity": "cafe", "contact:phone": "+34 933 09 33 75", "contact:website": "http://www.carrotcafe.es/", "name": "Carrot Caf\u00e9", "name:ca": "Carrot caf\u00e9", "name:en": "Carrot caf\u00e9", "name:es": "Carrot caf\u00e9"}}, {"type": "node", "id": 2292687549, "lat": 41.395911, "lon": 2.190529}, {"type": "node", "id": 2400689820, "lat": 41.4006365, "lon": 2.1961225, "tags": {"addr:city": "Barcelona", "addr:housenumber": "132", "addr:postcode": "08005", "addr:street": "Carrer de Pere IV", "amenity": "restaurant", "cuisine": "international", "name": "L\u00facuma", "phone": "+34 933569310", "smoking": "outside", "takeaway": "yes"}}, {"type": "node", "id": 2528521163, "lat": 41.4003612, "lon": 2.1959358, "tags": {"name": "Alimentacion", "shop": "convenience"}}, {"type": "node", "id": 3005463983, "lat": 41.3972585, "lon": 2.1916091, "tags": {"addr:city": "Barcelona", "addr:housenumber": "88", "addr:postcode": "08018", "addr:street": "Carrer de Pamplona", "amenity": "pub", "name": "Ceferino", "smoking": "outside"}}, {"type": "node", "id": 4138769013, "lat": 41.3970017, "lon": 2.1913538, "tags": {"addr:housenumber": "88", "addr:street": "Carrer de Pamplona", "amenity": "cafe", "name": "SKYE Coffee", "opening_hours": "Mo-Tu 09:00-13:30; We-Fr 09:00-17:00"}}, {"type": "node", "id": 4289659124, "lat": 41.3947754, "lon": 2.1873544, "tags": {"addr:city": "Barcelona", "addr:housenumber": "114", "addr:postcode": "08018", "addr:street": "Carrer de la Marina", "amenity": "restaurant", "name": "MABEL the Granja", "opening_hours": "Mo-Fr 06:00-22:00; Sa 08:00-16:00", "phone": "+34 934 85 20 28", "smoking": "outside"}}, {"type": "node", "id": 4289682653, "lat": 41.3978888, "lon": 2.189968, "tags": {"addr:city": "Barcelona", "addr:housenumber": "96", "addr:postcode": "08018", "addr:street": "Carrer de Pamplona", "amenity": "pub", "name": "Sonora Sport Tavern"}}, {"type": "node", "id": 5028979721, "lat": 41.3987513, "lon": 2.1950702, "tags": {"addr:housenumber": "95", "addr:street": "Carrer de Badajoz", "amenity": "cafe", "contact:facebook": "https://www.facebook.com/espaijoliu/", "name": "Espai Joliu", "opening_hours": "Mo-Fr 09:00-19:00; Sa 10:00-15:00", "website": "http://espaijoliu.tumblr.com/"}}, {"type": "node", "id": 5363506797, "lat": 41.4022944, "lon": 2.1881778, "tags": {"amenity": "cafe"}}, {"type": "node", "id": 5380241103, "lat": 41.4004924, "lon": 2.1903645, "tags": {"amenity": "restaurant", "name": "Diamantico"}}, {"type": "node", "id": 5380241629, "lat": 41.4004229, "lon": 2.1906076, "tags": {"amenity": "restaurant", "name": "el Jard\u00ed"}}, {"type": "node", "id": 5522265621, "lat": 41.3990264, "lon": 2.194494}, {"type": "node", "id": 5531275475, "lat": 41.3980449, "lon": 2.1941948, "tags": {"brand": "Dia", "brand:wikidata": "Q925132", "brand:wikipedia": "es:DIA (supermercados)", "name": "Dia", "operator": "Distribuidora Internacional de Alimentaci\u00f3n, S.A.", "shop": "supermarket", "website": "https://www.dia.es"}}, {"type": "node", "id": 6138906566, "lat": 41.3990235, "lon": 2.1944916, "tags": {"man_made": "surveillance", "surveillance:type": "camera"}}, {"type": "node", "id": 6138906835, "lat": 41.3989804, "lon": 2.1943079}, {"type": "node", "id": 6138906836, "lat": 41.3990757, "lon": 2.1943864}, {"type": "node", "id": 6138906883, "lat": 41.3989288, "lon": 2.1944148}, {"type": "node", "id": 6138906896, "lat": 41.3989667, "lon": 2.1944456, "tags": {"addr:housenumber": "101", "addr:postcode": "08018", "addr:street": "Carrer de Pere IV", "entrance": "yes"}}, {"type": "node", "id": 6139197908, "lat": 41.3961614, "lon": 2.1897405, "tags": {"addr:city": "Barcelona", "addr:housenumber": "90", "addr:postcode": "08018", "addr:street": "Carrer de Zamora", "entrance": "yes"}}, {"type": "node", "id": 6139197909, "lat": 41.395822, "lon": 2.1903811, "tags": {"entrance": "yes"}}, {"type": "node", "id": 6139197910, "lat": 41.395822, "lon": 2.1902597, "tags": {"entrance": "yes"}}, {"type": "node", "id": 6139197911, "lat": 41.3958219, "lon": 2.1902074, "tags": {"addr:city": "Barcelona", "addr:housenumber": "78", "addr:postcode": "08018", "addr:street": "Carrer de Zamora", "entrance": "yes"}}, {"type": "node", "id": 6139197953, "lat": 41.395822, "lon": 2.1902347}, {"type": "node", "id": 6139197977, "lat": 41.3962114, "lon": 2.1898118}, {"type": "node", "id": 6139197978, "lat": 41.3959821, "lon": 2.190376}, {"type": "node", "id": 6139197981, "lat": 41.3961507, "lon": 2.1897282}, {"type": "node", "id": 6139198732, "lat": 41.3958217, "lon": 2.1901653}, {"type": "node", "id": 6139198736, "lat": 41.3961572, "lon": 2.1897354}, {"type": "node", "id": 6139198749, "lat": 41.395822, "lon": 2.1904069}, {"type": "node", "id": 6330262252, "lat": 41.4014849, "lon": 2.1895987, "tags": {"addr:housenumber": "160", "addr:street": "Carrer \u00c1vila", "amenity": "restaurant", "name": "Raco del Poble Nou", "opening_hours": "Mo-Su 07:00-22:00"}}, {"type": "node", "id": 6532230691, "lat": 41.3991988, "lon": 2.1885302, "tags": {"addr:street": "Carrer de T\u00e0nger", "amenity": "restaurant", "name": "L'Estoneta"}}, {"type": "node", "id": 6532239885, "lat": 41.4001402, "lon": 2.1897924, "tags": {"addr:housenumber": "44", "addr:postcode": "08018", "addr:street": "Carrer de T\u00e0nger", "amenity": "restaurant", "entrance": "yes", "name": "Casa Mar\u00eda"}}, {"type": "node", "id": 6532239886, "lat": 41.4003823, "lon": 2.1901179, "tags": {"addr:housenumber": "50", "addr:street": "Carrer de T\u00e0nger", "amenity": "restaurant", "name": "T\u00e1nger"}}, {"type": "node", "id": 6532239887, "lat": 41.4003684, "lon": 2.1901005, "tags": {"addr:housenumber": "50", "addr:postcode": "08018", "addr:street": "Carrer de T\u00e0nger", "entrance": "yes", "name": "David", "shop": "convenience"}}, {"type": "node", "id": 6535101685, "lat": 41.4000317, "lon": 2.1956346, "tags": {"amenity": "bar", "name": "Catalunya"}}, {"type": "node", "id": 6552263885, "lat": 41.4021166, "lon": 2.1898084, "tags": {"addr:housenumber": "31", "addr:street": "Carrer de Bol\u00edvia", "amenity": "restaurant", "cuisine": "local", "internet_access": "wlan", "name": "Mare Meva", "opening_hours": "Mo-Fr 07:30-17:00"}}, {"type": "node", "id": 6563307386, "lat": 41.4016002, "lon": 2.1889242, "tags": {"amenity": "bar", "name": "Eva-2"}}, {"type": "node", "id": 6563312285, "lat": 41.3971005, "lon": 2.187613, "tags": {"addr:housenumber": "7", "addr:street": "Carrer de Sancho de \u00c0vila", "amenity": "restaurant", "cuisine": "local", "name": "Sancho", "opening_hours": "Mo-Fr 07:00-22:00, Sa-Su 08:00-22:00"}}, {"type": "node", "id": 6576044985, "lat": 41.4010063, "lon": 2.1880935, "tags": {"addr:housenumber": "1-3", "addr:street": "Carrer de Bol\u00edvia", "amenity": "restaurant", "cuisine": "arab", "name": "Al Jaima - Els Encants", "name:es": "Al-Jaima - Els Encants", "opening_hours": "Mo-Sa 07:00-23:00", "phone": "034930178487"}}, {"type": "node", "id": 6576045085, "lat": 41.4010388, "lon": 2.1883527, "tags": {"addr:housenumber": "1", "addr:street": "Carrer de Bol\u00edvia", "name": "Alimentaci\u00f3 Escribano", "opening_hours": "Mo-Sa 07:45-15:00, 17:00-21:00", "shop": "convenience"}}, {"type": "node", "id": 6576045185, "lat": 41.4013195, "lon": 2.1887189, "tags": {"addr:housenumber": "11", "addr:street": "Carrer de Bol\u00edvia", "amenity": "restaurant", "name": "Tovar", "opening_hours": "Mo-Sa 06:00-17:00"}}, {"type": "node", "id": 6588176585, "lat": 41.4013749, "lon": 2.1887841, "tags": {"addr:housenumber": "15,17", "addr:street": "Carrer de Bol\u00edvia", "amenity": "restaurant", "name": "La Fonda", "opening_hours": "Mo-Fr 07:00-20:00"}}, {"type": "node", "id": 6588191385, "lat": 41.4014243, "lon": 2.188848, "tags": {"addr:housenumber": "15,17", "addr:street": "Carrer de Bol\u00edvia", "amenity": "restaurant", "name": "Can Miguel\u00edn", "opening_hours": "Mo-Su 09:00-00:00"}}, {"type": "node", "id": 7615982501, "lat": 41.4003896, "lon": 2.1978586, "tags": {"amenity": "bar", "name": "La Tavernicola"}}, {"type": "node", "id": 7616019787, "lat": 41.3996205, "lon": 2.1959957, "tags": {"shop": "convenience"}}, {"type": "node", "id": 7995069726, "lat": 41.3965693, "lon": 2.1887208, "tags": {"addr:city": "Barcelona", "addr:street": "Carrer de Zamora", "amenity": "cafe", "cuisine": "regional", "internet_access": "yes", "internet_access:fee": "no", "name": "Eurest  Catalunya S.L.", "opening_hours": "Mo-Su 08:00-21:00", "opening_hours:covid19": "open", "outdoor_seating": "yes"}}, {"type": "node", "id": 8035019187, "lat": 41.400417, "lon": 2.1955634, "tags": {"amenity": "restaurant", "name": "Die Spiegel"}}, {"type": "node", "id": 8064873686, "lat": 41.3977404, "lon": 2.1934117, "tags": {"amenity": "restaurant", "name": "La Cantonada del Xenia"}}, {"type": "node", "id": 8064873986, "lat": 41.3974759, "lon": 2.1931865, "tags": {"amenity": "restaurant", "name": "Xenia"}}, {"type": "node", "id": 8064873987, "lat": 41.3993018, "lon": 2.1920928, "tags": {"amenity": "cafe", "name": "Oasis"}}, {"type": "node", "id": 9124922432, "lat": 41.3968342, "lon": 2.1888871, "tags": {"addr:housenumber": "96", "addr:street": "Carrer de Zamora", "amenity": "cafe", "cuisine": "coffee_shop", "name": "Caf\u00e9 de Finca", "opening_hours:covid19": "open", "outdoor_seating": "no"}}, {"type": "node", "id": 9376642417, "lat": 41.3988768, "lon": 2.1953173, "tags": {"addr:housenumber": "92", "addr:postcode": "08005", "addr:street": "Carrer de Badajoz", "amenity": "bar", "contact:facebook": "ravenpoblenou", "name": "Raven Poblenou", "opening_hours": "Fr-Sa 23:00-03:30"}}, {"type": "node", "id": 9377066517, "lat": 41.3983197, "lon": 2.1942274, "tags": {"addr:housenumber": "100", "addr:postcode": "08006", "addr:street": "Carrer de Pere IV", "amenity": "restaurant", "name": "El rey del kebab", "opening_hours": "Mo-Fr 11:30-23:00; Sa-Su 14:00-23:00"}}, {"type": "way", "id": 655182341, "nodes": [6138906835, 6138906836, 5522265621, 6138906566, 6138906896, 6138906883, 6138906835], "tags": {"amenity": "bar", "building": "industrial", "building:levels": "2", "name": "Comtu bar"}}, {"type": "way", "id": 655221168, "nodes": [6139197977, 6139197978, 2292687549, 6139198749, 6139197909, 6139197910, 6139197953, 6139197911, 6139198732, 6139197981, 6139198736, 6139197908, 6139197977], "tags": {"amenity": "bar", "building": "industrial", "building:levels": "2", "building:levels:underground": "1", "name": "L'ovella negra Marina"}}]}