{"version": 0.6, "generator": "Overpass API 0.7.58.5 b0c4acbb", "osm3s": {"timestamp_osm_base": "2022-09-06T18:03:53Z", "copyright": "The data included in this document is from www.openstreetmap.org. The data is made available under ODbL."}, "elements": [{"type": "node", "id": 249789335, "lat": 41.6458892, "lon": -0.8891362, "tags": {"name": "Alafa", "shop": "hairdresser", "wheelchair": "yes"}}, {"type": "node", "id": 680000868, "lat": 41.6512831, "lon": -0.8822178, "tags": {"brand": "C&A", "brand:wikidata": "Q701338", "brand:wikipedia": "en:C&A", "name": "C&A", "shop": "clothes", "wheelchair": "yes"}}, {"type": "node", "id": 680019310, "lat": 41.651693, "lon": -0.881806, "tags": {"brand": "Bershka", "brand:wikidata": "Q827258", "brand:wikipedia": "en:Bershka", "name": "Bershka", "opening_hours": "Mo-Sa 10:00-22:00", "shop": "clothes", "wheelchair": "yes"}}, {"type": "node", "id": 800290385, "lat": 41.6464735, "lon": -0.8938437, "tags": {"addr:country": "ES", "name": "Goya Peluqueros", "shop": "hairdresser"}}, {"type": "node", "id": 800381270, "lat": 41.6441489, "lon": -0.8911805, "tags": {"addr:country": "ES", "name": "Yebra Peluqueros", "shop": "hairdresser"}}, {"type": "node", "id": 838615123, "lat": 41.642958, "lon": -0.8889195, "tags": {"name": "Charol 2", "shop": "shoes"}}, {"type": "node", "id": 838679897, "lat": 41.6427523, "lon": -0.8872991, "tags": {"addr:country": "ES", "name": "\u00c1ngel Peluquer\u00eda", "shop": "hairdresser"}}, {"type": "node", "id": 1180045720, "lat": 41.6587565, "lon": -0.8751294, "tags": {"name": "Moda infantil Bell", "shop": "clothes"}}, {"type": "node", "id": 1678408382, "lat": 41.6540655, "lon": -0.8792774, "tags": {"addr:housename": "23, 1\u00ba Dcha", "addr:housenumber": "23", "addr:postcode": "50003", "addr:street": "Jussepe Martinez", "designation": "modista patronaje confeccion", "name": "Talia modista", "shop": "clothes"}}, {"type": "node", "id": 1778879974, "lat": 41.653036, "lon": -0.878666, "tags": {"name": "Bergamin", "shop": "shoes"}}, {"type": "node", "id": 1778879979, "lat": 41.650124, "lon": -0.882575, "tags": {"brand": "Calzedonia", "brand:wikidata": "Q1027874", "brand:wikipedia": "en:Calzedonia", "name": "Calzedonia", "opening_hours": "Mo-Sa 10:00-21:00", "shop": "clothes"}}, {"type": "node", "id": 1778879981, "lat": 41.6496696, "lon": -0.8880608, "tags": {"addr:city": "Zaragoza", "addr:housenumber": "1", "addr:street": "Paseo de Mar\u00eda Agust\u00edn", "name": "Bogar", "shop": "shoes"}}, {"type": "node", "id": 1792237409, "lat": 41.6458423, "lon": -0.8787793, "tags": {"addr:housenumber": "16", "addr:street": "Avenida de Ces\u00e1reo Alierta", "name": "Pepe hair design", "shop": "hairdresser", "source": "Ayuntamiento de Zaragoza"}}, {"type": "node", "id": 1792872739, "lat": 41.646697, "lon": -0.8762015, "tags": {"addr:country": "ES", "name": "Sara Cano", "name:it": "Sara Cano", "shop": "hairdresser", "wheelchair": "no"}}, {"type": "node", "id": 1797724993, "lat": 41.6452312, "lon": -0.8872776, "tags": {"addr:street": "Calle Mariano Royo Urieta", "name": "Isabel Pocino", "opening_hours": "Mo-Fr 10:00-19:30; Sa 10:30-14:00", "shop": "clothes"}}, {"type": "node", "id": 1814118939, "lat": 41.6451916, "lon": -0.8833112, "tags": {"name": "Dioro", "shop": "jewelry"}}, {"type": "node", "id": 1814118941, "lat": 41.645288, "lon": -0.883476, "tags": {"name": "Singularu", "opening_hours": "Mo-Sa 10:00-21:00", "shop": "jewelry"}}, {"type": "node", "id": 1814118942, "lat": 41.6457462, "lon": -0.883889, "tags": {"addr:country": "ES", "name": "Cebado", "shop": "hairdresser"}}, {"type": "node", "id": 1814118943, "lat": 41.6456915, "lon": -0.8838141, "tags": {"name": "Stock Final", "shop": "clothes"}}, {"type": "node", "id": 1814118950, "lat": 41.6458105, "lon": -0.8839791, "tags": {"beauty": "nails", "name": "Gh nail bar", "opening_hours": "Mo-Fr 09:30-20:00; Sa 10:00-15:00", "shop": "beauty"}}, {"type": "node", "id": 1814118960, "lat": 41.6463345, "lon": -0.8842133, "tags": {"brand": "United Colors of Benetton", "brand:wikidata": "Q817139", "brand:wikipedia": "en:Benetton Group", "name": "United Colors of Benetton", "opening_hours": "Mo-Sa 10:30-20:30", "shop": "clothes", "short_name": "Benetton", "wheelchair": "yes"}}, {"type": "node", "id": 1814118963, "lat": 41.6468605, "lon": -0.8835739, "tags": {"addr:housenumber": "12", "addr:street": "Calle de San Ignacio de Loyola", "brand": "Women'secret", "brand:wikidata": "Q16648226", "brand:wikipedia": "es:Women'secret", "clothes": "underwear;women", "name": "Women'secret", "opening_hours": "Mo-Sa 10:00-21:00", "shop": "clothes"}}, {"type": "node", "id": 1814118964, "lat": 41.6458043, "lon": -0.8847006, "tags": {"addr:housenumber": "5", "addr:street": "Paseo de las Damas", "brand": "Zara", "brand:wikidata": "Q147662", "brand:wikipedia": "en:Zara (retailer)", "name": "Zara", "opening_hours": "Mo-Sa 10:00-21:00", "shop": "clothes"}}, {"type": "node", "id": 1912677295, "lat": 41.6551673, "lon": -0.8837066, "tags": {"addr:housename": "Corseter\u00eda La Suprema", "addr:housenumber": "76", "addr:postcode": "50003", "addr:street": "Avenida de C\u00e9sar Augusto", "name": "Corseter\u00eda La Suprema", "opening_hours": "Mo-Fr 09:45-13:30,17:00-20:30; Sa 09:45-13:30", "shop": "clothes", "website": "http://webs.ono.com/lasuprema/LaSuprema.html"}}, {"type": "node", "id": 2111465005, "lat": 41.6469273, "lon": -0.8813866, "tags": {"name": "Imagine", "shop": "clothes"}}, {"type": "node", "id": 2724069162, "lat": 41.6425292, "lon": -0.8853408, "tags": {"addr:city": "Zaragoza", "addr:housenumber": "6", "addr:postcode": "50008", "addr:street": "Calle de la Paz", "name": "El Beso", "shop": "jewelry"}}, {"type": "node", "id": 2841653746, "lat": 41.6498341, "lon": -0.8821677, "tags": {"name": "Eva Pellejero", "opening_hours": "Tu-Fr 10:00-19:00; Sa 08:30-14:30", "shop": "hairdresser"}}, {"type": "node", "id": 2997973234, "lat": 41.643535, "lon": -0.8805011, "tags": {"name": "Boutique Mar\u00eda Jes\u00fas", "opening_hours": "Mo-Sa 10:00-14:00,17:00-20:30", "shop": "boutique"}}, {"type": "node", "id": 3052473648, "lat": 41.6452202, "lon": -0.8782245, "tags": {"name": "Alierta 22", "shop": "hairdresser"}}, {"type": "node", "id": 3057846839, "lat": 41.6449647, "lon": -0.8810624, "tags": {"addr:housenumber": "30", "addr:street": "Calle de Santa Joaquina de Vedruna", "name": "Perfect nails", "shop": "beauty"}}, {"type": "node", "id": 3057846842, "lat": 41.6446007, "lon": -0.8813291, "tags": {"name": "Dolce", "shop": "beauty"}}, {"type": "node", "id": 3057846846, "lat": 41.6450934, "lon": -0.8803655, "tags": {"name": "Lilou", "shop": "boutique"}}, {"type": "node", "id": 3057846847, "lat": 41.6449425, "lon": -0.8806525, "tags": {"name": "Merceria Marinette", "shop": "fabric"}}, {"type": "node", "id": 3057846851, "lat": 41.6452748, "lon": -0.8800122, "tags": {"name": "TM", "shop": "hairdresser"}}, {"type": "node", "id": 3148986630, "lat": 41.6448844, "lon": -0.8828259, "tags": {"name": "Los caprichos de Ainhoa", "shop": "boutique"}}, {"type": "node", "id": 3148986729, "lat": 41.6448516, "lon": -0.8827983, "tags": {"name": "20d2", "shop": "hairdresser"}}, {"type": "node", "id": 3148986829, "lat": 41.6448201, "lon": -0.8827641, "tags": {"name": "Trasluz", "shop": "clothes"}}, {"type": "node", "id": 3148986929, "lat": 41.644787, "lon": -0.8827287, "tags": {"name": "Deux belles amies", "shop": "boutique"}}, {"type": "node", "id": 3748567416, "lat": 41.6537765, "lon": -0.8815006, "tags": {"brand": "Flying Tiger Copenhagen", "brand:wikidata": "Q2786319", "brand:wikipedia": "en:Flying Tiger Copenhagen", "name": "Flying Tiger Copenhagen", "opening_hours": "Mo-Sa 10:00-21:00; Su 11:00-20:00", "shop": "variety_store", "short_name": "Flying Tiger"}}, {"type": "node", "id": 4174587897, "lat": 41.650487, "lon": -0.8840348, "tags": {"addr:city": "Zaragoza", "addr:flats": "Centro Comercial El Caracol local 30", "addr:housenumber": "24-26", "addr:postcode": "50004", "addr:street": "Paseo de la Independencia", "clothes": "young", "name": "Galopa", "opening_hours": "Mo-Fr 09:00-14:00,16:30-21:00; Sa 10:00-21:00", "phone": "+34 976 22 40 50", "shop": "clothes", "source": "survey"}}, {"type": "node", "id": 4293082972, "lat": 41.6501164, "lon": -0.8755745, "tags": {"addr:city": "Zaragoza", "addr:housenumber": "16", "addr:postcode": "50001", "addr:street": "Calle de la Cadena", "name": "Coeur de Coton", "shop": "clothes", "source": "survey"}}, {"type": "node", "id": 4316923529, "lat": 41.6527272, "lon": -0.8772778, "tags": {"addr:city": "Zaragoza", "addr:housenumber": "1", "addr:postcode": "50001", "addr:street": "Plaza San Pedro Nolasco", "name": "D\u00f3ndola", "shop": "clothes", "source": "survey", "website": "http://www.dondolamoda.es/"}}, {"type": "node", "id": 4323229620, "lat": 41.6449305, "lon": -0.8872876, "tags": {"addr:housenumber": "20", "addr:street": "Calle Mariano Royo Urieta", "name": "Alejandro Moda", "shop": "clothes"}}, {"type": "node", "id": 4323229623, "lat": 41.6449272, "lon": -0.8869451, "tags": {"name": "Baru Hombre", "shop": "clothes"}}, {"type": "node", "id": 4323229624, "lat": 41.6450693, "lon": -0.8872745, "tags": {"name": "Calzados Ochoa", "opening_hours": "Mo-Fr 10:00-13:30,16:45-20:30; Sa 10:00-14:00,17:00-20:30", "shop": "shoes"}}, {"type": "node", "id": 4323229625, "lat": 41.64621, "lon": -0.8870801, "tags": {"name": "Calzados Silvio", "opening_hours": "Mo-Sa 10:00-13:30,16:30-20:30", "shop": "shoes"}}, {"type": "node", "id": 4323229632, "lat": 41.6462989, "lon": -0.8870525, "tags": {"name": "LoveStory", "opening_hours": "Mo-Fr 10:30-13:30,17:00-20:00; Sa 10:30-13:30", "shop": "clothes", "wheelchair": "limited"}}, {"type": "node", "id": 4323229635, "lat": 41.6461406, "lon": -0.8874515, "tags": {"addr:city": "Zaragoza", "addr:country": "ES", "addr:housenumber": "11", "addr:street": "Paseo de la Gran V\u00eda", "contact:phone": "+34 976 226 945", "contact:website": "https://sombrerosalbero.es", "name": "Sombreros Albero", "opening_hours": "Mo-Sa 09:30-13:30,16:30-20:30", "opening_hours:source": "https://sombrerosalbero.es/content/12-nuestras-tiendas", "shop": "clothes", "wheelchair": "yes"}}, {"type": "node", "id": 4327194190, "lat": 41.6466022, "lon": -0.8862461, "tags": {"name": "Franc Sarabia", "opening_hours": "Mo 09:30-13:30,17:00-20:30; Tu-Fr 10:00-13:30,16:45-20:30; Sa 10:00-13:30", "shop": "boutique", "wheelchair": "yes"}}, {"type": "node", "id": 4327757092, "lat": 41.6438814, "lon": -0.8871235, "tags": {"name": "Nails Clinic", "shop": "cosmetics"}}, {"type": "node", "id": 4327764890, "lat": 41.6423642, "lon": -0.8859213, "tags": {"addr:housenumber": "23", "addr:street": "Paseo Sagasta", "name": "Gusta", "shop": "clothes"}}, {"type": "node", "id": 4327779292, "lat": 41.6421796, "lon": -0.8856847, "tags": {"name": "Tu Talla", "shop": "clothes"}}, {"type": "node", "id": 4327800391, "lat": 41.642217, "lon": -0.8857648, "tags": {"name": "Clos Joyeros", "shop": "jewelry"}}, {"type": "node", "id": 4327823589, "lat": 41.6421567, "lon": -0.8856063, "tags": {"name": "Little Kings", "shop": "clothes"}}, {"type": "node", "id": 4327888996, "lat": 41.6407098, "lon": -0.8836244, "tags": {"name": "Niccol", "shop": "clothes"}}, {"type": "node", "id": 4327902795, "lat": 41.6408515, "lon": -0.8838271, "tags": {"name": "Calzados Silvio", "opening_hours": "Mo-Sa 10:00-13:30,16:30-20:30", "shop": "shoes"}}, {"type": "node", "id": 4327906091, "lat": 41.640578, "lon": -0.8835326, "tags": {"name": "La casa de las hierbas", "shop": "cosmetics"}}, {"type": "node", "id": 4327924292, "lat": 41.6410678, "lon": -0.8844012, "tags": {"name": "Ewi", "shop": "tailor"}}, {"type": "node", "id": 4327949089, "lat": 41.6411523, "lon": -0.8843605, "tags": {"name": "Peluquer\u00eda Montecarlo", "shop": "beauty"}}, {"type": "node", "id": 4334481726, "lat": 41.6450228, "lon": -0.891517, "tags": {"name": "Camiser\u00eda a medida Melton", "opening_hours": "Mo-Sa 10:30-13:30,17:00-20:30", "shop": "tailor"}}, {"type": "node", "id": 4334481729, "lat": 41.6451296, "lon": -0.8917583, "tags": {"name": "Grado90", "shop": "clothes"}}, {"type": "node", "id": 4334481733, "lat": 41.6454807, "lon": -0.8921012, "tags": {"name": "Montecarlo", "shop": "jewelry"}}, {"type": "node", "id": 4334481735, "lat": 41.645177, "lon": -0.8915218, "tags": {"name": "Toscana", "shop": "clothes"}}, {"type": "node", "id": 4334524424, "lat": 41.645591, "lon": -0.8907773, "tags": {"name": "Centro Audioprot\u00e9sico de Arag\u00f3n", "shop": "hearing_aids"}}, {"type": "node", "id": 4334524430, "lat": 41.645986, "lon": -0.8918329, "tags": {"name": "Material militar Distripol", "shop": "clothes"}}, {"type": "node", "id": 4334524432, "lat": 41.6451189, "lon": -0.891244, "tags": {"name": "Dreams", "shop": "clothes"}}, {"type": "node", "id": 4334560322, "lat": 41.6459628, "lon": -0.8906352, "tags": {"name": "Estilistas RBK", "shop": "clothes"}}, {"type": "node", "id": 4334560325, "lat": 41.6462105, "lon": -0.8911093, "tags": {"name": "PM19", "shop": "clothes"}}, {"type": "node", "id": 4334598035, "lat": 41.6460867, "lon": -0.8905887, "tags": {"name": "Beauty Mirror", "shop": "cosmetics"}}, {"type": "node", "id": 4334598039, "lat": 41.6459732, "lon": -0.8903873, "tags": {"name": "Coco", "shop": "clothes"}}, {"type": "node", "id": 4334598040, "lat": 41.6461179, "lon": -0.8906615, "tags": {"name": "Est\u00e9tica Avanzada", "shop": "hairdresser"}}, {"type": "node", "id": 4334598043, "lat": 41.6465474, "lon": -0.8914439, "tags": {"name": "Peluquer\u00eda Grupo Dos", "shop": "hairdresser"}}, {"type": "node", "id": 4334598742, "lat": 41.6457937, "lon": -0.8900666, "tags": {"name": "Asesores de belleza Mar\u00eda Burillo", "shop": "beauty"}}, {"type": "node", "id": 4334598744, "lat": 41.6459697, "lon": -0.8902587, "tags": {"name": "Pellbella", "shop": "beauty"}}, {"type": "node", "id": 4334598745, "lat": 41.6458134, "lon": -0.890096, "tags": {"name": "Pod\u00f3golo Carlos Mendiela", "shop": "clothes"}}, {"type": "node", "id": 4334601895, "lat": 41.6460566, "lon": -0.8901782, "tags": {"name": "Mondiale", "shop": "beauty"}}, {"type": "node", "id": 4334620485, "lat": 41.6453594, "lon": -0.8870779, "tags": {"name": "Bambaninos", "shop": "shoes"}}, {"type": "node", "id": 4334620558, "lat": 41.6469086, "lon": -0.8912751, "tags": {"name": "Serendipia", "shop": "clothes"}}, {"type": "node", "id": 4334632240, "lat": 41.6465202, "lon": -0.8894965, "tags": {"name": "Est\u00e9tica Barogue", "shop": "beauty"}}, {"type": "node", "id": 4334646789, "lat": 41.645491, "lon": -0.8870811, "tags": {"name": "Est\u00e9tica Cesval", "shop": "beauty"}}, {"type": "node", "id": 4334646791, "lat": 41.6461775, "lon": -0.8884817, "tags": {"name": "Florencia", "shop": "jewelry", "wheelchair": "no"}}, {"type": "node", "id": 4334646797, "lat": 41.6456855, "lon": -0.8870455, "tags": {"name": "Ortopedia Silvio", "opening_hours": "Mo-Fr 09:30-13:30,16:30-20:30; Sa 09:30-13:30", "shop": "hearing_aids"}}, {"type": "node", "id": 4334646799, "lat": 41.6458997, "lon": -0.8870238, "tags": {"name": "Peluquer\u00eda Eleyce", "shop": "hairdresser"}}, {"type": "node", "id": 4334646801, "lat": 41.6461046, "lon": -0.8871028, "tags": {"name": "Emi Beauty Studio", "opening_hours": "Mo-Fr 10:00-19:00; Sa 10:00-14:00", "shop": "beauty"}}, {"type": "node", "id": 4334646802, "lat": 41.6452849, "lon": -0.887095, "tags": {"name": "Turquesa", "shop": "clothes"}}, {"type": "node", "id": 4338330090, "lat": 41.6563195, "lon": -0.8941017, "tags": {"name": "Fernando Lozano", "shop": "hairdresser"}}, {"type": "node", "id": 4338458389, "lat": 41.6468138, "lon": -0.8727509, "tags": {"name": "Las Torres", "shop": "jewelry"}}, {"type": "node", "id": 4343323792, "lat": 41.6504515, "lon": -0.8830653, "tags": {"name": "La tienda de las camisas", "shop": "clothes"}}, {"type": "node", "id": 4345774593, "lat": 41.6502187, "lon": -0.8762697, "tags": {"name": "Calzados Silvio", "shop": "shoes"}}, {"type": "node", "id": 4347286295, "lat": 41.6523309, "lon": -0.8796937, "tags": {"name": "Cardiff Hombre", "shop": "clothes"}}, {"type": "node", "id": 4349525935, "lat": 41.6444861, "lon": -0.8926156, "tags": {"name": "Ares", "shop": "jewelry"}}, {"type": "node", "id": 4349525941, "lat": 41.6453054, "lon": -0.8925111, "tags": {"name": "Cachet", "shop": "boutique"}}, {"type": "node", "id": 4349525942, "lat": 41.6474009, "lon": -0.893639, "tags": {"name": "Calzados Komodos", "shop": "shoes"}}, {"type": "node", "id": 4349525943, "lat": 41.6455815, "lon": -0.8923274, "tags": {"name": "Centro Comercial Goya. Pasaje.", "shop": "clothes"}}, {"type": "node", "id": 4349525946, "lat": 41.6450999, "lon": -0.892666, "tags": {"name": "Clinc", "shop": "boutique"}}, {"type": "node", "id": 4349525953, "lat": 41.6463366, "lon": -0.8934794, "tags": {"name": "El Sal\u00f3n de Mar\u00eda", "shop": "hairdresser"}}, {"type": "node", "id": 4349525959, "lat": 41.6456082, "lon": -0.893562, "tags": {"name": "Goya 69", "shop": "boutique"}}, {"type": "node", "id": 4349525961, "lat": 41.646762, "lon": -0.8939018, "tags": {"name": "Joyer\u00eda Bernad", "shop": "jewelry"}}, {"type": "node", "id": 4349525962, "lat": 41.6461003, "lon": -0.8939686, "tags": {"name": "La Casa de los Carrillones", "shop": "jewelry"}}, {"type": "node", "id": 4349525964, "lat": 41.6449322, "lon": -0.893126, "tags": {"name": "Lencer\u00eda Martika", "shop": "clothes"}}, {"type": "node", "id": 4349525965, "lat": 41.6460417, "lon": -0.8937654, "tags": {"name": "Maryles", "shop": "boutique"}}, {"type": "node", "id": 4349525970, "lat": 41.6457894, "lon": -0.8932856, "tags": {"name": "Pasaje Goya", "shop": "clothes", "wheelchair": "no"}}, {"type": "node", "id": 4349525976, "lat": 41.6468121, "lon": -0.8939166, "tags": {"name": "Uni\u00f3n Estilistas", "shop": "beauty"}}, {"type": "node", "id": 4349646686, "lat": 41.6453393, "lon": -0.8872405, "tags": {"name": "Alberto Ba\u00f1uelos", "shop": "hairdresser"}}, {"type": "node", "id": 4349647116, "lat": 41.6499615, "lon": -0.8885514, "tags": {"name": "Gusta Fasi", "opening_hours": "Mo-Sa 10:00-21:00", "shop": "clothes"}}, {"type": "node", "id": 4349647122, "lat": 41.6492704, "lon": -0.8876198, "tags": {"name": "Laser 2000", "shop": "beauty"}}, {"type": "node", "id": 4350640400, "lat": 41.6445331, "lon": -0.8911913, "tags": {"name": "No + vello", "shop": "beauty"}}, {"type": "node", "id": 4352361891, "lat": 41.644549, "lon": -0.885601, "tags": {"name": "Tar\u00edn", "shop": "jewelry"}}, {"type": "node", "id": 4352373594, "lat": 41.6446711, "lon": -0.8855791, "tags": {"name": "Mulaya", "opening_hours": "Mo-Sa 10:00-21:00", "shop": "clothes"}}, {"type": "node", "id": 4352416689, "lat": 41.6446348, "lon": -0.8855934, "tags": {"name": "RH Reija", "shop": "boutique"}}, {"type": "node", "id": 4352696893, "lat": 41.6499793, "lon": -0.8764351, "tags": {"name": "Desenredo", "shop": "hairdresser"}}, {"type": "node", "id": 4352742491, "lat": 41.6500825, "lon": -0.8764034, "tags": {"name": "Gris Perla", "shop": "boutique"}}, {"type": "node", "id": 4355160996, "lat": 41.6452031, "lon": -0.8897374, "tags": {"name": "Oh my cut!", "shop": "hairdresser"}}, {"type": "node", "id": 4355161097, "lat": 41.645205, "lon": -0.8885927, "tags": {"name": "Eskar", "shop": "jewelry"}}, {"type": "node", "id": 4355161799, "lat": 41.6443566, "lon": -0.8913883, "tags": {"name": "Natural Fashion", "shop": "boutique"}}, {"type": "node", "id": 4355161801, "lat": 41.6454615, "lon": -0.8902975, "tags": {"name": "Garras", "shop": "shoes"}}, {"type": "node", "id": 4355161802, "lat": 41.6451343, "lon": -0.8897982, "tags": {"name": "Skunkfunk", "shop": "boutique"}}, {"type": "node", "id": 4355161803, "lat": 41.6452946, "lon": -0.8889488, "tags": {"name": "Girasol", "shop": "boutique"}}, {"type": "node", "id": 4355161899, "lat": 41.64469, "lon": -0.8917602, "tags": {"name": "Mar de Colors", "shop": "boutique"}}, {"type": "node", "id": 4355162191, "lat": 41.6447325, "lon": -0.8916825, "tags": {"name": "Omiu", "shop": "boutique"}}, {"type": "node", "id": 4355162193, "lat": 41.6450692, "lon": -0.8875977, "tags": {"name": "Moemoisi", "shop": "boutique"}}, {"type": "node", "id": 4355216189, "lat": 41.6454976, "lon": -0.8902116, "tags": {"addr:housenumber": "36", "addr:street": "Paseo de la Gran V\u00eda", "name": "Kalaina", "shop": "hairdresser"}}, {"type": "node", "id": 4355645791, "lat": 41.6446998, "lon": -0.8873705, "tags": {"addr:housenumber": "22", "addr:street": "Calle Mariano Royo Urieta", "name": "Latido verde", "shop": "boutique"}}, {"type": "node", "id": 4355645792, "lat": 41.6445686, "lon": -0.8874392, "tags": {"addr:housenumber": "24", "addr:street": "Calle Mariano Royo Urieta", "name": "Xabiero Bernalli", "shop": "hairdresser"}}, {"type": "node", "id": 4355681290, "lat": 41.6448642, "lon": -0.8873179, "tags": {"addr:housenumber": "20", "addr:street": "Calle Mariano Royo Urieta", "name": "Ukys", "shop": "boutique"}}, {"type": "node", "id": 4355683990, "lat": 41.6439755, "lon": -0.8874887, "tags": {"addr:housenumber": "11", "addr:street": "Calle de Miguel de Cervantes", "name": "Helena Moor", "shop": "hairdresser"}}, {"type": "node", "id": 4355700089, "lat": 41.6437652, "lon": -0.8880715, "tags": {"addr:housenumber": "21", "addr:street": "Calle del Arzobispo Dom\u00e9nech", "name": "Nube", "shop": "boutique"}}, {"type": "node", "id": 4357306791, "lat": 41.6493379, "lon": -0.8879911, "tags": {"name": "Trendy", "shop": "hairdresser"}}, {"type": "node", "id": 4357797389, "lat": 41.6417517, "lon": -0.8860288, "tags": {"name": "Leonardo", "shop": "hairdresser"}}, {"type": "node", "id": 4358700491, "lat": 41.6451435, "lon": -0.8839803, "tags": {"name": "Pimkie", "opening_hours": "Mo-Sa 10:00-21:00", "shop": "boutique"}}, {"type": "node", "id": 4360268093, "lat": 41.655588, "lon": -0.8912711, "tags": {"name": "El Mahdi", "shop": "hairdresser"}}, {"type": "node", "id": 4360359893, "lat": 41.6526928, "lon": -0.8788768, "tags": {"name": "Pronovias", "shop": "boutique"}}, {"type": "node", "id": 4361363989, "lat": 41.6555372, "lon": -0.8909391, "tags": {"name": "Lesly", "shop": "hairdresser"}}, {"type": "node", "id": 4361416708, "lat": 41.6523853, "lon": -0.8796159, "tags": {"name": "Bianca Novias", "shop": "boutique"}}, {"type": "node", "id": 4361755290, "lat": 41.6507182, "lon": -0.8819631, "tags": {"brand": "Mango", "brand:wikidata": "Q136503", "brand:wikipedia": "en:Mango (retailer)", "name": "Mango", "shop": "clothes"}}, {"type": "node", "id": 4361873189, "lat": 41.6530779, "lon": -0.8787861, "tags": {"name": "Bergam\u00edn", "shop": "boutique"}}, {"type": "node", "id": 4363091695, "lat": 41.6449755, "lon": -0.8768866, "tags": {"name": "Larhibi", "shop": "beauty"}}, {"type": "node", "id": 4363176294, "lat": 41.6507317, "lon": -0.8828238, "tags": {"name": "Parfois", "shop": "boutique"}}, {"type": "node", "id": 4363354291, "lat": 41.6436836, "lon": -0.8862281, "tags": {"addr:housenumber": "32", "addr:street": "Paseo Sagasta", "name": "M & N Studio", "shop": "beauty"}}, {"type": "node", "id": 4364459990, "lat": 41.6420491, "lon": -0.8889308, "tags": {"name": "Kine", "shop": "beauty"}}, {"type": "node", "id": 4364459998, "lat": 41.6417754, "lon": -0.8878041, "tags": {"name": "Poppa", "shop": "hairdresser"}}, {"type": "node", "id": 4364472396, "lat": 41.6433668, "lon": -0.8877612, "tags": {"addr:housenumber": "13", "addr:street": "Calle Tom\u00e1s Zumalac\u00e1rregui", "name": "Moll Estilistas", "shop": "hairdresser"}}, {"type": "node", "id": 4364478190, "lat": 41.6423677, "lon": -0.88947, "tags": {"name": "Ordo\u00f1ez", "shop": "hairdresser"}}, {"type": "node", "id": 4364480797, "lat": 41.6425798, "lon": -0.8876369, "tags": {"name": "Goya 11", "shop": "hairdresser"}}, {"type": "node", "id": 4364484692, "lat": 41.641986, "lon": -0.8887572, "tags": {"name": "+/- arreglos", "shop": "tailor"}}, {"type": "node", "id": 4364494790, "lat": 41.6440156, "lon": -0.8862764, "tags": {"name": "Mar\u00eda Sancho", "shop": "boutique"}}, {"type": "node", "id": 4364517491, "lat": 41.6441364, "lon": -0.8865119, "tags": {"name": "La Trajer\u00eda", "shop": "boutique"}}, {"type": "node", "id": 4364540590, "lat": 41.6419172, "lon": -0.8876897, "tags": {"name": "Daytona Tattoo", "shop": "tattoo"}}, {"type": "node", "id": 4364540595, "lat": 41.6429699, "lon": -0.8879072, "tags": {"name": "Cactus", "shop": "hairdresser"}}, {"type": "node", "id": 4364540596, "lat": 41.6426612, "lon": -0.8881889, "tags": {"name": "U\u00f1as Lin", "shop": "beauty"}}, {"type": "node", "id": 4364543793, "lat": 41.6440243, "lon": -0.8863768, "tags": {"name": "deCandela", "opening_hours": "Mo-Fr 10:30-13:30,17:00-20:00; Sa 10:30-13:30", "shop": "boutique", "website": "https://www.decandela.es/"}}, {"type": "node", "id": 4366130092, "lat": 41.6584657, "lon": -0.8746513, "tags": {"name": "Benomia", "shop": "hairdresser"}}, {"type": "node", "id": 4366133790, "lat": 41.652668, "lon": -0.87893, "tags": {"name": "Perfumer\u00eda Gotta", "shop": "beauty"}}, {"type": "node", "id": 4367705596, "lat": 41.6503465, "lon": -0.8873308, "tags": {"name": "Bienestar para tus pies", "opening_hours": "Mo-Fr 10:00-20:00; Sa 11:00-14:00", "shop": "shoes"}}, {"type": "node", "id": 4367713198, "lat": 41.653651, "lon": -0.8779433, "tags": {"addr:housenumber": "32", "addr:street": "Calle de Don Jaime I", "name": "Mimbre", "shop": "boutique"}}, {"type": "node", "id": 4369599599, "lat": 41.6484307, "lon": -0.8942384, "tags": {"name": "Zen Ikebana", "shop": "cosmetics", "source": "survey"}}, {"type": "node", "id": 4373514390, "lat": 41.652533, "lon": -0.8794163, "tags": {"name": "Portebel", "shop": "boutique"}}, {"type": "node", "id": 4373893289, "lat": 41.6543412, "lon": -0.8847831, "tags": {"name": "Lencer\u00eda Emi", "shop": "boutique"}}, {"type": "node", "id": 4374281492, "lat": 41.6590502, "lon": -0.874456, "tags": {"name": "AntesMuertaKSencilla", "shop": "beauty"}}, {"type": "node", "id": 4374281496, "lat": 41.650493, "lon": -0.8830435, "tags": {"name": "Reija", "shop": "boutique"}}, {"type": "node", "id": 4374473898, "lat": 41.6508588, "lon": -0.8776371, "tags": {"name": "Belle", "shop": "beauty"}}, {"type": "node", "id": 4374487790, "lat": 41.6503211, "lon": -0.8823773, "tags": {"addr:housenumber": "23", "addr:street": "Paseo de la Independencia", "brand": "Women'secret", "brand:wikidata": "Q16648226", "brand:wikipedia": "es:Women'secret", "clothes": "underwear;women", "name": "Women'secret", "opening_hours": "Mo-Sa 10:00-21:00", "shop": "clothes"}}, {"type": "node", "id": 4374541191, "lat": 41.6501824, "lon": -0.8825146, "tags": {"brand": "Intimissimi", "brand:wikidata": "Q305404", "brand:wikipedia": "en:Intimissimi", "clothes": "underwear", "name": "Intimissimi", "shop": "clothes"}}, {"type": "node", "id": 4379693194, "lat": 41.6459273, "lon": -0.8900991, "tags": {"name": "Cosas de Beb\u00e9s", "shop": "clothes", "source": "survey"}}, {"type": "node", "id": 4379693195, "lat": 41.6457098, "lon": -0.8902936, "tags": {"name": "Decoraci\u00f3n Textil Montiel Decor", "shop": "fabric"}}, {"type": "node", "id": 4379693196, "lat": 41.6455174, "lon": -0.8904438, "tags": {"name": "El Caballito de Mimbre", "shop": "clothes"}}, {"type": "node", "id": 4379693198, "lat": 41.6462089, "lon": -0.8898416, "tags": {"name": "El Secreto de Ninette", "shop": "erotic", "source": "survey"}}, {"type": "node", "id": 4379693200, "lat": 41.6457308, "lon": -0.8901997, "tags": {"name": "Escorpi\u00f3n", "shop": "boutique"}}, {"type": "node", "id": 4379693203, "lat": 41.6467601, "lon": -0.889324, "tags": {"name": "Estudio Tattoo IREZUMI", "shop": "tattoo", "source": "survey"}}, {"type": "node", "id": 4379693204, "lat": 41.6455855, "lon": -0.8903928, "tags": {"name": "Garras", "shop": "shoes"}}, {"type": "node", "id": 4379693206, "lat": 41.646721, "lon": -0.8895251, "tags": {"name": "Gu'ss", "shop": "boutique", "source": "survey"}}, {"type": "node", "id": 4379693212, "lat": 41.6477141, "lon": -0.887948, "tags": {"name": "Natural Derm", "shop": "beauty", "source": "survey"}}, {"type": "node", "id": 4379693217, "lat": 41.6472772, "lon": -0.8889538, "tags": {"name": "Truko", "shop": "hairdresser", "source": "survey"}}, {"type": "node", "id": 4379693218, "lat": 41.6479135, "lon": -0.887036, "tags": {"clothes": "fashion", "name": "Tus Complementos Low Cost", "shop": "clothes"}}, {"type": "node", "id": 4380572689, "lat": 41.6502943, "lon": -0.886746, "tags": {"name": "Money Transformers", "opening_hours": "Mo-Sa 10:00-14:00,16:30-20:30", "shop": "second_hand"}}, {"type": "node", "id": 4382059390, "lat": 41.6482013, "lon": -0.8925537, "tags": {"brand": "Amplifon", "brand:wikidata": "Q477222", "brand:wikipedia": "en:Amplifon", "name": "Amplifon", "shop": "hearing_aids"}}, {"type": "node", "id": 4383398689, "lat": 41.6494293, "lon": -0.8841652, "tags": {"name": "Cortefiel", "opening_hours": "Mo-Sa 10:00-21:00", "shop": "boutique"}}, {"type": "node", "id": 4383565292, "lat": 41.6514498, "lon": -0.879154, "tags": {"name": "Larraz", "opening_hours": "Mo-Fr 10:00-20:30", "shop": "fabric"}}, {"type": "node", "id": 4383567194, "lat": 41.6484481, "lon": -0.8818836, "tags": {"name": "Carolina Herrera", "opening_hours": "Mo-Sa 10:00-14:00,17:00-20:30", "shop": "boutique"}}, {"type": "node", "id": 4383567195, "lat": 41.6485129, "lon": -0.8818161, "tags": {"name": "MaxMara", "opening_hours": "Mo-Sa 10:00-14:00,17:00-20:00", "shop": "boutique"}}, {"type": "node", "id": 4383567196, "lat": 41.6485372, "lon": -0.8820357, "tags": {"name": "Scalpers", "opening_hours": "Mo-Sa 10:00-20:30", "shop": "boutique"}}, {"type": "node", "id": 4385197389, "lat": 41.6537528, "lon": -0.8778509, "tags": {"name": "Josgel", "shop": "hairdresser"}}, {"type": "node", "id": 4385234890, "lat": 41.6518617, "lon": -0.8814416, "tags": {"brand": "Sephora", "brand:wikidata": "Q2408041", "brand:wikipedia": "en:Sephora", "name": "Sephora", "opening_hours": "Mo-Sa 10:00-21:00", "shop": "cosmetics"}}, {"type": "node", "id": 4385814890, "lat": 41.6609685, "lon": -0.8736329, "tags": {"name": "Bogar", "shop": "shoes"}}, {"type": "node", "id": 4386836194, "lat": 41.6497514, "lon": -0.8829673, "tags": {"brand": "Parfois", "brand:wikidata": "Q7136948", "brand:wikipedia": "en:Parfois", "name": "Parfois", "opening_hours": "Mo-Sa 10:00-21:00", "shop": "fashion_accessories"}}, {"type": "node", "id": 4387506493, "lat": 41.6503605, "lon": -0.8760248, "tags": {"name": "Lavanda", "shop": "boutique"}}, {"type": "node", "id": 4389249972, "lat": 41.6454525, "lon": -0.8892023, "tags": {"name": "Aurum", "shop": "jewelry"}}, {"type": "node", "id": 4389249977, "lat": 41.6461847, "lon": -0.8873151, "tags": {"name": "Perfumer\u00eda Elements", "shop": "cosmetics"}}, {"type": "node", "id": 4391784089, "lat": 41.6539246, "lon": -0.8771435, "tags": {"name": "Langa's", "shop": "hairdresser"}}, {"type": "node", "id": 4396192389, "lat": 41.6424539, "lon": -0.8835398, "tags": {"addr:city": "Zaragoza", "addr:housenumber": "21", "addr:postcode": "50008", "addr:street": "Calle de la Paz", "email": "info@xhadaestilistas.com", "name": "Xhada Estilistas", "opening_hours": "Tu-Fr 09:00-19:00; Sa 09:00-14:00", "phone": "+34 976 212 392", "shop": "hairdresser", "website": "https://www.xhadaestilistas.com/"}}, {"type": "node", "id": 4397371491, "lat": 41.6547006, "lon": -0.8839955, "tags": {"name": "Factory", "shop": "clothes"}}, {"type": "node", "id": 4397392495, "lat": 41.6533425, "lon": -0.8757986, "tags": {"name": "KMKAZE", "shop": "clothes"}}, {"type": "node", "id": 4398748797, "lat": 41.6530174, "lon": -0.8754278, "tags": {"name": "Esenzia", "shop": "boutique"}}, {"type": "node", "id": 4401524367, "lat": 41.6440411, "lon": -0.8930375, "tags": {"name": "Belleza y Bienestar", "shop": "beauty", "source": "survey"}}, {"type": "node", "id": 4401524378, "lat": 41.6445943, "lon": -0.8931944, "tags": {"name": "Centro Diet\u00e9tico Polen", "shop": "chemist", "source": "survey", "wheelchair": "limited"}}, {"type": "node", "id": 4402447590, "lat": 41.6483517, "lon": -0.8816676, "tags": {"name": "Tar\u00edn", "opening_hours": "Mo-Fr 10:30-13:30,17:00-20:00; Sa 10:30-14:00", "shop": "jewelry"}}, {"type": "node", "id": 4410443389, "lat": 41.653053, "lon": -0.8788697, "tags": {"name": "Serrano", "opening_hours": "Mo-Sa 09:30-13:30,17:00-20:15", "shop": "boutique"}}, {"type": "node", "id": 4425378345, "lat": 41.6475538, "lon": -0.8737944, "tags": {"female": "no", "level": "0", "male": "no", "name": "Badal", "shop": "hairdresser", "unisex": "no"}}, {"type": "node", "id": 4451789381, "lat": 41.654407, "lon": -0.8775294, "tags": {"level": "0", "name": "Razza", "shop": "boutique"}}, {"type": "node", "id": 4482432408, "lat": 41.6545322, "lon": -0.8844754, "tags": {"level": "0", "name": "Royo", "shop": "boutique"}}, {"type": "node", "id": 4518809760, "lat": 41.6454769, "lon": -0.8774854, "tags": {"level": "0", "name": "BHS", "shop": "boutique"}}, {"type": "node", "id": 4539799221, "lat": 41.6439991, "lon": -0.8833526, "tags": {"addr:city": "Zaragoza", "addr:housenumber": "30", "addr:postcode": "50008", "addr:street": "Paseo de las Damas", "brand": "Bershka", "brand:wikidata": "Q827258", "brand:wikipedia": "en:Bershka", "name": "Bershka", "name:es": "Bershka", "shop": "clothes"}}, {"type": "node", "id": 4539805723, "lat": 41.6443894, "lon": -0.8833113, "tags": {"addr:city": "Zaragoza", "addr:housenumber": "25", "addr:postcode": "50008", "addr:street": "Paseo de las Damas", "brand": "Oysho", "brand:wikidata": "Q3327046", "brand:wikipedia": "en:Oysho", "name": "Oysho", "name:es": "Oysho", "shop": "clothes"}}, {"type": "node", "id": 4539805724, "lat": 41.6444474, "lon": -0.8833626, "tags": {"addr:city": "Zaragoza", "addr:housenumber": "23", "addr:postcode": "50008", "addr:street": "Paseo de las Damas", "brand": "Inside", "name": "Inside", "shop": "clothes"}}, {"type": "node", "id": 4539827108, "lat": 41.6442249, "lon": -0.8831473, "tags": {"addr:city": "Zaragoza", "addr:housenumber": "27", "addr:postcode": "50008", "addr:street": "Paseo de las Damas", "name": "Gilca", "shop": "cosmetics"}}, {"type": "node", "id": 4544862040, "lat": 41.6465369, "lon": -0.8732838, "tags": {"level": "0", "name": "E. Hern\u00e1ndez", "shop": "jewelry"}}, {"type": "node", "id": 4809656121, "lat": 41.6606599, "lon": -0.8762211, "tags": {"fixme": "ubicar correctamente", "name": "Peluqueria Arrabal", "name:es": "Peluqueria Arrabal", "shop": "hairdresser"}}, {"type": "node", "id": 4827306578, "lat": 41.6457904, "lon": -0.88944, "tags": {"name": "Peluquer\u00eca Marco Aldany", "shop": "hairdresser", "wheelchair": "yes"}}, {"type": "node", "id": 4851264621, "lat": 41.6491354, "lon": -0.8884528, "tags": {"addr:street": "Calle de Pizarro", "name": "Rita", "opening_hours": "Mo-Fr 10:00-13:30,16:45-20:30; Sa 10:00-13:45", "shop": "clothes"}}, {"type": "node", "id": 4937994438, "lat": 41.6516383, "lon": -0.873853, "tags": {"level": "0", "name": "Palace Peluquer\u00eda", "shop": "hairdresser"}}, {"type": "node", "id": 4937994454, "lat": 41.6524794, "lon": -0.8741676, "tags": {"level": "0", "name": "Peluqueria", "shop": "hairdresser"}}, {"type": "node", "id": 4937994461, "lat": 41.6527356, "lon": -0.8774432, "tags": {"level": "0", "name": "Joyer\u00eda Oroel", "shop": "jewelry"}}, {"type": "node", "id": 4937994462, "lat": 41.65158, "lon": -0.8750347, "tags": {"clothes": "underwear", "level": "0", "name": "Merceria Susana", "shop": "clothes"}}, {"type": "node", "id": 4943660177, "lat": 41.6503209, "lon": -0.8809809, "tags": {"level": "0", "name": "Javier Simorra", "opening_hours": "Mo-Sa 10:00-14:00,17:00-20:30", "shop": "clothes"}}, {"type": "node", "id": 4943660185, "lat": 41.6500545, "lon": -0.8808864, "tags": {"level": "0", "name": "L'occitane en Provence", "opening_hours": "Mo-Sa 10:30-14:00,16:30-20:30", "shop": "perfumery"}}, {"type": "node", "id": 4943660188, "lat": 41.6517512, "lon": -0.8799819, "tags": {"level": "0", "name": "Modas Ana", "shop": "clothes"}}, {"type": "node", "id": 4943660203, "lat": 41.6513277, "lon": -0.8813658, "tags": {"brand": "Stradivarius", "brand:wikidata": "Q3322945", "brand:wikipedia": "en:Stradivarius (clothing brand)", "level": "0", "name": "Stradivarius", "opening_hours": "Mo-Sa 10:00-21:00", "shop": "clothes"}}, {"type": "node", "id": 4943660206, "lat": 41.6502408, "lon": -0.8808089, "tags": {"level": "0", "name": "Tentazioni", "shop": "clothes"}}, {"type": "node", "id": 4943660207, "lat": 41.6521525, "lon": -0.8744421, "tags": {"level": "0", "name": "Monalita", "shop": "tailor"}}, {"type": "node", "id": 4943660208, "lat": 41.6506139, "lon": -0.8805564, "tags": {"level": "0", "name": "Moranchos", "opening_hours": "Mo-Fr 10:00-13:30,17:00-20:30; Sa 10:00-13:30", "shop": "clothes"}}, {"type": "node", "id": 4968226223, "lat": 41.6453368, "lon": -0.8870805, "tags": {"name": "C\u00f3ndor. CND.", "shop": "clothes"}}, {"type": "node", "id": 4968226225, "lat": 41.6451168, "lon": -0.8913605, "tags": {"name": "La la la by Raquel Mate", "shop": "clothes"}}, {"type": "node", "id": 4972814585, "lat": 41.6497519, "lon": -0.8837989, "tags": {"name": "Perfumer\u00eda Primor", "shop": "beauty", "source": "survey"}}, {"type": "node", "id": 4983835996, "lat": 41.6508596, "lon": -0.8804241, "tags": {"name": "Perfumer\u00eda Paco", "shop": "beauty"}}, {"type": "node", "id": 4985727441, "lat": 41.6432675, "lon": -0.8890088, "tags": {"addr:housenumber": "26", "addr:street": "Avenida Francisco de Goya", "name": "Goya Corporal", "shop": "beauty"}}, {"type": "node", "id": 4985727444, "lat": 41.6433567, "lon": -0.8893964, "tags": {"addr:housenumber": "30", "addr:street": "Avenida Francisco de Goya", "name": "Tejidos Albero", "shop": "clothes"}}, {"type": "node", "id": 4985727449, "lat": 41.6431362, "lon": -0.8918586, "tags": {"addr:housenumber": "12", "addr:street": "Calle de F\u00e9lix Latassa", "name": "Estilistas Epsilon", "shop": "hairdresser"}}, {"type": "node", "id": 4985753816, "lat": 41.6438548, "lon": -0.8880593, "tags": {"addr:housenumber": "21", "addr:street": "Calle del Arzobispo Dom\u00e9nech", "name": "Moda Tess", "shop": "boutique"}}, {"type": "node", "id": 4998102172, "lat": 41.6505025, "lon": -0.8895124, "tags": {"name": "Karina", "opening_hours": "Mo-Fr 09:30-13:15,17:00-20:30; Sa 10:00-13:30", "shop": "shoes"}}, {"type": "node", "id": 5014291071, "lat": 41.6538739, "lon": -0.8839086, "tags": {"addr:city": "Zaragoza", "addr:housenumber": "10-12", "addr:postcode": "50004", "addr:street": "Calle del Coso", "name": "Bogar", "shop": "shoes", "source": "survey"}}, {"type": "node", "id": 5026935420, "lat": 41.6570521, "lon": -0.8940166, "tags": {"addr:housenumber": "5", "addr:street": "Calle de la Aljafer\u00eda", "name": "Peluquer\u00eda y Est\u00e9tica Pretty Women", "shop": "hairdresser"}}, {"type": "node", "id": 5037758753, "lat": 41.6526424, "lon": -0.8862193, "tags": {"addr:street": "Calle de Jos\u00e9 Cam\u00f3n Aznar", "name": "Blanca Gasc\u00f3n", "shop": "shoes", "source": "survey"}}, {"type": "node", "id": 5057296673, "lat": 41.654904, "lon": -0.8810949, "tags": {"name": "Blanca", "opening_hours": "Mo-Fr 09:30-19:00; Sa 09:00-14:00", "shop": "hairdresser"}}, {"type": "node", "id": 5060994998, "lat": 41.6502284, "lon": -0.8816193, "tags": {"addr:city": "Zaragoza", "addr:housenumber": "8", "addr:postcode": "50001", "addr:street": "Calle de Jer\u00f3nimo Zurita", "name": "Singularu", "opening_hours": "Mo-Sa 10:00-21:00", "shop": "jewelry", "source": "survey"}}, {"type": "node", "id": 5060994999, "lat": 41.6502424, "lon": -0.8818674, "tags": {"addr:city": "Zaragoza", "addr:housenumber": "6", "addr:postcode": "50001", "addr:street": "Calle de Jer\u00f3nimo Zurita", "name": "Atikka", "shop": "shoes", "source": "survey"}}, {"type": "node", "id": 5071048858, "lat": 41.6455205, "lon": -0.8876995, "tags": {"name": "Mar\u00eda Yus", "shop": "hairdresser"}}, {"type": "node", "id": 5071048859, "lat": 41.6455727, "lon": -0.8876733, "tags": {"name": "Estilistas M\u00f3nica Bar\u00f3n", "shop": "hairdresser"}}, {"type": "node", "id": 5073303377, "lat": 41.6486601, "lon": -0.8856292, "tags": {"addr:street": "Calle Canfranc", "name": "Minobay", "shop": "boutique", "source": "survey"}}, {"type": "node", "id": 5073303379, "lat": 41.6488164, "lon": -0.8855313, "tags": {"addr:street": "Calle Canfranc", "name": "El Rinc\u00f3n", "shop": "boutique", "source": "survey"}}, {"type": "node", "id": 5073303380, "lat": 41.6488555, "lon": -0.8856104, "tags": {"addr:street": "Calle Canfranc", "name": "Pretty Nails", "shop": "beauty", "source": "survey"}}, {"type": "node", "id": 5073303383, "lat": 41.6489738, "lon": -0.8857566, "tags": {"addr:street": "Calle Canfranc", "name": "Rayser", "shop": "jewelry", "source": "survey"}}, {"type": "node", "id": 5073303384, "lat": 41.6489247, "lon": -0.8860181, "tags": {"addr:street": "Calle de Bilbao", "name": "M\u00e1s que Manos", "opening_hours": "Mo-Fr 09:30-20:30; Sa 09:00-14:30", "shop": "beauty", "source": "survey"}}, {"type": "node", "id": 5073303387, "lat": 41.6491201, "lon": -0.8858264, "tags": {"addr:street": "Calle de Bilbao", "name": "Raimundo", "shop": "jewelry", "source": "survey"}}, {"type": "node", "id": 5073303388, "lat": 41.6491441, "lon": -0.8857915, "tags": {"addr:street": "Calle de Bilbao", "name": "Tress Coquette", "opening_hours": "Mo-Sa 10:15-14:00,17:00-20:30", "shop": "boutique", "source": "survey"}}, {"type": "node", "id": 5073303393, "lat": 41.650021, "lon": -0.886057, "tags": {"addr:street": "Calle Jos\u00e9 Luis Albareda", "name": "Tolga Iscan", "shop": "hairdresser", "source": "survey"}}, {"type": "node", "id": 5073303394, "lat": 41.6501182, "lon": -0.8862314, "tags": {"addr:street": "Calle Jos\u00e9 Luis Albareda", "name": "Academia de Arte y Artesan\u00eda Pisa", "shop": "boutique", "source": "survey"}}, {"type": "node", "id": 5073303398, "lat": 41.650524, "lon": -0.8871084, "tags": {"addr:street": "Calle Jos\u00e9 Luis Albareda", "name": "Mogo", "shop": "boutique", "source": "survey"}}, {"type": "node", "id": 5073303401, "lat": 41.6506793, "lon": -0.8874115, "tags": {"addr:street": "Calle Jos\u00e9 Luis Albareda", "name": "O'Hara", "shop": "boutique", "source": "survey"}}, {"type": "node", "id": 5073303402, "lat": 41.6507234, "lon": -0.887492, "tags": {"addr:street": "Calle Jos\u00e9 Luis Albareda", "name": "Nenella's", "opening_hours": "Mo-Fr 10:00-13:30,17:00-20:30; Sa 10:00-13:30", "shop": "boutique", "source": "survey"}}, {"type": "node", "id": 5073303403, "lat": 41.6507615, "lon": -0.8875644, "tags": {"addr:street": "Calle Jos\u00e9 Luis Albareda", "name": "Cob\u00e1", "opening_hours": "Mo-Fr 09:30-13:30,17:00-19:30; Sa 10:30-14:00", "shop": "boutique", "source": "survey"}}, {"type": "node", "id": 5087182689, "lat": 41.6461197, "lon": -0.8743398, "tags": {"addr:housenumber": "13", "addr:street": "Camino de las Torres", "name": "Premium Store Outlet", "shop": "clothes"}}, {"type": "node", "id": 5087182690, "lat": 41.6503767, "lon": -0.8935404, "tags": {"addr:housenumber": "27", "addr:street": "Calle de Anselmo Clav\u00e9", "name": "Crazy Hairs", "shop": "hairdresser", "source": "survey"}}, {"type": "node", "id": 5087182692, "lat": 41.6483915, "lon": -0.8756514, "tags": {"addr:housenumber": "12", "addr:postcode": "50008", "addr:street": "Calle Miguel Servet", "name": "A tu estilo", "shop": "hairdresser", "source": "survey"}}, {"type": "node", "id": 5102090436, "lat": 41.6512244, "lon": -0.8783337, "tags": {"addr:housenumber": "84", "addr:street": "Calle del Coso", "name": "Aresso", "shop": "jewelry"}}, {"type": "node", "id": 5105670448, "lat": 41.6553409, "lon": -0.8896646, "tags": {"name": "Moda Latina Margarit", "shop": "clothes"}}, {"type": "node", "id": 5105670449, "lat": 41.6550473, "lon": -0.8883061, "tags": {"name": "Peluquer\u00eda Chuan Xin", "shop": "hairdresser"}}, {"type": "node", "id": 5105670453, "lat": 41.6535593, "lon": -0.8764373, "tags": {"addr:housenumber": "18", "addr:street": "Calle Mayor", "name": "Figaro", "shop": "hairdresser", "source": "survey"}}, {"type": "node", "id": 5107415307, "lat": 41.6446375, "lon": -0.8841929, "tags": {"addr:street": "Calle de Le\u00f3n XIII", "name": "Subdued", "opening_hours": "Mo-Sa 10:30-21:00", "shop": "clothes"}}, {"type": "node", "id": 5107415310, "lat": 41.6446104, "lon": -0.8846462, "tags": {"addr:street": "Calle de Le\u00f3n XIII", "name": "Mar\u00eda Esteban", "shop": "hairdresser"}}, {"type": "node", "id": 5107932024, "lat": 41.6440662, "lon": -0.8827901, "tags": {"addr:housenumber": "3", "addr:street": "Calle de San Vicente M\u00e1rtir", "name": "CLP", "shop": "boutique"}}, {"type": "node", "id": 5107932025, "lat": 41.6441113, "lon": -0.8827016, "tags": {"addr:housenumber": "5", "addr:street": "Calle de San Vicente M\u00e1rtir", "name": "Darcos", "opening_hours": "Mo-Sa 10:00-20:30", "shop": "beauty"}}, {"type": "node", "id": 5107932029, "lat": 41.6443789, "lon": -0.8821839, "tags": {"addr:housenumber": "7", "addr:street": "Calle de San Vicente M\u00e1rtir", "male": "yes", "name": "Pelquer\u00eda masculina Mari Luz", "opening_hours": "Mo-Fr 09:30-13:30,16:30-20:30", "payment:cash": "yes", "phone": "+34 876 16 99 96", "shop": "hairdresser"}}, {"type": "node", "id": 5107932034, "lat": 41.644894, "lon": -0.8811834, "tags": {"addr:housenumber": "11", "addr:street": "Calle de San Vicente M\u00e1rtir", "name": "Bellmix", "shop": "hairdresser"}}, {"type": "node", "id": 5107932039, "lat": 41.6457499, "lon": -0.8795097, "tags": {"addr:housenumber": "23", "addr:street": "Calle de San Vicente M\u00e1rtir", "name": "Etiquette A", "shop": "boutique"}}, {"type": "node", "id": 5107932044, "lat": 41.6458721, "lon": -0.8793005, "tags": {"addr:housenumber": "23", "addr:street": "Calle de San Vicente M\u00e1rtir", "name": "Luis Lafuente", "shop": "hairdresser"}}, {"type": "node", "id": 5107932045, "lat": 41.6459112, "lon": -0.8792442, "tags": {"addr:housenumber": "23", "addr:street": "Calle de San Vicente M\u00e1rtir", "name": "Aymadrem\u00eda", "shop": "clothes"}}, {"type": "node", "id": 5107932050, "lat": 41.6455555, "lon": -0.8793877, "tags": {"addr:street": "Calle de San Vicente M\u00e1rtir", "name": "Il Capriccio di Casanova", "shop": "jewelry"}}, {"type": "node", "id": 5107932058, "lat": 41.6443408, "lon": -0.8818714, "tags": {"addr:housenumber": "16", "addr:street": "Calle de San Vicente M\u00e1rtir", "name": "\u00c1rea Natural Herbodiet\u00e9tica", "shop": "herbalist"}}, {"type": "node", "id": 5107932059, "lat": 41.6443007, "lon": -0.8819345, "tags": {"addr:housenumber": "16", "addr:street": "Calle de San Vicente M\u00e1rtir", "name": "La Golondrina", "opening_hours": "Mo-Fr 09:45-13:30,16:30-20:00; Sa 10:00-13:45", "shop": "jewelry"}}, {"type": "node", "id": 5107932066, "lat": 41.6439079, "lon": -0.8827324, "tags": {"addr:housenumber": "2", "addr:street": "Calle de San Vicente M\u00e1rtir", "name": "Alice", "shop": "jewelry"}}, {"type": "node", "id": 5107932069, "lat": 41.6440402, "lon": -0.8833869, "tags": {"addr:postcode": "50008", "addr:street": "Paseo de las Damas", "name": "Misako", "opening_hours": "Mo-Sa 10:00-21:00", "shop": "clothes"}}, {"type": "node", "id": 5108068493, "lat": 41.6453661, "lon": -0.8842278, "tags": {"addr:city": "Zaragoza", "addr:housenumber": "11", "addr:postcode": "50008", "addr:street": "Paseo de las Damas", "name": "Ulanka", "opening_hours": "Mo-Sa 10:00-20:30", "shop": "shoes"}}, {"type": "node", "id": 5108068494, "lat": 41.6451025, "lon": -0.8837999, "tags": {"addr:city": "Zaragoza", "addr:housenumber": "15", "addr:postcode": "50008", "addr:street": "Paseo de las Damas", "name": "Koker", "shop": "clothes"}}, {"type": "node", "id": 5108068495, "lat": 41.6450564, "lon": -0.8839099, "tags": {"addr:city": "Zaragoza", "addr:housenumber": "29", "addr:postcode": "50008", "addr:street": "Paseo de las Damas", "name": "Kaymo", "opening_hours": "Mo-Sa 10:00-14:00,17:00-20:30", "shop": "shoes"}}, {"type": "node", "id": 5108068497, "lat": 41.6447688, "lon": -0.8836189, "tags": {"addr:city": "Zaragoza", "addr:housenumber": "19", "addr:postcode": "50008", "addr:street": "Paseo de las Damas", "name": "Systemaction", "shop": "clothes"}}, {"type": "node", "id": 5108068498, "lat": 41.6445653, "lon": -0.8834392, "tags": {"addr:city": "Zaragoza", "addr:housenumber": "23", "addr:postcode": "50008", "addr:street": "Paseo de las Damas", "brand": "Zara", "brand:wikidata": "Q147662", "brand:wikipedia": "en:Zara (retailer)", "name": "Zara", "shop": "clothes"}}, {"type": "node", "id": 5108068499, "lat": 41.6441494, "lon": -0.8830932, "tags": {"addr:city": "Zaragoza", "addr:housenumber": "29", "addr:postcode": "50008", "addr:street": "Paseo de las Damas", "name": "Zekos", "shop": "shoes"}}, {"type": "node", "id": 5124111921, "lat": 41.6448619, "lon": -0.8837149, "tags": {"addr:street": "Paseo de las Damas", "brand": "Promod", "brand:wikidata": "Q3407429", "brand:wikipedia": "en:Promod", "name": "Promod", "shop": "clothes"}}, {"type": "node", "id": 5124112121, "lat": 41.6451277, "lon": -0.8838298, "tags": {"addr:street": "Calle de Le\u00f3n XIII", "name": "Neck & Neck", "shop": "clothes"}}, {"type": "node", "id": 5124175322, "lat": 41.6442742, "lon": -0.8835608, "tags": {"addr:housenumber": "30", "addr:postcode": "50008", "addr:street": "Paseo de las Damas", "brand": "Pandora", "brand:wikidata": "Q2241604", "brand:wikipedia": "en:Pandora (jewelry)", "name": "Pandora", "opening_hours": "Mo-Sa 10:00-21:00", "shop": "jewelry"}}, {"type": "node", "id": 5138362078, "lat": 41.645785, "lon": -0.882491, "tags": {"addr:housenumber": "20", "addr:street": "Calle de Le\u00f3n XIII", "name": "Inspirazzione", "shop": "cosmetics"}}, {"type": "node", "id": 5290521012, "lat": 41.6569261, "lon": -0.8830637, "tags": {"addr:street": "Calle de Predicadores", "name": "El Armario de Olga", "shop": "boutique", "source": "survey"}}, {"type": "node", "id": 5309554121, "lat": 41.6558398, "lon": -0.8799784, "tags": {"name": "Ligurrre Miguel Pablo", "shop": "jewelry"}}, {"type": "node", "id": 5313500413, "lat": 41.6468112, "lon": -0.8824669, "tags": {"addr:housenumber": "3", "addr:street": "Calle de Santa Joaquina de Vedruna", "name": "Pisamonas", "shop": "shoes", "source": "survey"}}, {"type": "node", "id": 5313500416, "lat": 41.6510906, "lon": -0.8779727, "tags": {"addr:housenumber": "88", "addr:street": "Calle del Coso", "name": "Alafa", "opening_hours": "Mo-Sa 09:30-21:00; PH,Su 10:00-21:00", "shop": "hairdresser"}}, {"type": "node", "id": 5441134175, "lat": 41.6550086, "lon": -0.8791664, "tags": {"shop": "hairdresser"}}, {"type": "node", "id": 5602509025, "lat": 41.6512534, "lon": -0.8784648, "tags": {"name": "Cuadros chic.com", "opening_hours": "Mo-Fr 10:00-13:30,17:30-20:30; Sa 10:00-14:00", "shop": "variety_store"}}, {"type": "node", "id": 5602511121, "lat": 41.6510314, "lon": -0.8772349, "tags": {"name": "Manke Manke", "shop": "clothes"}}, {"type": "node", "id": 5602511321, "lat": 41.6512846, "lon": -0.8780123, "tags": {"brand": "Marco Aldany", "name": "Marco Aldany", "shop": "hairdresser"}}, {"type": "node", "id": 5602546122, "lat": 41.6527643, "lon": -0.8797353, "tags": {"name:it": "Jesus", "shop": "hairdresser"}}, {"type": "node", "id": 5602553923, "lat": 41.6533512, "lon": -0.8791485, "tags": {"name": "Mimbre", "name:it": "Mimbre", "shop": "clothes"}}, {"type": "node", "id": 5602554223, "lat": 41.6535566, "lon": -0.8791021, "tags": {"name": "El Lado Oscuro", "name:it": "El Lado Oscuro", "shop": "variety_store"}}, {"type": "node", "id": 5602554224, "lat": 41.6534375, "lon": -0.8792498, "tags": {"name": "Carballo", "name:it": "Carballo", "shop": "variety_store"}}, {"type": "node", "id": 5602554225, "lat": 41.6535514, "lon": -0.8793751, "tags": {"name": "San Gil", "name:it": "San Gil", "shop": "variety_store"}}, {"type": "node", "id": 5602558424, "lat": 41.6535162, "lon": -0.8790494, "tags": {"name": "Algo Especial", "name:it": "Algo Especial", "shop": "clothes"}}, {"type": "node", "id": 5602558425, "lat": 41.6534947, "lon": -0.8792846, "tags": {"name": "Nice You", "name:it": "Nice You", "shop": "clothes"}}, {"type": "node", "id": 5602585621, "lat": 41.653016, "lon": -0.8805168, "tags": {"name": "Sex-Shop", "name:en": "Sex-Shop", "shop": "erotic"}}, {"type": "node", "id": 5612118229, "lat": 41.6504173, "lon": -0.8791846, "tags": {"name": "Mesones", "shop": "variety_store"}}, {"type": "node", "id": 5612119434, "lat": 41.6501711, "lon": -0.8805925, "tags": {"name": "Adolfo Dominguez", "shop": "clothes"}}, {"type": "node", "id": 5612119435, "lat": 41.6502205, "lon": -0.8807424, "tags": {"name": "Bimba y Lola", "shop": "variety_store"}}, {"type": "node", "id": 5612155024, "lat": 41.6508761, "lon": -0.8786667, "tags": {"name": "Beb\u00e9 City", "opening_hours": "Mo-Fr 10:00-13:30,17:00-20:15; Sa 10:30-13:30,17:30-20:15", "shop": "variety_store"}}, {"type": "node", "id": 5612155025, "lat": 41.6506921, "lon": -0.8787735, "tags": {"name": "El Armario", "shop": "clothes"}}, {"type": "node", "id": 5612155029, "lat": 41.6501951, "lon": -0.8806699, "tags": {"name": "Roberto Verino", "shop": "clothes"}}, {"type": "node", "id": 5612157722, "lat": 41.6499688, "lon": -0.8799919, "tags": {"name": "Nanos", "shop": "clothes"}}, {"type": "node", "id": 5612159122, "lat": 41.6500983, "lon": -0.8803792, "tags": {"name": "Almendra", "shop": "clothes"}}, {"type": "node", "id": 5614959728, "lat": 41.6558167, "lon": -0.8836547, "tags": {"name": "El Peque\u00f1o Catalan", "opening_hours": "Mo-Fr 10:00-13:00,17:00-20:00; Sa 10:00-13:00", "shop": "clothes"}}, {"type": "node", "id": 5614969625, "lat": 41.6572688, "lon": -0.8834949, "tags": {"name": "Mima't", "shop": "hairdresser"}}, {"type": "node", "id": 5614969822, "lat": 41.6568608, "lon": -0.8828918, "tags": {"name": "Sanz", "shop": "jewelry"}}, {"type": "node", "id": 5614970921, "lat": 41.6570253, "lon": -0.8833501, "tags": {"name": "Francisco Diez", "shop": "variety_store"}}, {"type": "node", "id": 5614985622, "lat": 41.6554434, "lon": -0.8834602, "tags": {"name": "Mimbre", "shop": "clothes"}}, {"type": "node", "id": 5614985722, "lat": 41.6554796, "lon": -0.883424, "tags": {"name": "Zapatero", "shop": "shoes"}}, {"type": "node", "id": 5627425722, "lat": 41.6540943, "lon": -0.8809345, "tags": {"brand": "Calzedonia", "brand:wikidata": "Q1027874", "brand:wikipedia": "en:Calzedonia", "name": "Calzedonia", "shop": "clothes"}}, {"type": "node", "id": 5627425724, "lat": 41.6544354, "lon": -0.8809778, "tags": {"name": "Zayro", "shop": "jewelry"}}, {"type": "node", "id": 5627425727, "lat": 41.6545489, "lon": -0.8812204, "tags": {"name": "Asun Landa", "shop": "clothes"}}, {"type": "node", "id": 5627425730, "lat": 41.6545711, "lon": -0.8815594, "tags": {"name": "Indumenta", "opening_hours": "Mo-Fr 10:00-13:30,17:00-20:00; Sa 10:00-13:30", "shop": "clothes"}}, {"type": "node", "id": 5627427123, "lat": 41.6542094, "lon": -0.8808244, "tags": {"name": "Regina", "shop": "jewelry"}}, {"type": "node", "id": 5627427124, "lat": 41.6538944, "lon": -0.8811248, "tags": {"name": "L. Martin Blasco", "shop": "jewelry"}}, {"type": "node", "id": 5627427130, "lat": 41.6544018, "lon": -0.8812025, "tags": {"name": "Ag\u00fceras", "opening_hours": "Mo-Fr 10:00-13:30,17:00-20:30; Sa 10:00-14:00", "shop": "jewelry"}}, {"type": "node", "id": 5627427131, "lat": 41.6544272, "lon": -0.8812615, "tags": {"name": "Rosi", "shop": "hairdresser"}}, {"type": "node", "id": 5627427321, "lat": 41.6542765, "lon": -0.8810198, "tags": {"name": "Clarks", "name:en": "Clarks", "shop": "shoes"}}, {"type": "node", "id": 5627427322, "lat": 41.6535593, "lon": -0.8814453, "tags": {"brand": "Intimissimi", "brand:wikidata": "Q305404", "brand:wikipedia": "en:Intimissimi", "clothes": "underwear", "name": "Intimissimi", "shop": "clothes"}}, {"type": "node", "id": 5630827830, "lat": 41.6468915, "lon": -0.8834959, "tags": {"check_date:opening_hours": "2022-07-19", "name": "Jott", "opening_hours:signed": "no", "shop": "clothes"}}, {"type": "node", "id": 5630827833, "lat": 41.647362, "lon": -0.8828729, "tags": {"name": "Brownie", "opening_hours": "Mo-Fr 10:00-14:00,16:30-20:30; Sa 10:00-20:30", "shop": "clothes"}}, {"type": "node", "id": 5630827837, "lat": 41.6475974, "lon": -0.8823996, "tags": {"name": "Intropia", "shop": "clothes"}}, {"type": "node", "id": 5630827838, "lat": 41.6477969, "lon": -0.8821567, "tags": {"name": "Liu Jo", "opening_hours": "Mo-Sa 10:30-20:30", "shop": "clothes"}}, {"type": "node", "id": 5630832342, "lat": 41.6466286, "lon": -0.8836801, "tags": {"addr:housenumber": "9", "addr:street": "Calle de San Ignacio de Loyola", "name": "Tramas", "opening_hours": "Mo-Sa 10:00-14:00,16:00-21:00", "shop": "clothes"}}, {"type": "node", "id": 5630832344, "lat": 41.6466729, "lon": -0.8834647, "tags": {"name": "Protocolo", "opening_hours": "Mo-Fr 10:00-13:45,17:00-20:30; Sa 10:00-14:00,17:00-20:30", "shop": "clothes"}}, {"type": "node", "id": 5630832346, "lat": 41.6467733, "lon": -0.8833859, "tags": {"addr:housenumber": "5", "addr:street": "Calle de San Ignacio de Loyola", "name": "Julia", "opening_hours": "Mo-Sa 10:00-21:00", "shop": "cosmetics"}}, {"type": "node", "id": 5630832348, "lat": 41.6468277, "lon": -0.8832751, "tags": {"addr:housenumber": "5", "addr:street": "Calle de San Ignacio de Loyola", "name": "Jeremy", "shop": "clothes"}}, {"type": "node", "id": 5630832349, "lat": 41.6470245, "lon": -0.8832097, "tags": {"name": "Coosy", "opening_hours": "Mo-Sa 10:00-20:30", "shop": "clothes"}}, {"type": "node", "id": 5630832350, "lat": 41.647056, "lon": -0.8831407, "tags": {"name": "Cabello B\u00e1sico", "opening_hours": "Mo-Fr 10:00-14:00,17:00-20:30; Sa 10:00-14:00", "shop": "hairdresser"}}, {"type": "node", "id": 5630832351, "lat": 41.6469474, "lon": -0.8830047, "tags": {"addr:housenumber": "5", "addr:street": "Calle de San Ignacio de Loyola", "check_date:opening_hours": "2022-05-15", "name": "Algo Bonito", "opening_hours": "Mo-Sa 10:00-20:30", "shop": "clothes"}}, {"type": "node", "id": 5630832353, "lat": 41.6471049, "lon": -0.883042, "tags": {"name": "Cesar", "opening_hours": "Mo-Sa 10:00-13:30,16:30-20:30", "shop": "clothes"}}, {"type": "node", "id": 5630832357, "lat": 41.6474938, "lon": -0.8824646, "tags": {"name": "Ikks", "shop": "clothes"}}, {"type": "node", "id": 5630832358, "lat": 41.6475737, "lon": -0.8826691, "tags": {"name": "Khadi Hombre", "shop": "clothes"}}, {"type": "node", "id": 5630849122, "lat": 41.6468824, "lon": -0.8831452, "tags": {"addr:housenumber": "5", "addr:street": "Calle de San Ignacio de Loyola", "name": "Indi & Cold", "opening_hours": "Mo-Sa 10:00-14:00,17:00-20:30", "shop": "clothes"}}, {"type": "node", "id": 5630849125, "lat": 41.6477726, "lon": -0.8820756, "tags": {"name": "Paris 64", "opening_hours": "Mo-Sa 10:00-13:30,16:30-20:30", "shop": "clothes"}}, {"type": "node", "id": 5630849423, "lat": 41.6469097, "lon": -0.8830859, "tags": {"addr:housenumber": "5", "addr:street": "Calle de San Ignacio de Loyola", "name": "Palmo", "opening_hours": "Mo-Sa 10:00-14:00,17:00-20:30", "shop": "shoes"}}, {"type": "node", "id": 5630849425, "lat": 41.6469968, "lon": -0.8832677, "tags": {"name": "Zekos", "shop": "shoes"}}, {"type": "node", "id": 5630849426, "lat": 41.6474531, "lon": -0.8827388, "tags": {"name": "Biscuit", "shop": "clothes"}}, {"type": "node", "id": 5630849428, "lat": 41.647662, "lon": -0.8823653, "tags": {"brand": "Bimba y Lola", "brand:wikidata": "Q54869493", "brand:wikipedia": "es:Bimba y Lola", "name": "Bimba y Lola", "opening_hours": "Mo-Sa 10:00-14:00,16:30-20:30", "shop": "clothes"}}, {"type": "node", "id": 5630849429, "lat": 41.6477732, "lon": -0.8823028, "tags": {"name": "Unisa", "shop": "shoes"}}, {"type": "node", "id": 5630881576, "lat": 41.6475597, "lon": -0.8837586, "tags": {"beauty": "nails", "name": "Laser Daniela", "opening_hours": "Mo-Fr 10:00-21:00; Sa 09:00-14:00", "shop": "beauty"}}, {"type": "node", "id": 5633587025, "lat": 41.6463738, "lon": -0.8746461, "tags": {"name": "Alberto N.", "shop": "hairdresser"}}, {"type": "node", "id": 5633590625, "lat": 41.6460712, "lon": -0.8754746, "tags": {"name": "Isabel Bernal", "shop": "hairdresser"}}, {"type": "node", "id": 5638257070, "lat": 41.6496806, "lon": -0.882497, "tags": {"name": "T&C", "shop": "clothes"}}, {"type": "node", "id": 5638268235, "lat": 41.6502634, "lon": -0.8824344, "tags": {"name": "Paquita Ors s.l.", "opening_hours": "Mo-Sa 10:00-14:00,16:30-20:30", "shop": "cosmetics"}}, {"type": "node", "id": 5638268237, "lat": 41.6499154, "lon": -0.8823377, "tags": {"name": "Carril\u00e9", "shop": "shoes"}}, {"type": "node", "id": 5638268238, "lat": 41.6498059, "lon": -0.8824468, "tags": {"name": "Tua", "shop": "clothes"}}, {"type": "node", "id": 5638268239, "lat": 41.6497422, "lon": -0.8824721, "tags": {"name": "Size One", "shop": "clothes"}}, {"type": "node", "id": 5638268432, "lat": 41.6499395, "lon": -0.8824314, "tags": {"name": "Pippa & Cochomata", "shop": "clothes"}}, {"type": "node", "id": 5713852858, "lat": 41.6448818, "lon": -0.8837336, "tags": {"addr:city": "Zaragoza", "addr:country": "ES", "addr:housenumber": "17", "addr:postcode": "50008", "addr:street": "Paseo de las Damas", "brand": "Intimissimi", "brand:wikidata": "Q305404", "brand:wikipedia": "en:Intimissimi", "clothes": "underwear", "contact:phone": "+34-976-225440", "contact:website": "https://www.intimissimi.com/es/zaragoza_paseo_damas_17/IF17.html", "name": "Intimissimi", "shop": "clothes"}}, {"type": "node", "id": 5790279445, "lat": 41.649575, "lon": -0.874887, "tags": {"addr:housenumber": "54", "addr:street": "Calle Heroismo", "name": "Gustavo Corral", "shop": "hairdresser", "source": "survey"}}, {"type": "node", "id": 5798581480, "lat": 41.6437629, "lon": -0.8925923, "tags": {"addr:housenumber": "6", "addr:street": "Paseo de Fernando El Cat\u00f3lico", "name": "BGB Shop", "shop": "boutique", "source": "survey"}}, {"type": "node", "id": 5798581481, "lat": 41.6437124, "lon": -0.8926449, "tags": {"addr:housenumber": "6", "addr:street": "Paseo de Fernando El Cat\u00f3lico", "name": "By Frida", "shop": "boutique", "source": "survey"}}, {"type": "node", "id": 5810269703, "lat": 41.6448572, "lon": -0.876681, "tags": {"addr:postcode": "50008", "addr:street": "Calle Manuel Lorenzo Pardo", "name": "Free Hair", "shop": "hairdresser"}}, {"type": "node", "id": 5810269704, "lat": 41.6449455, "lon": -0.8764976, "tags": {"addr:postcode": "50008", "addr:street": "Calle Manuel Lorenzo Pardo", "name": "Moda Madeira", "shop": "clothes"}}, {"type": "node", "id": 5813497834, "lat": 41.6471435, "lon": -0.8820041, "tags": {"addr:housenumber": "5", "addr:street": "Calle Francisco de Vitoria", "name": "Orga", "shop": "clothes", "source": "survey"}}, {"type": "node", "id": 5813497836, "lat": 41.646956, "lon": -0.8819702, "tags": {"addr:housenumber": "6", "addr:street": "Calle Francisco de Vitoria", "name": "Marga Jacal", "shop": "clothes", "source": "survey"}}, {"type": "node", "id": 5813497845, "lat": 41.6467622, "lon": -0.8815013, "tags": {"addr:housenumber": "12", "addr:street": "Calle Francisco de Vitoria", "name": "Boutique Royo", "opening_hours": "Mo-Sa 10:00-13:15,17:00-20:15", "shop": "clothes", "source": "survey"}}, {"type": "node", "id": 5813498458, "lat": 41.6463271, "lon": -0.8803556, "tags": {"addr:housenumber": "17", "addr:street": "Calle Francisco de Vitoria", "name": "Joyer\u00eda Mercado de la Plata", "shop": "jewelry", "source": "survey"}}, {"type": "node", "id": 5813498465, "lat": 41.6459488, "lon": -0.8798122, "tags": {"addr:housenumber": "21", "addr:street": "Calle Francisco de Vitoria", "name": "La Petite Julie", "shop": "hairdresser", "source": "survey"}}, {"type": "node", "id": 5813498475, "lat": 41.6450977, "lon": -0.8790368, "tags": {"addr:housenumber": "30", "addr:street": "Calle Francisco de Vitoria", "name": "20d2", "shop": "beauty", "source": "survey"}}, {"type": "node", "id": 5813498485, "lat": 41.6446124, "lon": -0.8787925, "tags": {"addr:housenumber": "32", "addr:street": "Calle Francisco de Vitoria", "name": "Magenta", "shop": "clothes", "source": "survey"}}, {"type": "node", "id": 5816500386, "lat": 41.647039, "lon": -0.8826073, "tags": {"name": "Julunggul", "shop": "clothes"}}, {"type": "node", "id": 5816500388, "lat": 41.6472693, "lon": -0.8824143, "tags": {"addr:housenumber": "3", "addr:street": "Calle Francisco de Vitoria", "name": "Pardon", "shop": "clothes", "source": "survey"}}, {"type": "node", "id": 5816500393, "lat": 41.6470652, "lon": -0.8823441, "tags": {"addr:housenumber": "6", "addr:street": "Calle Francisco de Vitoria", "name": "Olga", "shop": "clothes", "source": "survey"}}, {"type": "node", "id": 5816500394, "lat": 41.6470275, "lon": -0.8822333, "tags": {"addr:housenumber": "6", "addr:street": "Calle Francisco de Vitoria", "name": "Pelo Stop", "opening_hours": "Mo-Fr 10:00-21:00; Sa 09:00-14:00", "shop": "beauty", "source": "survey"}}, {"type": "node", "id": 5875626235, "lat": 41.6475303, "lon": -0.8836445, "tags": {"addr:street": "Calle del Arquitecto Yarza", "name": "Marisa Cervantes", "shop": "clothes"}}, {"type": "node", "id": 5875626236, "lat": 41.6475151, "lon": -0.8835965, "tags": {"addr:street": "Calle del Arquitecto Yarza", "name": "Agua", "shop": "clothes"}}, {"type": "node", "id": 5875626247, "lat": 41.6474393, "lon": -0.8811032, "tags": {"addr:housenumber": "24", "addr:street": "Paseo de la Constituci\u00f3n", "name": "Tattoojulian", "shop": "tattoo"}}, {"type": "node", "id": 5875626282, "lat": 41.6467372, "lon": -0.8737962, "tags": {"name": "Gamerin 004", "shop": "hairdresser"}}, {"type": "node", "id": 5891692962, "lat": 41.6532221, "lon": -0.8758382, "tags": {"brand": "TEDi", "brand:wikidata": "Q1364603", "brand:wikipedia": "de:TEDi", "name": "TEDi", "shop": "variety_store"}}, {"type": "node", "id": 5912136288, "lat": 41.645072, "lon": -0.887486, "tags": {"name": "Dietas Sport", "shop": "herbalist"}}, {"type": "node", "id": 5920376204, "lat": 41.6460122, "lon": -0.8820974, "tags": {"name": "Visentti", "opening_hours": "Mo-Th 10:00-13:30,17:00-20:30; Fr,Sa 10:00-14:00,17:00-20:30", "shop": "clothes"}}, {"type": "node", "id": 6216088458, "lat": 41.6527193, "lon": -0.8738238, "tags": {"addr:city": "Zaragoza", "addr:housenumber": "3", "addr:postcode": "50001", "addr:street": "Calle de Mart\u00edn Carrillo", "clothes": "second_hand;fashion;women;men;hats;unisexs", "email": "olgacintora@hotmail.com", "name": "CALYPSO", "payment:cash": "yes", "payment:credit_cards": "yes", "payment:debit_cards": "yes", "second_hand": "only", "shop": "clothes"}}, {"type": "node", "id": 6375688186, "lat": 41.6529363, "lon": -0.8771299, "tags": {"name": "Vorne", "shop": "clothes"}}, {"type": "node", "id": 6611869585, "lat": 41.6491567, "lon": -0.8843931, "tags": {"name": "ZARA HOME", "opening_hours": "Mo-Sa 10:00-21:00", "shop": "clothes"}}, {"type": "node", "id": 6934619250, "lat": 41.6559052, "lon": -0.8865796, "tags": {"addr:housenumber": "57", "addr:street": "Calle San Pablo", "contact:facebook": "https://facebook.com/herbolariosanpablozaragoza", "name": "Herbolario San Pablo", "opening_hours": "Mo-Fr 10:00-13:30; Mo-Fr 17:00-20:30; Sa 10:00-14:00", "phone": "+34 976440866", "shop": "herbalist"}}, {"type": "node", "id": 6934676986, "lat": 41.6561479, "lon": -0.8842362, "tags": {"addr:housenumber": "10", "addr:street": "Calle San Blas", "email": "peluqueria_labat@hotmail.es", "name": "Peluquer\u00eda Est\u00e9tica Isabel Labat", "opening_hours": "Mo-We 09:00-13:30, 16:00-19:00; Th, Fr 09:15-13:00", "phone": "+34 976364677", "shop": "hairdresser"}}, {"type": "node", "id": 6934677492, "lat": 41.6564183, "lon": -0.8857899, "tags": {"name": "Peluquer\u00eda Adams", "shop": "hairdresser"}}, {"type": "node", "id": 6934689003, "lat": 41.656463, "lon": -0.8859534, "tags": {"name": "Peluqueria Adams", "shop": "hairdresser"}}, {"type": "node", "id": 6934768274, "lat": 41.655298, "lon": -0.8884181, "tags": {"name": "Peluquer\u00eda Rafa y Luc\u00eda", "shop": "hairdresser"}}, {"type": "node", "id": 6939233885, "lat": 41.6542304, "lon": -0.8777313, "tags": {"addr:city": "Zaragoza", "addr:housenumber": "34", "addr:postcode": "50003", "addr:street": "Calle Espoz y Mina", "name": "Sommes D\u00e9mod\u00e9", "opening_hours": "Mo-Fr 10:30-14:00,17:00-20:30; Sa 10:30-14:00", "phone": "+34976395438", "shop": "clothes", "website": "https://www.sommesdemode.com"}}, {"type": "node", "id": 7088703992, "lat": 41.6465151, "lon": -0.8835646, "tags": {"addr:city": "Zaragoza", "addr:country": "ES", "addr:housenumber": "2", "addr:postcode": "50008", "addr:street": "Calle Jos\u00e9 Mar\u00eda Lacarra de Miguel", "contact:facebook": "https://www.facebook.com/pg/ElcamerinodeKoko", "contact:instagram": "https://www.instagram.com/elcamerinodekoko/", "contact:phone": "+34 976 23 31 94", "contact:website": "https://elcamerinodekoko.com/", "name": "El Camerino de Kok\u00f4", "opening_hours": "Mo-Sa 10:30-14:00,17:00-20:30", "shop": "clothes"}}, {"type": "node", "id": 7259462103, "lat": 41.6558603, "lon": -0.8863668, "tags": {"addr:housenumber": "55", "addr:street": "Plaza San Pablo", "name": "Almacenes Moncayo SA", "shop": "clothes", "wheelchair": "yes"}}, {"type": "node", "id": 7707020720, "lat": 41.6511934, "lon": -0.8815058, "tags": {"name": "Paco Perfumer\u00edas", "shop": "perfumery"}}, {"type": "node", "id": 7707467044, "lat": 41.6444125, "lon": -0.8880992, "tags": {"addr:city": "Zaragoza", "addr:country": "ES", "addr:housenumber": "16", "addr:postcode": "50006", "addr:province": "Zaragoza", "addr:street": "Arzobispo Domenech", "image": "https://lh5.googleusercontent.com/p/AF1QipP7u5bNDW_HMtqKuBDN5HovSQneO5T10e3PgFuT=w408-h440-k-no", "name": "Zeeman Zaragoza - Domenech", "opening_hours": "Mo-Sa 09:30-20:30", "organic": "no", "payment:bankaxess": "no", "payment:coins": "yes", "payment:contactless": "yes", "payment:mastercard": "yes", "payment:notes": "yes", "payment:visa": "yes", "payment:visa_debit": "yes", "payment:visa_electron": "yes", "second_hand": "no", "shop": "clothes", "website": "https://www.zeeman.com/", "wheelchair": "yes"}}, {"type": "node", "id": 7707482030, "lat": 41.6555736, "lon": -0.8809641, "tags": {"addr:housenumber": "9", "addr:street": "Calle Santa Isabel", "contact:facebook": "https://www.facebook.com/Con-Calma-Peluquer%C3%ADa-908895252457118/", "description": "Peluquer\u00eda y cosm\u00e9tica natural", "name": "Con Calma", "opening_hours": "Mo, We, Fr 12:00-20:00; Tu, Th 10:00-18:00; Sa 10:00-14:00", "phone": "+34 876 44 11 23", "shop": "hairdresser", "wheelchair": "limited"}}, {"type": "node", "id": 7707583977, "lat": 41.654988, "lon": -0.8800683, "tags": {"name": "Koker", "shop": "clothes"}}, {"type": "node", "id": 7707583980, "lat": 41.6546964, "lon": -0.8803384, "tags": {"name": "Paco Perfumer\u00edas", "shop": "perfumery"}}, {"type": "node", "id": 7707583982, "lat": 41.6549369, "lon": -0.8803781, "tags": {"name": "Le Parisien", "shop": "fashion_accessories", "start_date": "1911"}}, {"type": "node", "id": 7733690898, "lat": 41.6412787, "lon": -0.8861012, "tags": {"shop": "clothes"}}, {"type": "node", "id": 8007370970, "lat": 41.6487043, "lon": -0.8852631, "tags": {"level": "0", "name": "Asiain", "shop": "jewelry"}}, {"type": "node", "id": 8952181049, "lat": 41.6553657, "lon": -0.8898432, "tags": {"name": "Edison", "shop": "hairdresser"}}, {"type": "node", "id": 8959339866, "lat": 41.6536878, "lon": -0.8815992, "tags": {"name": "Citees", "opening_hours": "Su-Th 10:30-21:00; Fr,Sa 10:30-21:30", "shop": "clothes"}}, {"type": "node", "id": 9047677773, "lat": 41.645397, "lon": -0.8859832, "tags": {"name": "Dania", "shop": "hairdresser"}}, {"type": "node", "id": 9047677774, "lat": 41.6496283, "lon": -0.8881237, "tags": {"brand": "Douglas", "brand:wikidata": "Q2052213", "brand:wikipedia": "de:Parf\u00fcmerie Douglas", "name": "Douglas", "opening_hours": "Mo-Sa 09:30-21:00", "shop": "perfumery"}}, {"type": "node", "id": 9063521952, "lat": 41.6425852, "lon": -0.8864401, "tags": {"name": "Ame\u00e8", "opening_hours": "Mo-Sa 10:00-21:00", "shop": "clothes"}}, {"type": "node", "id": 9077586773, "lat": 41.6439595, "lon": -0.8801915, "tags": {"name": "Chollo Mercaeuro Ebay", "shop": "variety_store"}}, {"type": "node", "id": 9094105308, "lat": 41.640791, "lon": -0.8839233, "tags": {"name": "Fono Audire", "shop": "hearing_aids"}}, {"type": "node", "id": 9226964216, "lat": 41.6598245, "lon": -0.8740955, "tags": {"name": "La Barber\u00eda del Puente", "shop": "hairdresser"}}, {"type": "node", "id": 9368601298, "lat": 41.6440318, "lon": -0.8864516, "tags": {"name": "Monte Mayor", "opening_hours": "Mo-Fr 10:30-14:00,17:00-20:00; Sa 11:00-14:00", "shop": "boutique"}}, {"type": "node", "id": 9368601302, "lat": 41.6438846, "lon": -0.8857023, "tags": {"name": "Teresa Izuel", "shop": "clothes"}}, {"type": "node", "id": 9590091376, "lat": 41.6508885, "lon": -0.8817851, "tags": {"name": "Sfera", "shop": "clothes"}}, {"type": "node", "id": 9590091379, "lat": 41.6501559, "lon": -0.8825443, "tags": {"name": "Sanci", "shop": "clothes"}}, {"type": "node", "id": 9804705149, "lat": 41.6493517, "lon": -0.8885037, "tags": {"addr:city": "Zaragoza", "addr:country": "ES", "addr:housenumber": "8", "addr:street": "Calle Hern\u00e1n Cort\u00e9s", "contact:phone": "+34 876 53 65 07", "contact:website": "https://storepremiumoutlet.es", "name": "Premium Store Outlet", "opening_hours": "Mo-Sa 10:00-14:00,17:00-20:00", "shop": "clothes"}}]}