{"version": 0.6, "generator": "Overpass API 0.7.58.5 b0c4acbb", "osm3s": {"timestamp_osm_base": "2022-09-06T13:28:38Z", "copyright": "The data included in this document is from www.openstreetmap.org. The data is made available under ODbL."}, "elements": [{"type": "node", "id": 262250079, "lat": 41.4084645, "lon": 2.2165326}, {"type": "node", "id": 262250080, "lat": 41.4105988, "lon": 2.2184935}, {"type": "node", "id": 262250081, "lat": 41.4109302, "lon": 2.2183476}, {"type": "node", "id": 262250082, "lat": 41.4098599, "lon": 2.2146992}, {"type": "node", "id": 420068862, "lat": 41.4049693, "lon": 2.1894182}, {"type": "node", "id": 420068865, "lat": 41.4044103, "lon": 2.1904275}, {"type": "node", "id": 618457670, "lat": 41.4102762, "lon": 2.1982472}, {"type": "node", "id": 618460210, "lat": 41.4138911, "lon": 2.2020633, "tags": {"brand": "Condis", "brand:wikidata": "Q57417581", "name": "Condis", "operator": "Condis", "shop": "supermarket"}}, {"type": "node", "id": 660100529, "lat": 41.404858, "lon": 2.1941868, "tags": {"amenity": "cafe", "name": "El Fornet d'en Rosend"}}, {"type": "node", "id": 660100530, "lat": 41.40537, "lon": 2.1934837, "tags": {"addr:housenumber": "142-144", "addr:postcode": "08018", "addr:street": "C Llacuna", "amenity": "restaurant", "contact:phone": "+34 933007849", "cuisine": "japanese", "name": "Restaurante UN-ZA", "opening_hours": "Mo-Su 13:00-16:00,20:00-23:30"}}, {"type": "node", "id": 668476157, "lat": 41.4225659, "lon": 2.2115743, "tags": {"amenity": "restaurant", "name": "Ca la tata"}}, {"type": "node", "id": 698062664, "lat": 41.4130618, "lon": 2.2176703, "tags": {"brand": "Consum", "brand:wikidata": "Q8350308", "brand:wikipedia": "es:Consum", "name": "Consum", "name:ca": "Consum", "operator": "Consum", "shop": "convenience", "website": "https://www.consum.es/"}}, {"type": "node", "id": 1271879449, "lat": 41.4063985, "lon": 2.1959205, "tags": {"addr:city": "Barcelona", "addr:housenumber": "138", "addr:postcode": "08018", "addr:street": "Carrer de Bol\u00edvia", "amenity": "restaurant", "diet:vegan": "yes", "diet:vegetarian": "yes", "name": "Culleres", "phone": "+34 93 51 33 984", "smoking": "no", "website": "http://www.culleres.com/", "wheelchair": "no"}}, {"type": "node", "id": 1307297607, "lat": 41.4047275, "lon": 2.191709}, {"type": "node", "id": 1307297612, "lat": 41.4051187, "lon": 2.193249}, {"type": "node", "id": 1307297613, "lat": 41.4047988, "lon": 2.1919649}, {"type": "node", "id": 1307297614, "lat": 41.4056259, "lon": 2.1927972}, {"type": "node", "id": 1320935227, "lat": 41.4061799, "lon": 2.1901275, "tags": {"shop": "convenience", "toilets:wheelchair": "no", "wheelchair": "limited"}}, {"type": "node", "id": 1320935232, "lat": 41.4064857, "lon": 2.1904601, "tags": {"addr:country": "ES", "name": "Forn", "shop": "bakery", "wheelchair": "limited"}}, {"type": "node", "id": 1748629917, "lat": 41.4098965, "lon": 2.2146718}, {"type": "node", "id": 1748629930, "lat": 41.4099227, "lon": 2.2146589}, {"type": "node", "id": 1748629960, "lat": 41.4099565, "lon": 2.2146594}, {"type": "node", "id": 1748629986, "lat": 41.4099876, "lon": 2.2146775}, {"type": "node", "id": 1748629995, "lat": 41.410025, "lon": 2.2147281}, {"type": "node", "id": 2187257123, "lat": 41.4047259, "lon": 2.1943414, "tags": {"amenity": "bar", "name": "24 mm"}}, {"type": "node", "id": 2187259019, "lat": 41.404967, "lon": 2.1945963, "tags": {"addr:city": "Barcelona", "addr:housenumber": "173", "addr:street": "Avinguda Diagonal", "amenity": "restaurant", "cuisine": "japanese", "name": "Nanaya", "phone": "+34 933008401", "smoking": "no", "source": "http://nanaya.es/", "website": "http://nanaya.es/"}}, {"type": "node", "id": 2187270200, "lat": 41.4055941, "lon": 2.1932194, "tags": {"addr:city": "Barcelona", "addr:housenumber": "150", "addr:postcode": "08018", "addr:street": "Carrer de la Llacuna", "amenity": "restaurant", "cuisine": "italian", "name": "FRATELLI LA BUFALA", "opening_hours": "\"local cerrado\"", "website": "http://www.fratellilabufala.eu"}}, {"type": "node", "id": 2187275712, "lat": 41.4061323, "lon": 2.1909641}, {"type": "node", "id": 2188278126, "lat": 41.4065634, "lon": 2.1938272, "tags": {"addr:housenumber": "153", "addr:postcode": "08018", "addr:street": "Rambla del Poblenou", "amenity": "restaurant", "cuisine": "japanese", "name": "Restaurante Huang Qingfang", "name:ca": "Yoshinoya-8", "name:en": "Yoshinoya-8", "name:es": "Yoshinoya-8"}}, {"type": "node", "id": 2189959511, "lat": 41.4053062, "lon": 2.1939024, "tags": {"amenity": "restaurant", "name": "Frankfurt Diagonal", "wheelchair": "limited"}}, {"type": "node", "id": 2193095290, "lat": 41.4054932, "lon": 2.1943451, "tags": {"amenity": "fast_food", "cuisine": "kebab", "name": "El rinc\u00f3n de Glorias"}}, {"type": "node", "id": 2193095298, "lat": 41.4055556, "lon": 2.194455, "tags": {"amenity": "cafe", "cuisine": "spanish", "name": "El Duende"}}, {"type": "node", "id": 2193095358, "lat": 41.4055677, "lon": 2.1949217, "tags": {"shop": "kiosk"}}, {"type": "node", "id": 2193095381, "lat": 41.4058392, "lon": 2.1946428, "tags": {"name": "Keisy", "operator": "Keisy", "shop": "supermarket"}}, {"type": "node", "id": 2193421646, "lat": 41.405634, "lon": 2.1917031, "tags": {"brand": "Carrefour", "brand:wikidata": "Q217599", "brand:wikipedia": "fr:Carrefour (enseigne)", "name": "Carrefour", "shop": "supermarket", "toilets:wheelchair": "yes", "wheelchair": "yes"}}, {"type": "node", "id": 2193421652, "lat": 41.405107, "lon": 2.1919659, "tags": {"amenity": "fast_food", "brand": "Burger King", "brand:wikidata": "Q177054", "brand:wikipedia": "es:Burger King", "cuisine": "burger", "name": "Burger King", "opening_hours": "Su-Th 11:00-24:00; Fr,Sa 11:00-01:00", "takeaway": "yes", "toilets:wheelchair": "yes", "wheelchair": "yes"}}, {"type": "node", "id": 2555598408, "lat": 41.4058852, "lon": 2.1929942, "tags": {"amenity": "restaurant", "name": "Aliaga", "opening_hours": "Mo-Sa 13:00-16:00"}}, {"type": "node", "id": 2617962817, "lat": 41.4049285, "lon": 2.1919361, "tags": {"addr:city": "Barcelona", "addr:housenumber": "188", "addr:postcode": "08018", "addr:street": "Avinguda Diagonal", "amenity": "fast_food", "brand": "McDonald's", "brand:wikidata": "Q38076", "brand:wikipedia": "es:McDonald's", "cuisine": "burger", "name": "McDonald's", "opening_hours": "Su-Th 08:00-23:30; Fr,Sa 08:00-01:00"}}, {"type": "node", "id": 2684052224, "lat": 41.4052109, "lon": 2.1931117, "tags": {"addr:city": "Barcelona", "addr:housenumber": "208", "addr:postcode": "08018", "addr:street": "Avinguda Diagonal", "amenity": "restaurant", "cuisine": "japanese", "name": "Pai Mei", "opening_hours": "Mo-Su 12:30-16:30,19:00-23:00", "outdoor_seating": "no"}}, {"type": "node", "id": 2756677882, "lat": 41.4051928, "lon": 2.1932736}, {"type": "node", "id": 2923421005, "lat": 41.4043568, "lon": 2.1902175}, {"type": "node", "id": 2923421010, "lat": 41.4052501, "lon": 2.1932935}, {"type": "node", "id": 3009145177, "lat": 41.4086673, "lon": 2.1927392, "tags": {"addr:housenumber": "53", "addr:postcode": "08018", "addr:street": "Carrer de Sant Joan de Malta", "amenity": "bar", "contact:facebook": "https://www.facebook.com/CellerCaLaPaqui", "name": "Celler Ca la Paqui", "phone": "+34 654366853"}}, {"type": "node", "id": 3032894933, "lat": 41.4116354, "lon": 2.1987015, "tags": {"shop": "kiosk", "wheelchair": "yes"}}, {"type": "node", "id": 3046155434, "lat": 41.4089286, "lon": 2.1951206, "tags": {"amenity": "cafe", "name": "Forn de pa Gil", "shop": "bakery"}}, {"type": "node", "id": 3046155536, "lat": 41.4143356, "lon": 2.2005776, "tags": {"brand": "Dia", "brand:wikidata": "Q925132", "brand:wikipedia": "es:DIA (supermercados)", "name": "Dia", "operator": "Distribuidora Internacional de Alimentaci\u00f3n, S.A.", "shop": "supermarket", "website": "https://www.dia.es", "wheelchair": "yes"}}, {"type": "node", "id": 3139902968, "lat": 41.4106326, "lon": 2.2184788}, {"type": "node", "id": 3139902973, "lat": 41.4108653, "lon": 2.2183762}, {"type": "node", "id": 3139947678, "lat": 41.4085634, "lon": 2.2164027}, {"type": "node", "id": 3139947679, "lat": 41.4086678, "lon": 2.2167193}, {"type": "node", "id": 3139947718, "lat": 41.4094323, "lon": 2.2152611}, {"type": "node", "id": 3139947721, "lat": 41.4094529, "lon": 2.215234}, {"type": "node", "id": 3139947735, "lat": 41.4095019, "lon": 2.2174857}, {"type": "node", "id": 3139947759, "lat": 41.4096057, "lon": 2.2165752}, {"type": "node", "id": 3139947764, "lat": 41.4096149, "lon": 2.2163939}, {"type": "node", "id": 3139947769, "lat": 41.4096391, "lon": 2.2163839}, {"type": "node", "id": 3139947770, "lat": 41.40964, "lon": 2.2166544}, {"type": "node", "id": 3139947776, "lat": 41.409648, "lon": 2.2176185}, {"type": "node", "id": 3139947789, "lat": 41.4096978, "lon": 2.216888}, {"type": "node", "id": 3139947793, "lat": 41.4097022, "lon": 2.2176697}, {"type": "node", "id": 3139947795, "lat": 41.4097031, "lon": 2.2176681}, {"type": "node", "id": 3139947796, "lat": 41.4097041, "lon": 2.2166434}, {"type": "node", "id": 3139947798, "lat": 41.4097051, "lon": 2.2175045}, {"type": "node", "id": 3139947799, "lat": 41.4097055, "lon": 2.2169788}, {"type": "node", "id": 3139947805, "lat": 41.4097212, "lon": 2.2175192}, {"type": "node", "id": 3139947808, "lat": 41.4097549, "lon": 2.2168459}, {"type": "node", "id": 3139947813, "lat": 41.4097857, "lon": 2.2173494}, {"type": "node", "id": 3139947815, "lat": 41.4097896, "lon": 2.2170803}, {"type": "node", "id": 3139947816, "lat": 41.4097976, "lon": 2.2171107}, {"type": "node", "id": 3139947820, "lat": 41.4098187, "lon": 2.2171006}, {"type": "node", "id": 3139947828, "lat": 41.4098678, "lon": 2.2147068}, {"type": "node", "id": 3139947830, "lat": 41.4098718, "lon": 2.2173124}, {"type": "node", "id": 3139947834, "lat": 41.4098821, "lon": 2.2146852}, {"type": "node", "id": 3139947840, "lat": 41.4099103, "lon": 2.214663}, {"type": "node", "id": 3139947847, "lat": 41.4099355, "lon": 2.2175669}, {"type": "node", "id": 3139947849, "lat": 41.4099409, "lon": 2.2146568}, {"type": "node", "id": 3139947857, "lat": 41.4099734, "lon": 2.2146676}, {"type": "node", "id": 3139947867, "lat": 41.4100043, "lon": 2.2146986}, {"type": "node", "id": 3139947869, "lat": 41.4100111, "lon": 2.2147133}, {"type": "node", "id": 3139947874, "lat": 41.4100169, "lon": 2.2147311}, {"type": "node", "id": 3139947882, "lat": 41.4100428, "lon": 2.2179826}, {"type": "node", "id": 3139947902, "lat": 41.4100684, "lon": 2.2180062}, {"type": "node", "id": 3139947930, "lat": 41.4101302, "lon": 2.2180629}, {"type": "node", "id": 3139947934, "lat": 41.4101382, "lon": 2.2151842}, {"type": "node", "id": 3139947967, "lat": 41.4101887, "lon": 2.2153877}, {"type": "node", "id": 3139947970, "lat": 41.4102069, "lon": 2.2154607}, {"type": "node", "id": 3139948014, "lat": 41.4106917, "lon": 2.2173902}, {"type": "node", "id": 3139948018, "lat": 41.4107114, "lon": 2.2174693}, {"type": "node", "id": 3139948025, "lat": 41.4107605, "lon": 2.2176678}, {"type": "node", "id": 3386550692, "lat": 41.4051386, "lon": 2.1928962, "tags": {"addr:street": "Barcelona Glorias", "amenity": "fast_food", "cuisine": "german", "name": "kurz & gut", "phone": "93486096", "toilets:wheelchair": "yes", "wheelchair": "yes"}}, {"type": "node", "id": 3767502027, "lat": 41.4092369, "lon": 2.2081245, "tags": {"addr:city": "Barcelona", "addr:housenumber": "49", "addr:postcode": "08019", "addr:street": "Carrer de la Selva de Mar", "amenity": "bar", "name": "Can Liu", "operator": "Can Liu"}}, {"type": "node", "id": 3779800462, "lat": 41.4089464, "lon": 2.216973}, {"type": "node", "id": 3999997375, "lat": 41.4103227, "lon": 2.2073445, "tags": {"addr:city": "Barcelona", "addr:housenumber": "49", "addr:postcode": "08019", "addr:street": "Carrer de Vene\u00e7uela", "amenity": "cafe", "name": "Rachel's"}}, {"type": "node", "id": 4109300971, "lat": 41.4141493, "lon": 2.2018055, "tags": {"shop": "kiosk", "wheelchair": "yes"}}, {"type": "node", "id": 4109428324, "lat": 41.4137479, "lon": 2.2028622, "tags": {"amenity": "bar", "name": "Bar Restaurante Per\u00fa", "wheelchair": "no"}}, {"type": "node", "id": 4109438018, "lat": 41.4147937, "lon": 2.2029456, "tags": {"shop": "kiosk", "wheelchair": "yes"}}, {"type": "node", "id": 4109443629, "lat": 41.4139013, "lon": 2.2017385, "tags": {"name": "Tap i Carbassa", "organic": "yes", "shop": "greengrocer"}}, {"type": "node", "id": 4109445801, "lat": 41.4137235, "lon": 2.2015045, "tags": {"amenity": "restaurant", "name": "La Bona Tapa"}}, {"type": "node", "id": 4109445920, "lat": 41.4136736, "lon": 2.2014244, "tags": {"amenity": "bar", "name": "Xixi", "wheelchair": "limited"}}, {"type": "node", "id": 4109447789, "lat": 41.4135296, "lon": 2.2012189, "tags": {"name": "Mon Pa", "shop": "bakery", "wheelchair": "yes"}}, {"type": "node", "id": 4109448713, "lat": 41.4134666, "lon": 2.201153, "tags": {"name": "El Rac\u00f3 De La Fruita", "shop": "greengrocer", "wheelchair": "limited"}}, {"type": "node", "id": 4140583448, "lat": 41.4111801, "lon": 2.2062065, "tags": {"addr:city": "Barcelona", "addr:housenumber": "84", "addr:postcode": "08019", "addr:street": "Carrer de la Selva de Mar", "amenity": "cafe", "name": "Siberia", "smoking": "no"}}, {"type": "node", "id": 4142784489, "lat": 41.406689, "lon": 2.1923166, "tags": {"addr:housenumber": "183", "addr:street": "Llacuna", "amenity": "restaurant", "name": "L'Actiu", "opening_hours": "Mo-Fr 08:00-18:00", "website": "www.lactiu.cat"}}, {"type": "node", "id": 4149728853, "lat": 41.4138775, "lon": 2.212077, "tags": {"addr:city": "Barcelona", "addr:housenumber": "139-149", "addr:postcode": "08019", "addr:street": "Carrer de Vene\u00e7uela", "brand": "Mercadona", "brand:wikidata": "Q377705", "brand:wikipedia": "es:Mercadona", "name": "Mercadona", "shop": "supermarket", "website": "https://www.mercadona.es", "wheelchair": "yes"}}, {"type": "node", "id": 4241610970, "lat": 41.4162983, "lon": 2.2062781, "tags": {"addr:housenumber": "1", "addr:street": "Carrer del Paraguai", "name": "Vila - Forn de Pa", "shop": "bakery"}}, {"type": "node", "id": 4241611851, "lat": 41.4164049, "lon": 2.2064241, "tags": {"addr:housenumber": "3", "addr:street": "Carrer del Paraguai", "name": "Sorli Discau", "shop": "supermarket"}}, {"type": "node", "id": 4241628814, "lat": 41.4183019, "lon": 2.2057143, "tags": {"addr:housenumber": "196-202", "addr:postcode": "08020", "addr:street": "Carrer de Puigcerd\u00e0", "entrance": "yes", "name": "Macxi Pa", "shop": "bakery"}}, {"type": "node", "id": 4268314624, "lat": 41.4109541, "lon": 2.1986709}, {"type": "node", "id": 4268314625, "lat": 41.4106856, "lon": 2.1987917}, {"type": "node", "id": 4268321791, "lat": 41.4104542, "lon": 2.1980132}, {"type": "node", "id": 4268329032, "lat": 41.4105209, "lon": 2.1985725, "tags": {"access": "customers", "amenity": "parking_entrance", "name": "Mercadona", "operator": "Mercadona", "parking": "underground"}}, {"type": "node", "id": 4290727545, "lat": 41.4113766, "lon": 2.2163402, "tags": {"amenity": "restaurant", "cuisine": "spanish", "name": "Can Canyes"}}, {"type": "node", "id": 4307026120, "lat": 41.4174627, "lon": 2.2047682, "tags": {"brand": "Bon Area", "brand:wikidata": "Q11924743", "brand:wikipedia": "ca:Grup Alimentari Guissona", "name": "Bon Area", "shop": "supermarket"}}, {"type": "node", "id": 4307026122, "lat": 41.4172048, "lon": 2.2044118, "tags": {"amenity": "fast_food", "cuisine": "pizza", "name": "Pizza", "takeaway": "yes"}}, {"type": "node", "id": 4307026123, "lat": 41.4170583, "lon": 2.2042342, "tags": {"addr:housenumber": "1095", "addr:postcode": "08020", "addr:street": "Gran Via de les Corts Catalanes", "amenity": "restaurant", "cuisine": "spanish;galician", "name": "Foxos", "name:ca": "Foxos", "name:en": "Foxos", "name:es": "Foxos", "phone": "+34 933 14 47 60"}}, {"type": "node", "id": 4307026124, "lat": 41.4171202, "lon": 2.2043146, "tags": {"amenity": "restaurant", "cuisine": "asian;chinese"}}, {"type": "node", "id": 4307083049, "lat": 41.4146504, "lon": 2.2010114, "tags": {"amenity": "restaurant", "cuisine": "chinese", "name": "Gran Mundo", "wheelchair": "limited"}}, {"type": "node", "id": 4318086442, "lat": 41.4107214, "lon": 2.1987434}, {"type": "node", "id": 4318086443, "lat": 41.4108833, "lon": 2.1987642}, {"type": "node", "id": 4338728045, "lat": 41.4103468, "lon": 2.2005037}, {"type": "node", "id": 4338728053, "lat": 41.4106043, "lon": 2.2001671}, {"type": "node", "id": 4338728054, "lat": 41.4106133, "lon": 2.2008591}, {"type": "node", "id": 4338728061, "lat": 41.4108342, "lon": 2.200476}, {"type": "node", "id": 4338728062, "lat": 41.4108688, "lon": 2.2005225}, {"type": "node", "id": 4341352095, "lat": 41.4194489, "lon": 2.2161153}, {"type": "node", "id": 4341352100, "lat": 41.4194821, "lon": 2.2160713}, {"type": "node", "id": 4378968935, "lat": 41.4149686, "lon": 2.2170577, "tags": {"shop": "convenience"}}, {"type": "node", "id": 4378972232, "lat": 41.4143208, "lon": 2.2179992, "tags": {"shop": "convenience"}}, {"type": "node", "id": 4510066192, "lat": 41.4071483, "lon": 2.2032044, "tags": {"addr:housenumber": "109", "addr:postcode": "08005", "addr:street": "Avinguda Diagonal", "amenity": "restaurant", "cuisine": "spanish;argentinian;grill", "name": "Can Oliva", "name:ca": "Can Oliva", "name:en": "Can Oliva", "name:es": "Can Oliva", "phone": "+34 932 66 08 95"}}, {"type": "node", "id": 4534907393, "lat": 41.4058059, "lon": 2.1905307, "tags": {"addr:housenumber": "866-872", "addr:street": "Gran Via de les Corts Catalanes"}}, {"type": "node", "id": 4534954334, "lat": 41.4047773, "lon": 2.1918877}, {"type": "node", "id": 4563459833, "lat": 41.4048291, "lon": 2.1914585, "tags": {"amenity": "restaurant", "diet:vegan": "no", "diet:vegetarian": "no", "name": "El Mussol", "opening_hours": "Mo-Th 13:00-16:30,20:00-24:00, Fr-Su 13:00-16:30,20:00-01:00", "survey:date": "2022-01-19", "wheelchair": "yes"}}, {"type": "node", "id": 4582968963, "lat": 41.4050337, "lon": 2.1895054}, {"type": "node", "id": 4721278191, "lat": 41.4071597, "lon": 2.1930065, "tags": {"amenity": "restaurant", "name": "Els Tres Porquets", "name:es": "Els Tres Porquets"}}, {"type": "node", "id": 4734086768, "lat": 41.4061298, "lon": 2.1921339}, {"type": "node", "id": 4734086770, "lat": 41.4064808, "lon": 2.1914251}, {"type": "node", "id": 4734086771, "lat": 41.406482, "lon": 2.1916692}, {"type": "node", "id": 4803372389, "lat": 41.4216158, "lon": 2.2157055, "tags": {"amenity": "restaurant"}}, {"type": "node", "id": 4878130692, "lat": 41.4034739, "lon": 2.1887038, "tags": {"shop": "kiosk"}}, {"type": "node", "id": 4906707987, "lat": 41.4060107, "lon": 2.1922947, "tags": {"addr:city": "Barcelona", "addr:country": "ES", "addr:housenumber": "151-156", "addr:street": "Carrer de la Llacuna", "barrier": "entrance"}}, {"type": "node", "id": 4906707988, "lat": 41.4059271, "lon": 2.1924039}, {"type": "node", "id": 4906707990, "lat": 41.4053169, "lon": 2.1932043}, {"type": "node", "id": 4906707996, "lat": 41.4061039, "lon": 2.192173}, {"type": "node", "id": 4906736149, "lat": 41.4058547, "lon": 2.1893093, "tags": {"addr:city": "Barcelona", "addr:country": "ES", "addr:housenumber": "39", "addr:postcode": "08018", "addr:street": "Carrer dels Escultors Claper\u00f3s", "amenity": "restaurant", "cuisine": "tapas", "email": "viliviale@gmail.com", "facebook": "https://www.facebook.com/pg/LOlivera.bar/", "name": "L'Olivera", "outdoor_seating": "yes", "payment:american_express": "yes", "payment:coins": "yes", "payment:visa": "yes", "payment:visa_debit": "yes", "phone": "+34 931 72 48 99", "toilets:wheelchair": "yes", "wheelchair": "limited"}}, {"type": "node", "id": 4912252641, "lat": 41.4145487, "lon": 2.2212183, "tags": {"addr:city": "Sant Adri\u00e0 de Bes\u00f2s", "addr:postcode": "08930", "addr:street": "Passatge de Lola Anglada", "amenity": "restaurant", "delivery": "no", "name": "D'ins. escola restaurant", "nohousenumber": "yes", "opening_hours": "Mo-Fr 13:00-16:00", "operator": "Fundaci\u00f3 Foment i Treball", "phone": "+34 93 303 41 00 ext. 7225", "takeaway": "yes", "website": "http://dinsescola.org/"}}, {"type": "node", "id": 4942732021, "lat": 41.4064484, "lon": 2.193943, "tags": {"addr:housenumber": "147-153", "addr:street": "Rambla del Poblenou", "amenity": "restaurant", "name": "La dehesa", "name:es": "La dehesa"}}, {"type": "node", "id": 4979748289, "lat": 41.4130805, "lon": 2.2204613, "tags": {"amenity": "bar"}}, {"type": "node", "id": 4983229291, "lat": 41.4109134, "lon": 2.2156906, "tags": {"amenity": "bar"}}, {"type": "node", "id": 4983236823, "lat": 41.4108088, "lon": 2.2158274, "tags": {"amenity": "bar", "name": "l'Illa del Mar"}}, {"type": "node", "id": 4984235188, "lat": 41.410556, "lon": 2.2078314, "tags": {"addr:city": "Barcelona", "addr:housenumber": "59", "addr:postcode": "08019", "addr:street": "Carrer de Vene\u00e7uela", "amenity": "restaurant", "cuisine": "steak_house", "name": "Las Brasas del T\u00edo Manolo", "outdoor_seating": "no"}}, {"type": "node", "id": 4984256695, "lat": 41.4085709, "lon": 2.2035603, "tags": {"addr:city": "Barcelona", "addr:postcode": "08019", "addr:street": "Carrer de Crist\u00f3bal de Moura", "amenity": "restaurant", "cuisine": "steak_house;argentinian", "name": "Pampa M\u00eda", "outdoor_seating": "no"}}, {"type": "node", "id": 5103623221, "lat": 41.4058102, "lon": 2.197889, "tags": {"addr:housenumber": "145", "addr:street": "Avinguda Diagonal", "amenity": "restaurant", "cuisine": "chinese", "name": "Chang Feng", "name:es": "Chang Feng", "opening_hours": "Mo-Su 12:00-16:00, 20:00-00:00", "phone": "+34 932664857"}}, {"type": "node", "id": 5200473486, "lat": 41.4139281, "lon": 2.20632, "tags": {"addr:city": "Barcelona", "addr:country": "ES", "addr:housenumber": "460", "addr:postcode": "08005", "addr:street": "Carrer de Pere IV", "amenity": "pub", "name": "Bodega J. Cala", "opening_hours": "Tu-Su 10:30-16:00", "smoking": "no"}}, {"type": "node", "id": 5202989792, "lat": 41.4080664, "lon": 2.2035886, "tags": {"shop": "convenience"}}, {"type": "node", "id": 5210892142, "lat": 41.4153925, "lon": 2.2118691, "tags": {"amenity": "bar", "name": "Cafe Bar Parada"}}, {"type": "node", "id": 5273343300, "lat": 41.4166817, "lon": 2.2056876, "tags": {"addr:city": "Barcelona", "addr:country": "ES", "addr:housenumber": "188", "addr:street": "Carrer de Josep Pla", "amenity": "restaurant", "name": "Tapes i Menjars Geminis"}}, {"type": "node", "id": 5599737122, "lat": 41.4163093, "lon": 2.2131844, "tags": {"addr:housenumber": "94", "addr:postcode": "08019", "addr:street": "Rambla de Prim", "amenity": "bar", "name": "Bar Jorepa"}}, {"type": "node", "id": 5810743454, "lat": 41.4116006, "lon": 2.2070055, "tags": {"addr:city": "Barcelona", "addr:housenumber": "105", "addr:postcode": "08019", "addr:street": "Carrer de Crist\u00f3bal de Moura", "amenity": "restaurant", "bar": "yes", "cuisine": "argentinian", "delivery": "yes", "description": "Resto-Bar Argentino", "name": "Retruco", "opening_hours": "Tu-Th 13:00-15:30,20:30-22:30; Fr 13:00-15:30,20:30-23:00; Sa 13:00-16:30,20:30-23:00; Su 13:00-16:00,20:30-22:30; Mo off", "phone": "+34 93 5132749", "reservation": "yes", "website": "https://www.retruco.es/"}}, {"type": "node", "id": 5878496985, "lat": 41.4051569, "lon": 2.1921906, "tags": {"amenity": "restaurant", "cuisine": "japanese", "email": "glories@udon.es", "name": "UDON Gl\u00f2ries", "opening_hours": "Su-Th 13:00-00:00; Fr,Sa 13:00-01:00", "phone": "+34 93 486 13 14", "toilets:wheelchair": "yes", "website": "https://www.udon.es/es/restaurants/barcelona/udon-glories", "wheelchair": "yes"}}, {"type": "node", "id": 5890439228, "lat": 41.4168139, "lon": 2.2069591, "tags": {"addr:housenumber": "15", "addr:street": "Carrer del Paraguai", "amenity": "cafe", "entrance": "yes", "name": "Bar Cafeteria Capitan"}}, {"type": "node", "id": 6032284981, "lat": 41.4195863, "lon": 2.215876}, {"type": "node", "id": 6032284983, "lat": 41.4191573, "lon": 2.2157302}, {"type": "node", "id": 6032284984, "lat": 41.4191574, "lon": 2.2156064}, {"type": "node", "id": 6032285087, "lat": 41.4192693, "lon": 2.2154566}, {"type": "node", "id": 6032285089, "lat": 41.4193471, "lon": 2.215982}, {"type": "node", "id": 6032285090, "lat": 41.4196061, "lon": 2.2158497}, {"type": "node", "id": 6032285092, "lat": 41.4196429, "lon": 2.2158977}, {"type": "node", "id": 6032285094, "lat": 41.4194629, "lon": 2.2160459}, {"type": "node", "id": 6032285095, "lat": 41.4195197, "lon": 2.2160645}, {"type": "node", "id": 6032285096, "lat": 41.4194842, "lon": 2.2160175}, {"type": "node", "id": 6032285097, "lat": 41.4191099, "lon": 2.2156672}, {"type": "node", "id": 6032285104, "lat": 41.4191238, "lon": 2.2155626}, {"type": "node", "id": 6032285106, "lat": 41.4190779, "lon": 2.2156246}, {"type": "node", "id": 6036931539, "lat": 41.4050517, "lon": 2.1926832, "tags": {"amenity": "fast_food", "name": "Viena", "toilets:wheelchair": "yes", "wheelchair": "yes"}}, {"type": "node", "id": 6164141341, "lat": 41.4049918, "lon": 2.1923017, "tags": {"addr:city": "Barcelona", "addr:country": "ES", "addr:housenumber": "218", "addr:postcode": "08018", "addr:street": "Avinguda Diagonal", "addr:unit": "293-304", "amenity": "restaurant", "branch": "C.C. Les Glories", "contact:phone": "+34 932663601", "contact:website": "https://www.latagliatella.es/restaurantes/barcelona/cc-les-glories-barcelona", "cuisine": "pizza;italian", "name": "La Tagliatella", "opening_hours": "Su-Th 13:00-23:00; Fr-Sa 12:00-00:00", "payment:mastercard": "yes", "payment:visa": "yes", "toilets:wheelchair": "yes", "wheelchair": "yes"}}, {"type": "node", "id": 6164234382, "lat": 41.4052321, "lon": 2.1924708, "tags": {"addr:city": "Barcelona", "addr:country": "ES", "addr:housenumber": "208", "addr:postcode": "08018", "addr:street": "Avinguda Diagonal", "amenity": "restaurant", "branch": "C.C. Glories", "contact:website": "https://pokesi.es/", "cuisine": "poke", "delivery": "yes", "level": "-1", "name": "Pok\u00e9 S\u00ed", "opening_hours": "Mo-Su 12:00-23:00", "outdoor_seating": "no", "smoking": "no", "takeaway": "yes", "toilets:wheelchair": "yes", "wheelchair": "yes"}}, {"type": "node", "id": 6265318785, "lat": 41.417732, "lon": 2.2116854, "tags": {"amenity": "bar", "name": "Las Palomeres"}}, {"type": "node", "id": 6402952994, "lat": 41.4168908, "lon": 2.2095754, "tags": {"amenity": "bar", "name": "Casta\u00f1er"}}, {"type": "node", "id": 6402952995, "lat": 41.4171138, "lon": 2.2069556, "tags": {"amenity": "bar", "name": "La Ked\u00e1"}}, {"type": "node", "id": 6402952996, "lat": 41.4134887, "lon": 2.2158669, "tags": {"amenity": "bar", "name": "Bar Nino"}}, {"type": "node", "id": 6402971992, "lat": 41.4158481, "lon": 2.2112247, "tags": {"amenity": "bar", "name": "Tu y Yo"}}, {"type": "node", "id": 6402991985, "lat": 41.4136849, "lon": 2.2166644, "tags": {"addr:housenumber": "30", "addr:postcode": "08019", "addr:street": "Rambla de Prim", "name": "Fruita i verdura Anna", "phone": "+34 696507633", "shop": "greengrocer"}}, {"type": "node", "id": 6451346360, "lat": 41.4054304, "lon": 2.1930548, "tags": {"addr:city": "Barcelona", "addr:country": "ES", "addr:housenumber": "139-145", "addr:street": "Carrer de la Llacuna"}}, {"type": "node", "id": 6516563967, "lat": 41.404438, "lon": 2.1905395, "tags": {"addr:housenumber": "240-252", "addr:street": "Avinguda Diagonal", "entrance": "yes"}}, {"type": "node", "id": 6516563968, "lat": 41.4045252, "lon": 2.1908919, "tags": {"addr:housenumber": "230-238", "addr:street": "Avinguda Diagonal", "entrance": "yes"}}, {"type": "node", "id": 6516563969, "lat": 41.4046702, "lon": 2.1914774, "tags": {"addr:housenumber": "220-228", "addr:street": "Avinguda Diagonal", "entrance": "yes"}}, {"type": "node", "id": 6516563970, "lat": 41.4048436, "lon": 2.1921448, "tags": {"addr:housenumber": "210-218", "addr:street": "Avinguda Diagonal", "entrance": "yes"}}, {"type": "node", "id": 6516563971, "lat": 41.4049295, "lon": 2.1924896, "tags": {"addr:housenumber": "200-208", "addr:street": "Avinguda Diagonal", "entrance": "yes"}}, {"type": "node", "id": 6516563972, "lat": 41.4050723, "lon": 2.1930626, "tags": {"addr:housenumber": "188-198", "addr:street": "Avinguda Diagonal", "entrance": "yes"}}, {"type": "node", "id": 6516572963, "lat": 41.4051123, "lon": 2.1896098, "tags": {"addr:housenumber": "850-852", "addr:street": "Gran Via de les Corts Catalanes"}}, {"type": "node", "id": 6516572964, "lat": 41.4054001, "lon": 2.1899919, "tags": {"addr:housenumber": "854-864", "addr:street": "Gran Via de les Corts Catalanes"}}, {"type": "node", "id": 6516572965, "lat": 41.406337, "lon": 2.1912349, "tags": {"addr:housenumber": "874-888", "addr:street": "Gran Via de les Corts Catalanes"}}, {"type": "node", "id": 6533634087, "lat": 41.4115141, "lon": 2.204021, "tags": {"addr:street": "Carrer de Pere IV", "amenity": "fast_food", "name": "El gran combo"}}, {"type": "node", "id": 6549769986, "lat": 41.412171, "lon": 2.2163886, "tags": {"amenity": "bar", "name": "Granja Bar Simon"}}, {"type": "node", "id": 6579626787, "lat": 41.4077053, "lon": 2.1921041, "tags": {"addr:housenumber": "873", "addr:street": "Gran Via de les Corts Catalanes", "amenity": "cafe", "name": "Gloria bean's coffee"}}, {"type": "node", "id": 6579626886, "lat": 41.406837, "lon": 2.1909846, "tags": {"addr:housenumber": "857", "addr:street": "Gran Via de les Corts Catalanes", "amenity": "bar", "name": "Chaplin"}}, {"type": "node", "id": 6579626985, "lat": 41.4065594, "lon": 2.190623, "tags": {"addr:housenumber": "855", "addr:street": "Gran Via de les Corts Catalanes", "amenity": "cafe", "internet_access": "wlan", "name": "Carlu"}}, {"type": "node", "id": 6579627085, "lat": 41.4056827, "lon": 2.1894676, "tags": {"addr:housenumber": "837", "addr:street": "Gran Via de les Corts Catalanes", "amenity": "restaurant", "name": "Bar Avenida"}}, {"type": "node", "id": 6619014485, "lat": 41.4107352, "lon": 2.2175656, "tags": {"addr:city": "Barcelona", "addr:housenumber": "3-35", "addr:street": "Avinguda Diagonal"}}, {"type": "node", "id": 6766273108, "lat": 41.4062943, "lon": 2.1894749, "tags": {"amenity": "restaurant", "internet_access": "wlan", "name": "Bar Wally"}}, {"type": "node", "id": 6920501939, "lat": 41.413891, "lon": 2.2171154, "tags": {"brand": "Dia", "brand:wikidata": "Q925132", "brand:wikipedia": "es:DIA (supermercados)", "name": "Dia", "operator": "Distribuidora Internacional de Alimentaci\u00f3n, S.A.", "shop": "supermarket", "website": "https://www.dia.es"}}, {"type": "node", "id": 6924174027, "lat": 41.4173948, "lon": 2.217644, "tags": {"brand": "Dia", "brand:wikidata": "Q925132", "brand:wikipedia": "es:DIA (supermercados)", "name": "Dia", "operator": "Distribuidora Internacional de Alimentaci\u00f3n, S.A.", "shop": "supermarket", "website": "https://www.dia.es"}}, {"type": "node", "id": 7044957955, "lat": 41.405803, "lon": 2.1905336}, {"type": "node", "id": 7526373965, "lat": 41.407577, "lon": 2.1937196, "tags": {"amenity": "restaurant", "cuisine": "spanish", "name": "Rostisseria G\u00f3mez", "takeaway": "only"}}, {"type": "node", "id": 7556742601, "lat": 41.4046908, "lon": 2.194394, "tags": {"amenity": "bar", "name": "El Petit Daniel"}}, {"type": "node", "id": 7559103786, "lat": 41.4073907, "lon": 2.1934984, "tags": {"amenity": "bar", "name": "Pyramid"}}, {"type": "node", "id": 7559103985, "lat": 41.40753, "lon": 2.1936826, "tags": {"name": "Debby's", "shop": "confectionery"}}, {"type": "node", "id": 7559104085, "lat": 41.4075001, "lon": 2.1936287, "tags": {"amenity": "bar", "name": "Mechita Sour"}}, {"type": "node", "id": 7559151838, "lat": 41.4073121, "lon": 2.193362, "tags": {"shop": "convenience"}}, {"type": "node", "id": 7777999388, "lat": 41.4049345, "lon": 2.1913268, "tags": {"amenity": "cafe", "brand": "Starbucks", "brand:wikidata": "Q37158", "brand:wikipedia": "en:Starbucks", "cuisine": "coffee_shop", "name": "Starbucks", "name:en": "Starbucks", "official_name": "Starbucks Coffee", "survey:date": "2022-01-19", "takeaway": "yes"}}, {"type": "node", "id": 8049731695, "lat": 41.4058727, "lon": 2.1960983, "tags": {"amenity": "restaurant", "name": "Kyora"}}, {"type": "node", "id": 8049731800, "lat": 41.4066239, "lon": 2.1954143, "tags": {"amenity": "cafe", "name": "El rebost de la Lola"}}, {"type": "node", "id": 8049732299, "lat": 41.4068195, "lon": 2.1951581, "tags": {"amenity": "fast_food", "name": "nora"}}, {"type": "node", "id": 8061857486, "lat": 41.4061911, "lon": 2.2002432, "tags": {"name": "El Fornet", "shop": "bakery"}}, {"type": "node", "id": 8061857487, "lat": 41.406702, "lon": 2.2015437, "tags": {"addr:postcode": "08005", "amenity": "bar", "name": "Sports bar", "name:es": "Sports Bar Italian Food", "phone": "936 39 90 70"}}, {"type": "node", "id": 8062015185, "lat": 41.4072976, "lon": 2.2039768, "tags": {"amenity": "cafe", "name": "Tapea & BB"}}, {"type": "node", "id": 8087224617, "lat": 41.4084239, "lon": 2.206319, "tags": {"name": "Condis life", "shop": "supermarket"}}, {"type": "node", "id": 8090433517, "lat": 41.4058657, "lon": 2.1897073, "tags": {"name": "Condis", "shop": "supermarket"}}, {"type": "node", "id": 8489755907, "lat": 41.4053896, "lon": 2.1918005, "tags": {"level": "0", "name": "Buenas Migas", "shop": "pastry"}}, {"type": "node", "id": 8615555254, "lat": 41.4133543, "lon": 2.2009945, "tags": {"addr:city": "Barcelona", "addr:housenumber": "1044", "addr:postcode": "08020", "addr:street": "Gran Via de les Corts Catalanes", "name": "Del poble... A granel", "opening_hours": "Mo-Fr 09:30-14:00; 17:00-20:30 Sa 09:30-14:30, 17:00-20:00", "opening_hours:covid19": "same", "payment:cash": "yes", "payment:credit_cards": "yes", "phone": "+34 612 44 73 34", "shop": "supermarket", "website": "http://agranel.shop/index.php"}}, {"type": "node", "id": 8818975889, "lat": 41.4054744, "lon": 2.1919237, "tags": {"level": "0", "name": "Danone", "shop": "ice_cream"}}, {"type": "node", "id": 8978109646, "lat": 41.4085913, "lon": 2.1929744, "tags": {"addr:housenumber": "55", "addr:street": "Carrer de Sant Joan de Malta", "amenity": "restaurant", "cuisine": "catalan", "name": "Can Pineda"}}, {"type": "node", "id": 9020858907, "lat": 41.4101622, "lon": 2.2152811, "tags": {"entrance": "yes"}}, {"type": "node", "id": 9197873390, "lat": 41.4061236, "lon": 2.1928075, "tags": {"addr:city": "Barcelona", "addr:country": "ES", "addr:housenumber": "162", "addr:postcode": "08018", "addr:street": "Carrer de la Llacuna", "contact:website": "https://incapto.com/", "name": "Incapto Coffee", "shop": "coffee"}}, {"type": "node", "id": 9240267915, "lat": 41.4120566, "lon": 2.2140423, "tags": {"amenity": "cafe", "outdoor_seating": "yes"}}, {"type": "node", "id": 9240267916, "lat": 41.412025, "lon": 2.2135528, "tags": {"amenity": "cafe", "outdoor_seating": "yes"}}, {"type": "node", "id": 9255952934, "lat": 41.4118938, "lon": 2.2190616, "tags": {"amenity": "restaurant", "name": "Le Grand Caf\u00e9 Rouge"}}, {"type": "node", "id": 9355865109, "lat": 41.4162033, "lon": 2.2234813, "tags": {"name": "Condis", "shop": "supermarket"}}, {"type": "node", "id": 9431243821, "lat": 41.4050963, "lon": 2.190739, "tags": {"amenity": "fast_food", "cuisine": "coffee_shop", "level": "-1", "name": "Giovanni", "survey:date": "2022-01-19"}}, {"type": "node", "id": 9431244017, "lat": 41.4053897, "lon": 2.1913509, "tags": {"amenity": "fast_food", "cuisine": "coffee_shop", "name": "Secrets", "survey:date": "2022-01-19"}}, {"type": "node", "id": 9447744113, "lat": 41.4164183, "lon": 2.2130607, "tags": {"addr:city": "Barcelona", "addr:housenumber": "102", "addr:postcode": "08019", "addr:street": "Rambla de Prim", "amenity": "bar", "name": "Bar Conquero", "opening_hours": "Mo-Su 07:00-00:00"}}, {"type": "node", "id": 9748092520, "lat": 41.4098158, "lon": 2.2099456, "tags": {"name": "Super Tandy", "shop": "supermarket"}}, {"type": "node", "id": 9748092521, "lat": 41.4096423, "lon": 2.2097123, "tags": {"name": "Can Girona", "shop": "bakery"}}, {"type": "node", "id": 9754914402, "lat": 41.4134156, "lon": 2.2248436, "tags": {"name": "Alcampo", "shop": "supermarket"}}, {"type": "node", "id": 9914088717, "lat": 41.4052516, "lon": 2.1882236, "tags": {"amenity": "cafe", "name": "Els Titons de Las Palmeras"}}, {"type": "node", "id": 9983395817, "lat": 41.4050171, "lon": 2.1925921, "tags": {"amenity": "cafe", "name:en": "Honest greens"}}, {"type": "way", "id": 24220666, "nodes": [262250079, 3139947679, 3779800462, 3139947735, 3139947793, 3139947882, 3139947902, 3139947930, 262250080, 3139902968, 3139902973, 262250081, 3139948025, 6619014485, 3139948018, 3139948014, 3139947970, 3139947967, 9020858907, 3139947934, 1748629995, 3139947874, 3139947869, 3139947867, 1748629986, 3139947857, 1748629960, 3139947849, 1748629930, 3139947840, 1748629917, 3139947834, 3139947828, 262250082, 3139947721, 3139947718, 3139947678, 262250079]}, {"type": "way", "id": 308732641, "nodes": [3139947796, 3139947770, 3139947759, 3139947764, 3139947769, 3139947796]}, {"type": "way", "id": 308732644, "nodes": [3139947808, 3139947789, 3139947799, 3139947815, 3139947816, 3139947820, 3139947808]}, {"type": "way", "id": 308732651, "nodes": [3139947847, 3139947795, 3139947776, 3139947798, 3139947805, 3139947813, 3139947830, 3139947847], "tags": {"building:levels": "1", "building:part": "yes", "roof:material": "concrete"}}, {"type": "way", "id": 427630971, "nodes": [618457670, 4268329032, 4268314625, 4318086442, 4318086443, 4268314624, 4268321791, 618457670], "tags": {"brand": "Mercadona", "brand:wikidata": "Q377705", "brand:wikipedia": "es:Mercadona", "building": "retail", "name": "Mercadona", "operator": "Mercadona", "shop": "supermarket", "website": "https://www.mercadona.es"}}, {"type": "way", "id": 435983479, "nodes": [4338728054, 4338728062, 4338728061, 4338728053, 4338728045, 4338728054], "tags": {"addr:city": "Barcelona", "addr:housenumber": "144", "addr:postcode": "08020", "addr:province": "Barcelona", "addr:street": "Carrer de Bac de Roda", "all_you_can_eat": "yes", "amenity": "restaurant", "building": "industrial", "cuisine": "chinese", "name": "Wok Ronda"}}, {"type": "way", "id": 436262902, "nodes": [6032284981, 6032285090, 6032285092, 6032285095, 6032285096, 6032285094, 4341352100, 4341352095, 6032285089, 6032284983, 6032285097, 6032285106, 6032285104, 6032284984, 6032285087, 6032284981], "tags": {"brand": "Lidl", "brand:wikidata": "Q151954", "brand:wikipedia": "en:Lidl", "building": "supermarket", "building:levels": "2", "name": "Lidl", "shop": "supermarket", "website": "https://www.lidl.es/"}}, {"type": "way", "id": 499392314, "nodes": [4906707988, 1307297614]}, {"type": "way", "id": 499392316, "nodes": [4582968963, 6516572963, 6516572964, 7044957955, 4534907393, 2187275712]}, {"type": "way", "id": 499392317, "nodes": [4906707996, 4734086768]}, {"type": "way", "id": 499392318, "nodes": [1307297614, 6451346360, 4906707990]}, {"type": "way", "id": 499392319, "nodes": [4906707996, 4906707987, 4906707988], "tags": {"barrier": "wall"}}, {"type": "way", "id": 499392321, "nodes": [1307297607, 6516563969, 6516563968, 6516563967, 420068865]}, {"type": "way", "id": 499392323, "nodes": [420068865, 2923421005, 420068862, 4582968963]}, {"type": "way", "id": 499392324, "nodes": [1307297613, 4534954334, 1307297607], "tags": {"barrier": "gate"}}, {"type": "way", "id": 499392327, "nodes": [4906707990, 2923421010, 2756677882, 1307297612, 6516563972, 6516563971, 6516563970, 1307297613]}, {"type": "way", "id": 499392329, "nodes": [2187275712, 6516572965, 4734086770, 4734086771, 4734086768]}, {"type": "relation", "id": 4122912, "members": [{"type": "way", "ref": 24220666, "role": "outer"}, {"type": "way", "ref": 308732644, "role": "inner"}, {"type": "way", "ref": 308732641, "role": "inner"}, {"type": "way", "ref": 308732651, "role": "inner"}], "tags": {"addr:street": "Avinguda Diagonal", "building": "yes", "name": "Centre Comercial Diagonal Mar", "name:ca": "Centre Comercial Diagonal Mar", "shop": "mall", "short_name": "Diagonal Mar", "type": "multipolygon", "website": "https://www.diagonalmarcentre.es/", "wikidata": "Q4120780", "wikipedia": "ca:Diagonal Mar"}}, {"type": "relation", "id": 7323157, "members": [{"type": "way", "ref": 499392323, "role": "outer"}, {"type": "way", "ref": 499392321, "role": "outer"}, {"type": "way", "ref": 499392324, "role": "outer"}, {"type": "way", "ref": 499392327, "role": "outer"}, {"type": "way", "ref": 499392318, "role": "outer"}, {"type": "way", "ref": 499392314, "role": "outer"}, {"type": "way", "ref": 499392319, "role": "outer"}, {"type": "way", "ref": 499392317, "role": "outer"}, {"type": "way", "ref": 499392329, "role": "outer"}, {"type": "way", "ref": 499392316, "role": "outer"}], "tags": {"addr:city": "Barcelona", "addr:housenumber": "208", "addr:postcode": "08018", "addr:street": "Avinguda Diagonal", "name": "Gl\u00f2ries", "name:ca": "Gl\u00f2ries", "opening_hours": "Mo-Sa 10:00-22:00", "shop": "mall", "type": "multipolygon", "website": "http://lesglories.com/", "wheelchair": "yes", "wikidata": "Q16571897", "wikipedia": "es:Gl\u00f2ries (centro comercial)"}}]}