{"version": 0.6, "generator": "Overpass API 0.7.58.5 b0c4acbb", "osm3s": {"timestamp_osm_base": "2022-09-03T07:49:08Z", "copyright": "The data included in this document is from www.openstreetmap.org. The data is made available under ODbL."}, "elements": [{"type": "node", "id": 506202703, "lat": 41.3962323, "lon": 2.1890864, "tags": {"addr:street": "Carrer dels Almog\u00e0vers", "amenity": "cafe", "cuisine": "regional", "internet_access": "yes", "internet_access:fee": "no", "name": "Bar Almog\u00e1vares", "opening_hours": "Mo-Fr 07:00-17:00", "opening_hours:covid19": "open", "outdoor_seating": "yes"}}, {"type": "node", "id": 506202705, "lat": 41.3949813, "lon": 2.1916505, "tags": {"addr:housenumber": "36", "addr:street": "Pere IV", "amenity": "restaurant", "description": "Wifi", "name": "La Braser\u00eda", "phone": "+34 931876537", "website": "www.lawebdelabraseria.com"}}, {"type": "node", "id": 506236266, "lat": 41.3934539, "lon": 2.1881434, "tags": {"amenity": "restaurant", "cuisine": "chinese", "name": "Palacio de China"}}, {"type": "node", "id": 506236267, "lat": 41.3932336, "lon": 2.1884994, "tags": {"amenity": "pub", "name": "Bar Nuria"}}, {"type": "node", "id": 1658424921, "lat": 41.3972738, "lon": 2.1884132, "tags": {"amenity": "fast_food", "name": "Forastera"}}, {"type": "node", "id": 1658425572, "lat": 41.3967185, "lon": 2.1890325, "tags": {"addr:city": "Barcelona", "addr:postcode": "08018", "addr:street": "Carrer de Zamora", "amenity": "cafe", "cuisine": "regional", "internet_access": "yes", "internet_access:fee": "no", "name": "Rebeka", "opening_hours": "Mo-Fr 08:00-17:00", "opening_hours:covid19": "open", "outdoor_seating": "yes"}}, {"type": "node", "id": 2158865607, "lat": 41.399043, "lon": 2.1884309, "tags": {"addr:housenumber": "22", "addr:street": "Carrer de T\u00e0nger", "amenity": "cafe", "contact:phone": "+34 933 09 33 75", "contact:website": "http://www.carrotcafe.es/", "name": "Carrot Caf\u00e9", "name:ca": "Carrot caf\u00e9", "name:en": "Carrot caf\u00e9", "name:es": "Carrot caf\u00e9"}}, {"type": "node", "id": 2292687549, "lat": 41.395911, "lon": 2.190529}, {"type": "node", "id": 3005463983, "lat": 41.3972585, "lon": 2.1916091, "tags": {"addr:city": "Barcelona", "addr:housenumber": "88", "addr:postcode": "08018", "addr:street": "Carrer de Pamplona", "amenity": "pub", "name": "Ceferino", "smoking": "outside"}}, {"type": "node", "id": 3361212874, "lat": 41.3965202, "lon": 2.1918882, "tags": {"addr:housenumber": "120", "addr:street": "Carrer de Pallars", "amenity": "fast_food", "cuisine": "american"}}, {"type": "node", "id": 4138769013, "lat": 41.3970017, "lon": 2.1913538, "tags": {"addr:housenumber": "88", "addr:street": "Carrer de Pamplona", "amenity": "cafe", "name": "SKYE Coffee", "opening_hours": "Mo-Tu 09:00-13:30; We-Fr 09:00-17:00"}}, {"type": "node", "id": 4254685758, "lat": 41.3967509, "lon": 2.1929295, "tags": {"amenity": "cafe", "name": "Bread Bucket", "shop": "bakery"}}, {"type": "node", "id": 4254686706, "lat": 41.3970854, "lon": 2.1928808, "tags": {"amenity": "cafe"}}, {"type": "node", "id": 4289659124, "lat": 41.3947754, "lon": 2.1873544, "tags": {"addr:city": "Barcelona", "addr:housenumber": "114", "addr:postcode": "08018", "addr:street": "Carrer de la Marina", "amenity": "restaurant", "name": "MABEL the Granja", "opening_hours": "Mo-Fr 06:00-22:00; Sa 08:00-16:00", "phone": "+34 934 85 20 28", "smoking": "outside"}}, {"type": "node", "id": 4289682653, "lat": 41.3978888, "lon": 2.189968, "tags": {"addr:city": "Barcelona", "addr:housenumber": "96", "addr:postcode": "08018", "addr:street": "Carrer de Pamplona", "amenity": "pub", "name": "Sonora Sport Tavern"}}, {"type": "node", "id": 4346562600, "lat": 41.3934288, "lon": 2.1882383, "tags": {"shop": "supermarket"}}, {"type": "node", "id": 4878130692, "lat": 41.4034739, "lon": 2.1887038, "tags": {"shop": "kiosk"}}, {"type": "node", "id": 5010794821, "lat": 41.3979072, "lon": 2.1955319, "tags": {"addr:housenumber": "95", "addr:street": "Carrer de Pujades", "amenity": "cafe", "name": "N\u00f8mad Roaster's Home", "name:en": "N\u00f8mad Roaster's Home", "opening_hours": "Mo-Fr 09:00-17:00"}}, {"type": "node", "id": 5028979721, "lat": 41.3987513, "lon": 2.1950702, "tags": {"addr:housenumber": "95", "addr:street": "Carrer de Badajoz", "amenity": "cafe", "contact:facebook": "https://www.facebook.com/espaijoliu/", "name": "Espai Joliu", "opening_hours": "Mo-Fr 09:00-19:00; Sa 10:00-15:00", "website": "http://espaijoliu.tumblr.com/"}}, {"type": "node", "id": 5363506797, "lat": 41.4022944, "lon": 2.1881778, "tags": {"amenity": "cafe"}}, {"type": "node", "id": 5380241103, "lat": 41.4004924, "lon": 2.1903645, "tags": {"amenity": "restaurant", "name": "Diamantico"}}, {"type": "node", "id": 5380241629, "lat": 41.4004229, "lon": 2.1906076, "tags": {"amenity": "restaurant", "name": "el Jard\u00ed"}}, {"type": "node", "id": 5522265621, "lat": 41.3990264, "lon": 2.194494}, {"type": "node", "id": 5531275475, "lat": 41.3980449, "lon": 2.1941948, "tags": {"brand": "Dia", "brand:wikidata": "Q925132", "brand:wikipedia": "es:DIA (supermercados)", "name": "Dia", "operator": "Distribuidora Internacional de Alimentaci\u00f3n, S.A.", "shop": "supermarket", "website": "https://www.dia.es"}}, {"type": "node", "id": 5617465886, "lat": 41.3967536, "lon": 2.1962847, "tags": {"amenity": "restaurant"}}, {"type": "node", "id": 5676005621, "lat": 41.3931048, "lon": 2.1910878, "tags": {"amenity": "bar", "name": "CA L'ERIC"}}, {"type": "node", "id": 6126749461, "lat": 41.3942111, "lon": 2.1902433, "tags": {"addr:housenumber": "27", "addr:postcode": "08018", "addr:street": "Carrer de Pujades", "amenity": "restaurant", "entrance": "yes", "name": "Cantero"}}, {"type": "node", "id": 6138906566, "lat": 41.3990235, "lon": 2.1944916, "tags": {"man_made": "surveillance", "surveillance:type": "camera"}}, {"type": "node", "id": 6138906835, "lat": 41.3989804, "lon": 2.1943079}, {"type": "node", "id": 6138906836, "lat": 41.3990757, "lon": 2.1943864}, {"type": "node", "id": 6138906883, "lat": 41.3989288, "lon": 2.1944148}, {"type": "node", "id": 6138906896, "lat": 41.3989667, "lon": 2.1944456, "tags": {"addr:housenumber": "101", "addr:postcode": "08018", "addr:street": "Carrer de Pere IV", "entrance": "yes"}}, {"type": "node", "id": 6139197908, "lat": 41.3961614, "lon": 2.1897405, "tags": {"addr:city": "Barcelona", "addr:housenumber": "90", "addr:postcode": "08018", "addr:street": "Carrer de Zamora", "entrance": "yes"}}, {"type": "node", "id": 6139197909, "lat": 41.395822, "lon": 2.1903811, "tags": {"entrance": "yes"}}, {"type": "node", "id": 6139197910, "lat": 41.395822, "lon": 2.1902597, "tags": {"entrance": "yes"}}, {"type": "node", "id": 6139197911, "lat": 41.3958219, "lon": 2.1902074, "tags": {"addr:city": "Barcelona", "addr:housenumber": "78", "addr:postcode": "08018", "addr:street": "Carrer de Zamora", "entrance": "yes"}}, {"type": "node", "id": 6139197953, "lat": 41.395822, "lon": 2.1902347}, {"type": "node", "id": 6139197977, "lat": 41.3962114, "lon": 2.1898118}, {"type": "node", "id": 6139197978, "lat": 41.3959821, "lon": 2.190376}, {"type": "node", "id": 6139197981, "lat": 41.3961507, "lon": 2.1897282}, {"type": "node", "id": 6139198732, "lat": 41.3958217, "lon": 2.1901653}, {"type": "node", "id": 6139198736, "lat": 41.3961572, "lon": 2.1897354}, {"type": "node", "id": 6139198749, "lat": 41.395822, "lon": 2.1904069}, {"type": "node", "id": 6330262252, "lat": 41.4014849, "lon": 2.1895987, "tags": {"addr:housenumber": "160", "addr:street": "Carrer \u00c1vila", "amenity": "restaurant", "name": "Raco del Poble Nou", "opening_hours": "Mo-Su 07:00-22:00"}}, {"type": "node", "id": 6532230691, "lat": 41.3991988, "lon": 2.1885302, "tags": {"addr:street": "Carrer de T\u00e0nger", "amenity": "restaurant", "name": "L'Estoneta"}}, {"type": "node", "id": 6532239885, "lat": 41.4001402, "lon": 2.1897924, "tags": {"addr:housenumber": "44", "addr:postcode": "08018", "addr:street": "Carrer de T\u00e0nger", "amenity": "restaurant", "entrance": "yes", "name": "Casa Mar\u00eda"}}, {"type": "node", "id": 6532239886, "lat": 41.4003823, "lon": 2.1901179, "tags": {"addr:housenumber": "50", "addr:street": "Carrer de T\u00e0nger", "amenity": "restaurant", "name": "T\u00e1nger"}}, {"type": "node", "id": 6532239887, "lat": 41.4003684, "lon": 2.1901005, "tags": {"addr:housenumber": "50", "addr:postcode": "08018", "addr:street": "Carrer de T\u00e0nger", "entrance": "yes", "name": "David", "shop": "convenience"}}, {"type": "node", "id": 6533543186, "lat": 41.3954241, "lon": 2.1927662, "tags": {"amenity": "restaurant", "name": "La Terrassa"}}, {"type": "node", "id": 6535101586, "lat": 41.3962666, "lon": 2.1921849, "tags": {"addr:housenumber": ",78", "addr:street": "Carrer de Pamplona", "amenity": "restaurant", "name": "Xiscarexantar"}}, {"type": "node", "id": 6552263885, "lat": 41.4021166, "lon": 2.1898084, "tags": {"addr:housenumber": "31", "addr:street": "Carrer de Bol\u00edvia", "amenity": "restaurant", "cuisine": "local", "internet_access": "wlan", "name": "Mare Meva", "opening_hours": "Mo-Fr 07:30-17:00"}}, {"type": "node", "id": 6563307386, "lat": 41.4016002, "lon": 2.1889242, "tags": {"amenity": "bar", "name": "Eva-2"}}, {"type": "node", "id": 6563312285, "lat": 41.3971005, "lon": 2.187613, "tags": {"addr:housenumber": "7", "addr:street": "Carrer de Sancho de \u00c0vila", "amenity": "restaurant", "cuisine": "local", "name": "Sancho", "opening_hours": "Mo-Fr 07:00-22:00, Sa-Su 08:00-22:00"}}, {"type": "node", "id": 6576044985, "lat": 41.4010063, "lon": 2.1880935, "tags": {"addr:housenumber": "1-3", "addr:street": "Carrer de Bol\u00edvia", "amenity": "restaurant", "cuisine": "arab", "name": "Al Jaima - Els Encants", "name:es": "Al-Jaima - Els Encants", "opening_hours": "Mo-Sa 07:00-23:00", "phone": "034930178487"}}, {"type": "node", "id": 6576045085, "lat": 41.4010388, "lon": 2.1883527, "tags": {"addr:housenumber": "1", "addr:street": "Carrer de Bol\u00edvia", "name": "Alimentaci\u00f3 Escribano", "opening_hours": "Mo-Sa 07:45-15:00, 17:00-21:00", "shop": "convenience"}}, {"type": "node", "id": 6576045185, "lat": 41.4013195, "lon": 2.1887189, "tags": {"addr:housenumber": "11", "addr:street": "Carrer de Bol\u00edvia", "amenity": "restaurant", "name": "Tovar", "opening_hours": "Mo-Sa 06:00-17:00"}}, {"type": "node", "id": 6588176585, "lat": 41.4013749, "lon": 2.1887841, "tags": {"addr:housenumber": "15,17", "addr:street": "Carrer de Bol\u00edvia", "amenity": "restaurant", "name": "La Fonda", "opening_hours": "Mo-Fr 07:00-20:00"}}, {"type": "node", "id": 6588191385, "lat": 41.4014243, "lon": 2.188848, "tags": {"addr:housenumber": "15,17", "addr:street": "Carrer de Bol\u00edvia", "amenity": "restaurant", "name": "Can Miguel\u00edn", "opening_hours": "Mo-Su 09:00-00:00"}}, {"type": "node", "id": 6973926711, "lat": 41.3965047, "lon": 2.1941864, "tags": {"addr:housenumber": "100", "addr:street": "Carrer de Pujades", "amenity": "cafe", "name": "Syra Coffee", "name:en": "Itnig", "website": "https://syra.coffee/"}}, {"type": "node", "id": 7234692489, "lat": 41.3942304, "lon": 2.1901096, "tags": {"amenity": "restaurant", "name": "Van van var"}}, {"type": "node", "id": 7995069726, "lat": 41.3965693, "lon": 2.1887208, "tags": {"addr:city": "Barcelona", "addr:street": "Carrer de Zamora", "amenity": "cafe", "cuisine": "regional", "internet_access": "yes", "internet_access:fee": "no", "name": "Eurest  Catalunya S.L.", "opening_hours": "Mo-Su 08:00-21:00", "opening_hours:covid19": "open", "outdoor_seating": "yes"}}, {"type": "node", "id": 8064873686, "lat": 41.3977404, "lon": 2.1934117, "tags": {"amenity": "restaurant", "name": "La Cantonada del Xenia"}}, {"type": "node", "id": 8064873887, "lat": 41.396904, "lon": 2.1931193, "tags": {"amenity": "restaurant", "name": "Cala Joana"}}, {"type": "node", "id": 8064873986, "lat": 41.3974759, "lon": 2.1931865, "tags": {"amenity": "restaurant", "name": "Xenia"}}, {"type": "node", "id": 8064873987, "lat": 41.3993018, "lon": 2.1920928, "tags": {"amenity": "cafe", "name": "Oasis"}}, {"type": "node", "id": 8064874185, "lat": 41.396382, "lon": 2.1935012, "tags": {"amenity": "cafe", "name": "El primer caf\u00e9"}}, {"type": "node", "id": 9023362418, "lat": 41.3955052, "lon": 2.1923565, "tags": {"amenity": "fast_food", "cuisine": "kebab", "name": "J\u00e9rusalem", "name:ca": "Jerusalem", "name:en": "Jerusalem"}}, {"type": "node", "id": 9124922432, "lat": 41.3968342, "lon": 2.1888871, "tags": {"addr:housenumber": "96", "addr:street": "Carrer de Zamora", "amenity": "cafe", "cuisine": "coffee_shop", "name": "Caf\u00e9 de Finca", "opening_hours:covid19": "open", "outdoor_seating": "no"}}, {"type": "node", "id": 9376342919, "lat": 41.3966728, "lon": 2.1919552, "tags": {"addr:housenumber": "122", "addr:postcode": "08018", "addr:street": "Carrer de Pallars", "air_conditioning": "no", "amenity": "bar", "email": "hijoscain@hotmail.com", "indoor_seating": "yes", "name": "Hijos de cain Bar", "opening_hours": "Fr-Sa 22:30-03:00", "operator": "PH Fr,Sa 23:00-03:00", "outdoor_seating": "no", "payment:credit_cards": "yes", "payment:debit_cards": "yes", "smoking": "no", "website": "http://www.hijosdecain.es/", "wheelchair": "no"}}, {"type": "node", "id": 9376343220, "lat": 41.3963512, "lon": 2.1922632, "tags": {"addr:housenumber": "61", "addr:postcode": "08018", "addr:street": "Carrer de Pere IV", "amenity": "bar", "contact:facebook": "airbarpoblenou", "email": "airbarpoblenou@hotmail.com", "name:en": "Airbar"}}, {"type": "node", "id": 9376372117, "lat": 41.3967903, "lon": 2.1921194, "tags": {"addr:housenumber": "122", "addr:postcode": "08018", "addr:street": "Carrer de Pallars", "air_conditioning": "no", "amenity": "bar", "contact:facebook": "D9bar", "contact:instagram": "d9poblenou", "email": "ramon@denou.bar", "indoor_seating": "yes", "name": "D9", "opening_hours": "Mo-Su 18:00-01:00", "outdoor_seating": "yes", "payment:credit_cards": "yes", "payment:debit_cards": "yes", "phone": "+34 933 099 202;+34 687 955 816", "smoking": "outside", "website": "https://denou.bar/", "wheelchair": "no"}}, {"type": "node", "id": 9377066517, "lat": 41.3983197, "lon": 2.1942274, "tags": {"addr:housenumber": "100", "addr:postcode": "08006", "addr:street": "Carrer de Pere IV", "amenity": "restaurant", "name": "El rey del kebab", "opening_hours": "Mo-Fr 11:30-23:00; Sa-Su 14:00-23:00"}}, {"type": "node", "id": 9590876717, "lat": 41.3930591, "lon": 2.1899199, "tags": {"addr:postcode": "08005", "air_conditioning": "yes", "amenity": "bar", "name": "Ve De Gust", "name:ca": "Ve de Gust", "opening_hours": "Sa 09:00-00:30; Mo, We-Th 08:00-23:00; Fr 08:00-00:30; Su 09:00-23:00; Tu 08:00-16:00", "phone": "+34 936 27 23 27", "smoking": "outside", "website": "https://h5.clewm.net/?url=qr61.cn%2Fo1Ua8r%2FqI3ey4g&hasredirect=1", "wheelchair": "limited"}}, {"type": "way", "id": 655182341, "nodes": [6138906835, 6138906836, 5522265621, 6138906566, 6138906896, 6138906883, 6138906835], "tags": {"amenity": "bar", "building": "industrial", "building:levels": "2", "name": "Comtu bar"}}, {"type": "way", "id": 655221168, "nodes": [6139197977, 6139197978, 2292687549, 6139198749, 6139197909, 6139197910, 6139197953, 6139197911, 6139198732, 6139197981, 6139198736, 6139197908, 6139197977], "tags": {"amenity": "bar", "building": "industrial", "building:levels": "2", "building:levels:underground": "1", "name": "L'ovella negra Marina"}}]}