{"version": 0.6, "generator": "Overpass API 0.7.58.5 b0c4acbb", "osm3s": {"timestamp_osm_base": "2022-09-04T18:43:47Z", "copyright": "The data included in this document is from www.openstreetmap.org. The data is made available under ODbL."}, "elements": [{"type": "node", "id": 506202703, "lat": 41.3962323, "lon": 2.1890864, "tags": {"addr:street": "Carrer dels Almog\u00e0vers", "amenity": "cafe", "cuisine": "regional", "internet_access": "yes", "internet_access:fee": "no", "name": "Bar Almog\u00e1vares", "opening_hours": "Mo-Fr 07:00-17:00", "opening_hours:covid19": "open", "outdoor_seating": "yes"}}, {"type": "node", "id": 1658424921, "lat": 41.3972738, "lon": 2.1884132, "tags": {"amenity": "fast_food", "name": "Forastera"}}, {"type": "node", "id": 1658425572, "lat": 41.3967185, "lon": 2.1890325, "tags": {"addr:city": "Barcelona", "addr:postcode": "08018", "addr:street": "Carrer de Zamora", "amenity": "cafe", "cuisine": "regional", "internet_access": "yes", "internet_access:fee": "no", "name": "Rebeka", "opening_hours": "Mo-Fr 08:00-17:00", "opening_hours:covid19": "open", "outdoor_seating": "yes"}}, {"type": "node", "id": 2158865607, "lat": 41.399043, "lon": 2.1884309, "tags": {"addr:housenumber": "22", "addr:street": "Carrer de T\u00e0nger", "amenity": "cafe", "contact:phone": "+34 933 09 33 75", "contact:website": "http://www.carrotcafe.es/", "name": "Carrot Caf\u00e9", "name:ca": "Carrot caf\u00e9", "name:en": "Carrot caf\u00e9", "name:es": "Carrot caf\u00e9"}}, {"type": "node", "id": 4289682653, "lat": 41.3978888, "lon": 2.189968, "tags": {"addr:city": "Barcelona", "addr:housenumber": "96", "addr:postcode": "08018", "addr:street": "Carrer de Pamplona", "amenity": "pub", "name": "Sonora Sport Tavern"}}, {"type": "node", "id": 5363506797, "lat": 41.4022944, "lon": 2.1881778, "tags": {"amenity": "cafe"}}, {"type": "node", "id": 5380241103, "lat": 41.4004924, "lon": 2.1903645, "tags": {"amenity": "restaurant", "name": "Diamantico"}}, {"type": "node", "id": 5380241629, "lat": 41.4004229, "lon": 2.1906076, "tags": {"amenity": "restaurant", "name": "el Jard\u00ed"}}, {"type": "node", "id": 6330262252, "lat": 41.4014849, "lon": 2.1895987, "tags": {"addr:housenumber": "160", "addr:street": "Carrer \u00c1vila", "amenity": "restaurant", "name": "Raco del Poble Nou", "opening_hours": "Mo-Su 07:00-22:00"}}, {"type": "node", "id": 6532230691, "lat": 41.3991988, "lon": 2.1885302, "tags": {"addr:street": "Carrer de T\u00e0nger", "amenity": "restaurant", "name": "L'Estoneta"}}, {"type": "node", "id": 6532239885, "lat": 41.4001402, "lon": 2.1897924, "tags": {"addr:housenumber": "44", "addr:postcode": "08018", "addr:street": "Carrer de T\u00e0nger", "amenity": "restaurant", "entrance": "yes", "name": "Casa Mar\u00eda"}}, {"type": "node", "id": 6532239886, "lat": 41.4003823, "lon": 2.1901179, "tags": {"addr:housenumber": "50", "addr:street": "Carrer de T\u00e0nger", "amenity": "restaurant", "name": "T\u00e1nger"}}, {"type": "node", "id": 6532239887, "lat": 41.4003684, "lon": 2.1901005, "tags": {"addr:housenumber": "50", "addr:postcode": "08018", "addr:street": "Carrer de T\u00e0nger", "entrance": "yes", "name": "David", "shop": "convenience"}}, {"type": "node", "id": 6552263885, "lat": 41.4021166, "lon": 2.1898084, "tags": {"addr:housenumber": "31", "addr:street": "Carrer de Bol\u00edvia", "amenity": "restaurant", "cuisine": "local", "internet_access": "wlan", "name": "Mare Meva", "opening_hours": "Mo-Fr 07:30-17:00"}}, {"type": "node", "id": 6563307386, "lat": 41.4016002, "lon": 2.1889242, "tags": {"amenity": "bar", "name": "Eva-2"}}, {"type": "node", "id": 6563312285, "lat": 41.3971005, "lon": 2.187613, "tags": {"addr:housenumber": "7", "addr:street": "Carrer de Sancho de \u00c0vila", "amenity": "restaurant", "cuisine": "local", "name": "Sancho", "opening_hours": "Mo-Fr 07:00-22:00, Sa-Su 08:00-22:00"}}, {"type": "node", "id": 6576044985, "lat": 41.4010063, "lon": 2.1880935, "tags": {"addr:housenumber": "1-3", "addr:street": "Carrer de Bol\u00edvia", "amenity": "restaurant", "cuisine": "arab", "name": "Al Jaima - Els Encants", "name:es": "Al-Jaima - Els Encants", "opening_hours": "Mo-Sa 07:00-23:00", "phone": "034930178487"}}, {"type": "node", "id": 6576045085, "lat": 41.4010388, "lon": 2.1883527, "tags": {"addr:housenumber": "1", "addr:street": "Carrer de Bol\u00edvia", "name": "Alimentaci\u00f3 Escribano", "opening_hours": "Mo-Sa 07:45-15:00, 17:00-21:00", "shop": "convenience"}}, {"type": "node", "id": 6576045185, "lat": 41.4013195, "lon": 2.1887189, "tags": {"addr:housenumber": "11", "addr:street": "Carrer de Bol\u00edvia", "amenity": "restaurant", "name": "Tovar", "opening_hours": "Mo-Sa 06:00-17:00"}}, {"type": "node", "id": 6588176585, "lat": 41.4013749, "lon": 2.1887841, "tags": {"addr:housenumber": "15,17", "addr:street": "Carrer de Bol\u00edvia", "amenity": "restaurant", "name": "La Fonda", "opening_hours": "Mo-Fr 07:00-20:00"}}, {"type": "node", "id": 6588191385, "lat": 41.4014243, "lon": 2.188848, "tags": {"addr:housenumber": "15,17", "addr:street": "Carrer de Bol\u00edvia", "amenity": "restaurant", "name": "Can Miguel\u00edn", "opening_hours": "Mo-Su 09:00-00:00"}}, {"type": "node", "id": 7995069726, "lat": 41.3965693, "lon": 2.1887208, "tags": {"addr:city": "Barcelona", "addr:street": "Carrer de Zamora", "amenity": "cafe", "cuisine": "regional", "internet_access": "yes", "internet_access:fee": "no", "name": "Eurest  Catalunya S.L.", "opening_hours": "Mo-Su 08:00-21:00", "opening_hours:covid19": "open", "outdoor_seating": "yes"}}, {"type": "node", "id": 8064873987, "lat": 41.3993018, "lon": 2.1920928, "tags": {"amenity": "cafe", "name": "Oasis"}}, {"type": "node", "id": 9124922432, "lat": 41.3968342, "lon": 2.1888871, "tags": {"addr:housenumber": "96", "addr:street": "Carrer de Zamora", "amenity": "cafe", "cuisine": "coffee_shop", "name": "Caf\u00e9 de Finca", "opening_hours:covid19": "open", "outdoor_seating": "no"}}]}