{"version": 0.6, "generator": "Overpass API 0.7.58.5 b0c4acbb", "osm3s": {"timestamp_osm_base": "2022-08-31T18:30:17Z", "copyright": "The data included in this document is from www.openstreetmap.org. The data is made available under ODbL."}, "elements": [{"type": "node", "id": 660100525, "lat": 41.4046529, "lon": 2.1962971, "tags": {"addr:country": "ES", "name": "Marco Aldany", "shop": "hairdresser"}}, {"type": "node", "id": 660778772, "lat": 41.4028034, "lon": 2.1987788, "tags": {"name": "Temptation", "shop": "clothes"}}, {"type": "node", "id": 1154463652, "lat": 41.4052048, "lon": 2.2125855, "tags": {"addr:country": "ES", "shop": "hairdresser"}}, {"type": "node", "id": 1878684088, "lat": 41.3907025, "lon": 2.1980464, "tags": {"shop": "clothes"}}, {"type": "node", "id": 1934456528, "lat": 41.4021586, "lon": 2.2061286, "tags": {"addr:city": "Barcelona", "addr:full": "carrer Ramon Turro, 252", "addr:housenumber": "252", "addr:postcode": "08005", "addr:street": "carrer Ramon Turro", "amenity": "pharmacy", "contact:phone": "+34933092443", "dispensing": "yes", "healthcare": "pharmacy", "name": "Farm\u00e0cia Magriny\u00e0 Rull, Josep i Jordi", "ref": "3621000", "shop": "chemist", "source": "Generalitat de Catalunya", "source:date": "03/11/2020 07:58:18 AM +0000"}}, {"type": "node", "id": 1934456533, "lat": 41.4012401, "lon": 2.2023, "tags": {"addr:city": "Barcelona", "addr:full": "carrer Llull, 187", "addr:housenumber": "187", "addr:postcode": "08005", "addr:street": "carrer Llull", "amenity": "pharmacy", "contact:phone": "+34933001414", "dispensing": "yes", "emergency": "defibrillator", "name": "Farm\u00e0cia Oriol Carreras, Marina", "phone": "+34 93 485 49 92", "ref": "3621320", "shop": "chemist", "source": "Generalitat de Catalunya", "source:date": "03/11/2020 07:58:14 AM +0000"}}, {"type": "node", "id": 1934456740, "lat": 41.4000842, "lon": 2.2027304, "tags": {"addr:city": "Barcelona", "addr:full": "rambla Poblenou, 46", "addr:housenumber": "46", "addr:postcode": "08005", "addr:street": "rambla Poblenou", "amenity": "pharmacy", "contact:phone": "+34933091869", "dispensing": "yes", "healthcare": "pharmacy", "name": "Farm\u00e0cia Prats Genis, M. - Centellas Prats, M.", "ref": "3621492", "shop": "chemist", "source": "Generalitat de Catalunya", "source:date": "03/11/2020 07:58:11 AM +0000", "toilets:wheelchair": "yes", "wheelchair": "yes"}}, {"type": "node", "id": 1934457513, "lat": 41.4047252, "lon": 2.2068807, "tags": {"addr:city": "Barcelona", "addr:full": "carrer Llull, 269", "addr:housenumber": "269", "addr:postcode": "08005", "addr:street": "carrer Llull", "amenity": "pharmacy", "contact:phone": "+34933087204", "dispensing": "yes", "healthcare": "pharmacy", "name": "Farm\u00e0cia Teixid\u00f3 Gonz\u00e1lez, M - Gonz\u00e1lez Roger, N", "ref": "3624277", "shop": "chemist", "source": "Generalitat de Catalunya", "source:date": "03/11/2020 07:58:04 AM +0000"}}, {"type": "node", "id": 1934457525, "lat": 41.4055342, "lon": 2.2019129, "tags": {"addr:city": "Barcelona", "addr:full": "carrer Lope de Vega, 123", "addr:housenumber": "123", "addr:postcode": "08005", "addr:street": "carrer Lope de Vega", "amenity": "pharmacy", "contact:phone": "+34933071583", "dispensing": "yes", "name": "Farm\u00e0cia P\u00e9rez Fleitas, D\u00e0cil", "opening_hours": "Mo-Fr 08:30-20:30; Sa 09:00-14:00", "ref": "3624260", "shop": "chemist", "source": "Generalitat de Catalunya", "source:date": "03/11/2020 07:58:12 AM +0000"}}, {"type": "node", "id": 2085902149, "lat": 41.3916614, "lon": 2.1914361, "tags": {"addr:country": "ES", "shop": "hairdresser"}}, {"type": "node", "id": 2193095353, "lat": 41.4033023, "lon": 2.1979634, "tags": {"addr:country": "ES", "name": "Pel No", "shop": "hairdresser"}}, {"type": "node", "id": 2193095369, "lat": 41.4036886, "lon": 2.1982691, "tags": {"name": "NuAnJu", "shop": "shoes"}}, {"type": "node", "id": 2195903240, "lat": 41.4181845, "lon": 2.1888835, "tags": {"opening_hours:covid19": "off", "shop": "variety_store"}}, {"type": "node", "id": 2918950016, "lat": 41.4035015, "lon": 2.2033088, "tags": {"name": "Raffel Pall\u00e9s", "shop": "hairdresser"}}, {"type": "node", "id": 2919000427, "lat": 41.4036009, "lon": 2.2030413, "tags": {"name": "home i dona", "shop": "clothes"}}, {"type": "node", "id": 3011015936, "lat": 41.4122977, "lon": 2.1933087, "tags": {"addr:city": "Barcelona", "addr:full": "carrer Lope de Vega, 282", "addr:housenumber": "282", "addr:postcode": "08018", "addr:street": "carrer Lope de Vega", "amenity": "pharmacy", "contact:phone": "+34933083958", "dispensing": "yes", "name": "Farm\u00e0cia Plana Mendo, Joan Josep", "ref": "3624093", "shop": "chemist", "source": "Generalitat de Catalunya", "source:date": "03/11/2020 07:58:12 AM +0000", "website": "http://farmaciadelclotdelamel.com/"}}, {"type": "node", "id": 3048078140, "lat": 41.3999652, "lon": 2.2025126, "tags": {"addr:city": "Barcelona", "addr:housenumber": "43", "addr:street": "Rambla del Poblenou", "name": "Villarroya", "second_hand": "no", "shop": "shoes"}}, {"type": "node", "id": 3049368237, "lat": 41.4088068, "lon": 2.1895824, "tags": {"addr:city": "Barcelona", "addr:country": "ES", "addr:housenumber": "29", "addr:postcode": "08018", "addr:street": "Carrer de Rossend Nobas", "brand": "Clarel", "contact:website": "https://www.clarel.es/", "name": "Clarel", "opening_hours": "Mo-Fr 09:00-13:45; Sa 09:15-14:00; Tu-Fr 17:00-20:30; Mo,Sa 17:00-20:00; PH closed", "payment:mastercard": "yes", "payment:visa": "yes", "shop": "chemist"}}, {"type": "node", "id": 3128186120, "lat": 41.4099326, "lon": 2.2158884, "tags": {"brand": "Zara", "brand:wikidata": "Q147662", "brand:wikipedia": "en:Zara (retailer)", "name": "Zara", "shop": "clothes"}}, {"type": "node", "id": 3128186122, "lat": 41.4100027, "lon": 2.2161826, "tags": {"brand": "Mango", "brand:wikidata": "Q136503", "brand:wikipedia": "en:Mango (retailer)", "name": "Mango", "shop": "clothes", "wheelchair": "yes"}}, {"type": "node", "id": 3128186124, "lat": 41.4103354, "lon": 2.2172427, "tags": {"brand": "Hugo Boss", "brand:wikidata": "Q491627", "brand:wikipedia": "en:Hugo Boss", "name": "Hugo Boss", "shop": "clothes", "short_name": "Boss"}}, {"type": "node", "id": 3128186825, "lat": 41.4103109, "lon": 2.2171727, "tags": {"brand": "Lacoste", "brand:wikidata": "Q309031", "brand:wikipedia": "en:Lacoste", "name": "Lacoste", "shop": "clothes"}}, {"type": "node", "id": 3128188111, "lat": 41.4101253, "lon": 2.2164675, "tags": {"brand": "Bershka", "brand:wikidata": "Q827258", "brand:wikipedia": "en:Bershka", "name": "Bershka", "shop": "clothes"}}, {"type": "node", "id": 3128188787, "lat": 41.4102443, "lon": 2.2169438, "tags": {"brand": "Nike", "brand:wikidata": "Q483915", "brand:wikipedia": "en:Nike, Inc.", "name": "Nike", "shop": "clothes"}}, {"type": "node", "id": 3128188788, "lat": 41.410321, "lon": 2.2170461, "tags": {"brand": "Reebok", "brand:wikidata": "Q466183", "brand:wikipedia": "en:Reebok", "name": "Reebok", "shop": "clothes"}}, {"type": "node", "id": 3128189819, "lat": 41.4097715, "lon": 2.2159491, "tags": {"brand": "Desigual", "brand:wikidata": "Q83750", "brand:wikipedia": "en:Desigual", "name": "Desigual", "shop": "clothes"}}, {"type": "node", "id": 3128189934, "lat": 41.4102864, "lon": 2.2175042, "tags": {"brand": "Primark", "brand:wikidata": "Q137023", "brand:wikipedia": "en:Primark", "name": "Primark", "shop": "clothes", "wheelchair": "yes"}}, {"type": "node", "id": 3128190656, "lat": 41.4100797, "lon": 2.2158417, "tags": {"brand": "Stradivarius", "brand:wikidata": "Q3322945", "brand:wikipedia": "en:Stradivarius (clothing brand)", "name": "Stradivarius", "shop": "clothes"}}, {"type": "node", "id": 3128193352, "lat": 41.4099852, "lon": 2.2173781, "tags": {"name": "Druni", "shop": "cosmetics"}}, {"type": "node", "id": 3128198691, "lat": 41.409796, "lon": 2.2157436, "tags": {"brand": "Celio", "brand:wikidata": "Q2672003", "brand:wikipedia": "en:Celio (retailer)", "name": "Celio", "shop": "clothes"}}, {"type": "node", "id": 3128202381, "lat": 41.4099431, "lon": 2.2172614, "tags": {"addr:city": "Barcelona", "addr:housenumber": "3", "addr:postcode": "08019", "addr:street": "Centre Comercial Diagonal Mar", "brand": "H&M", "brand:wikidata": "Q188326", "brand:wikipedia": "en:H&M", "contact:phone": "+34 901 120 084", "contact:website": "www.hm.com", "name": "H&M", "shop": "clothes", "wheelchair": "yes"}}, {"type": "node", "id": 3128202469, "lat": 41.4101708, "lon": 2.2173268, "tags": {"brand": "Levi's", "brand:wikidata": "Q127962", "brand:wikipedia": "en:Levi Strauss & Co.", "clothes": "denim;men;women", "name": "Levi's", "shop": "clothes"}}, {"type": "node", "id": 3128202702, "lat": 41.4099396, "lon": 2.2160752, "tags": {"name": "Inglot", "shop": "cosmetics"}}, {"type": "node", "id": 3128203094, "lat": 41.4097715, "lon": 2.2159491, "tags": {"brand": "Promod", "brand:wikidata": "Q3407429", "brand:wikipedia": "en:Promod", "name": "Promod", "shop": "clothes"}}, {"type": "node", "id": 3128203144, "lat": 41.4098731, "lon": 2.217126, "tags": {"name": "macson", "shop": "clothes"}}, {"type": "node", "id": 3128203744, "lat": 41.4099468, "lon": 2.2166097, "tags": {"brand": "Swarovski", "brand:wikidata": "Q611115", "brand:wikipedia": "en:Swarovski", "name": "Swarovski", "shop": "jewelry"}}, {"type": "node", "id": 3222983996, "lat": 41.4160078, "lon": 2.1957837, "tags": {"addr:city": "Barcelona", "addr:housenumber": "5-7", "addr:postcode": "08020", "addr:street": "Carrer del Doctor Zamenhof", "contact:facebook": "www.facebook.com/estetica.duende.1", "description:es": "Servicios dedicados al cuidado, belleza y bienestar tanto para \u00e9l como para ella.", "name": "Est\u00e9tica Duende", "opening_hours": "Mo 15:00-19:30; Tu-Th 09:30-13:30,15:00-19:30; Fr 09:30-19:30; Sa 09:30-13:30", "phone": "+34 93 498 28 36", "shop": "beauty"}}, {"type": "node", "id": 3551790524, "lat": 41.424385, "lon": 2.203435, "tags": {"name": "Binefar", "shop": "hairdresser"}}, {"type": "node", "id": 3635761666, "lat": 41.4226689, "lon": 2.205184, "tags": {"addr:city": "Barcelona", "addr:country": "ES", "addr:housenumber": "141;143", "addr:postcode": "08020", "addr:street": "Rambla de Guip\u00fascoa", "brand": "Amplifon", "brand:wikidata": "Q477222", "brand:wikipedia": "en:Amplifon", "name": "Amplifon", "phone": "+34 933138865", "shop": "hearing_aids", "website": "http://amplifon.es", "wheelchair": "yes"}}, {"type": "node", "id": 3977369586, "lat": 41.4182962, "lon": 2.199232, "tags": {"name": "Herbolari Montserrat", "shop": "herbalist"}}, {"type": "node", "id": 3980933072, "lat": 41.3958966, "lon": 2.1988551}, {"type": "node", "id": 4109443901, "lat": 41.4138798, "lon": 2.2016957, "tags": {"name": "clarel", "shop": "cosmetics"}}, {"type": "node", "id": 4242059090, "lat": 41.4114685, "lon": 2.1885166, "tags": {"name": "Burberry outlet", "opening_hours": "Mo-Sa 10:00-20:30", "shop": "clothes"}}, {"type": "node", "id": 4254662409, "lat": 41.3941611, "lon": 2.1872169, "tags": {"name": "Marco Aldany", "opening_hours": "Mo-Sa 08:00-22:00", "shop": "hairdresser"}}, {"type": "node", "id": 4306656635, "lat": 41.4157185, "lon": 2.1958556, "tags": {"name": "TDM", "shop": "clothes", "wheelchair": "yes"}}, {"type": "node", "id": 4306656639, "lat": 41.4162576, "lon": 2.196561, "tags": {"name": "Ros", "shop": "clothes", "wheelchair": "yes"}}, {"type": "node", "id": 4306656642, "lat": 41.4165372, "lon": 2.1969795, "tags": {"shop": "shoes", "wheelchair": "no"}}, {"type": "node", "id": 4317838592, "lat": 41.4148595, "lon": 2.1947368, "tags": {"name": "Lares", "shop": "shoes", "wheelchair": "no"}}, {"type": "node", "id": 4317872589, "lat": 41.4158863, "lon": 2.1961194, "tags": {"name": "Alemany", "shop": "clothes"}}, {"type": "node", "id": 4317882889, "lat": 41.4160514, "lon": 2.196313, "tags": {"name": "Murffy", "shop": "clothes"}}, {"type": "node", "id": 4318440845, "lat": 41.4147791, "lon": 2.2009286, "tags": {"addr:city": "Barcelona", "addr:housenumber": "177", "addr:postcode": "08020", "addr:street": "Carrer de la Selva de Mar", "name": "Re-Nuevo", "opening_hours": "Mo-Sa 10:00-14:00, 16:30-20:30", "phone": "+34 932 22 31 34", "shop": "second_hand", "website": "https://renuevo.es/", "wheelchair": "no"}}, {"type": "node", "id": 4318509881, "lat": 41.4156544, "lon": 2.1953189, "tags": {"addr:city": "Barcelona", "addr:housenumber": "241", "addr:postcode": "08020", "addr:street": "Carrer de Fluvi\u00e0", "name": "Bazar Elena", "shop": "variety_store", "wheelchair": "no"}}, {"type": "node", "id": 4334598706, "lat": 41.4082822, "lon": 2.1877505, "tags": {"addr:city": "Barcelona", "addr:housenumber": "4-6", "addr:postcode": "08018", "addr:street": "Carrer de la S\u00e8quia Comtal", "facebook": "https://www.facebook.com/mertxesites", "name": "Mertxesites", "shop": "fabric", "website": "http://mertxesites.com"}}, {"type": "node", "id": 4335096940, "lat": 41.4129948, "lon": 2.1929687, "tags": {"name": "Merceria i G\u00e9neres de Punt", "shop": "tailor", "wheelchair": "limited"}}, {"type": "node", "id": 4339694490, "lat": 41.4212056, "lon": 2.2056811, "tags": {"addr:postcode": "08020", "addr:street": "Rambla de Prim", "name": "Zapater\u00eda Lares", "shop": "shoes"}}, {"type": "node", "id": 4345372688, "lat": 41.4148205, "lon": 2.2042716, "tags": {"addr:city": "Barcelona", "addr:housenumber": "275", "addr:postcode": "08020", "addr:street": "Carrer del Per\u00fa", "name": "Pelopelu", "opening_hours": "Mo-Fr 09:00-19:00; Sa 09:00-14:00", "shop": "hairdresser"}}, {"type": "node", "id": 4361915993, "lat": 41.3993722, "lon": 2.1919911, "tags": {"addr:housenumber": "121", "addr:postcode": "08018", "addr:street": "Carrer de \u00c1vila", "email": "hola@perfumeriassanremo.es", "name": "Perfumerias San Remo", "name:es": "Perfumerias San Remo", "phone": "+34 902102305", "shop": "beauty", "website": "https://www.perfumeriassanremo.es/"}}, {"type": "node", "id": 4434448602, "lat": 41.419633, "lon": 2.2018383, "tags": {"addr:housenumber": "108", "addr:postcode": "08020", "addr:street": "Rambla de Guip\u00fascoa", "name": "Lares", "shop": "shoes", "wheelchair": "no"}}, {"type": "node", "id": 4434448605, "lat": 41.4212949, "lon": 2.2040826, "tags": {"addr:postcode": "08020", "name": "Pamvi", "shop": "shoes"}}, {"type": "node", "id": 4441343689, "lat": 41.4071463, "lon": 2.2110757, "tags": {"shop": "jewelry"}}, {"type": "node", "id": 4510112890, "lat": 41.4210076, "lon": 2.2040538, "tags": {"addr:housenumber": "243", "addr:postcode": "08020", "addr:street": "Carrer del Maresme", "name": "de 0 a 16", "opening_hours": "Mo-Fr 09:30-14:00, 16:30-20:30; Sa 09:45-14:00, 17:00-20:30", "phone": "+34 932 78 07 07", "shop": "clothes", "wheelchair": "yes"}}, {"type": "node", "id": 4782735422, "lat": 41.4154067, "lon": 2.1892796, "tags": {"name": "Olga Herrero", "shop": "hairdresser"}}, {"type": "node", "id": 4782747522, "lat": 41.4151503, "lon": 2.1890522, "tags": {"shop": "hairdresser"}}, {"type": "node", "id": 4824440825, "lat": 41.4194302, "lon": 2.1964736, "tags": {"shop": "hairdresser"}}, {"type": "node", "id": 4878112294, "lat": 41.4078713, "lon": 2.1890912, "tags": {"name": "Maria Casas", "shop": "herbalist"}}, {"type": "node", "id": 4902157760, "lat": 41.4175953, "lon": 2.1999047, "tags": {"addr:city": "Barcelona", "addr:country": "ES", "addr:housenumber": "222", "addr:postcode": "08020", "addr:street": "Carrer del Treball", "name": "Perruqueria Portella", "shop": "hairdresser", "unisex": "yes", "wheelchair": "no"}}, {"type": "node", "id": 4911503777, "lat": 41.4158164, "lon": 2.1954954, "tags": {"addr:city": "Barcelona", "addr:postcode": "08020", "addr:street": "Carrer de Fluvi\u00e0", "name": "Perruqueria Quinming", "shop": "hairdresser"}}, {"type": "node", "id": 4912252642, "lat": 41.4148129, "lon": 2.2207259, "tags": {"addr:city": "Sant Adri\u00e0 de Bes\u00f2s", "addr:housenumber": "430", "addr:postcode": "08930", "addr:street": "Carrer de Ramon Llull", "email": "fit@formacioitreball.org", "entrance": "yes", "name": "Fundaci\u00f3 Formaci\u00f3 i Treball", "office": "ngo", "opening_hours": "Mo-Fr 08:00-18:30", "operator": "C\u00e1ritas diocesanas", "phone": "+34 93 303 41 00", "shop": "clothes", "website": "https://www.formacioitreball.org/"}}, {"type": "node", "id": 4917663819, "lat": 41.4191338, "lon": 2.2001654, "tags": {"shop": "hairdresser"}}, {"type": "node", "id": 4924759556, "lat": 41.4171734, "lon": 2.1977986, "tags": {"shop": "jewelry", "wheelchair": "no"}}, {"type": "node", "id": 4924793003, "lat": 41.4164445, "lon": 2.1951491, "tags": {"name": "El Rulo", "shop": "hairdresser"}}, {"type": "node", "id": 4924793004, "lat": 41.4163499, "lon": 2.1974799, "tags": {"shop": "shoes"}}, {"type": "node", "id": 4934525060, "lat": 41.4157477, "lon": 2.1955898, "tags": {"addr:city": "Barcelona", "addr:postcode": "08020", "addr:street": "Carrer de Fluvi\u00e0", "female": "no", "male": "no", "name": "Maica Chito", "shop": "hairdresser", "unisex": "yes"}}, {"type": "node", "id": 4934525062, "lat": 41.4152728, "lon": 2.1970537, "tags": {"second_hand": "no", "shop": "fabric"}}, {"type": "node", "id": 4934539518, "lat": 41.4164498, "lon": 2.1964942, "tags": {"name": "Depiline", "shop": "beauty", "wheelchair": "no"}}, {"type": "node", "id": 4934539520, "lat": 41.4165426, "lon": 2.1956731, "tags": {"addr:city": "Barcelona", "addr:country": "ES", "addr:housenumber": "12-14", "addr:postcode": "08020", "addr:street": "Carrer del Doctor Zamenhof", "name": "M\u00e1quinas de coser Pedro Mart\u00ednez", "opening_hours": "Mo-Fr 17:00-20:00; We 10:00-13:00,17:00-20:00", "phone": "+34 933 08 04 45", "shop": "sewing"}}, {"type": "node", "id": 4934539721, "lat": 41.4161977, "lon": 2.1965029, "tags": {"name": "Arrenjaments Briden", "shop": "tailor", "wheelchair": "no"}}, {"type": "node", "id": 4935124771, "lat": 41.4185769, "lon": 2.198064, "tags": {"female": "yes", "shop": "hairdresser"}}, {"type": "node", "id": 4942732022, "lat": 41.4098359, "lon": 2.1938779, "tags": {"name": "La poesie", "shop": "hairdresser"}}, {"type": "node", "id": 5204458677, "lat": 41.409135, "lon": 2.2021707, "tags": {"name": "Norai Kids", "shop": "baby_goods"}}, {"type": "node", "id": 5509179868, "lat": 41.4018608, "lon": 2.2021637, "tags": {"name": "Montserrat", "shop": "fabric"}}, {"type": "node", "id": 5546040721, "lat": 41.4044304, "lon": 2.1988126, "tags": {"name": "Poblet. La Africana", "opening_hours": "Mo-Fr 09:00-13:30,16:00-20:00", "shop": "clothes"}}, {"type": "node", "id": 5820816654, "lat": 41.4283442, "lon": 2.190497, "tags": {"name": "LaMiniPelu", "shop": "hairdresser"}}, {"type": "node", "id": 5918197285, "lat": 41.4275093, "lon": 2.2246519, "tags": {"name": "Miss Nails", "shop": "beauty"}}, {"type": "node", "id": 6035750933, "lat": 41.4081797, "lon": 2.1891774, "tags": {"addr:city": "Barcelona", "addr:country": "ES", "addr:housenumber": "8", "addr:postcode": "08018", "addr:street": "Carrer de Rossend Nobas", "contact:email": "inksomniotattoo@gmail.com", "contact:phone": "+34 930233857;+34 625188024", "contact:website": "https://www.inksomniotattoo.com/", "name": "Inksomnio", "opening_hours": "Mo-Sa 11:00-20:00", "shop": "tattoo"}}, {"type": "node", "id": 6035758305, "lat": 41.4082761, "lon": 2.189036, "tags": {"addr:city": "Barcelona", "addr:country": "ES", "addr:street": "Carrer de Rossend Nobas", "name": "Olyan", "shop": "hairdresser"}}, {"type": "node", "id": 6035759033, "lat": 41.4080821, "lon": 2.1890617, "tags": {"addr:city": "Barcelona", "addr:country": "ES", "addr:street": "Carrer de Rossend Nobas", "name": "Alhambra", "opening_hours": "Mo-Sa 10:00-14:00, 16:30-21:00", "shop": "hairdresser"}}, {"type": "node", "id": 6123887978, "lat": 41.3956302, "lon": 2.1986911}, {"type": "node", "id": 6123887980, "lat": 41.3957037, "lon": 2.1985958}, {"type": "node", "id": 6123887981, "lat": 41.3957918, "lon": 2.1984815}, {"type": "node", "id": 6123887982, "lat": 41.3958449, "lon": 2.1984127}, {"type": "node", "id": 6123887983, "lat": 41.3958791, "lon": 2.1983684}, {"type": "node", "id": 6123887984, "lat": 41.3959246, "lon": 2.1984291}, {"type": "node", "id": 6123889585, "lat": 41.3959922, "lon": 2.1985193}, {"type": "node", "id": 6123889586, "lat": 41.3960716, "lon": 2.1986252}, {"type": "node", "id": 6123979874, "lat": 41.3959927, "lon": 2.1987289, "tags": {"addr:city": "Barcelona", "addr:housenumber": "31-33", "addr:postcode": "08005", "addr:street": "Carrer de Badajoz", "entrance": "yes"}}, {"type": "node", "id": 6123979876, "lat": 41.3958757, "lon": 2.1983728}, {"type": "node", "id": 6123979877, "lat": 41.3957547, "lon": 2.1985297}, {"type": "node", "id": 6123979878, "lat": 41.3958579, "lon": 2.1983958}, {"type": "node", "id": 6123980342, "lat": 41.3957083, "lon": 2.1988266}, {"type": "node", "id": 6123980352, "lat": 41.3958125, "lon": 2.1989657}, {"type": "node", "id": 6123980353, "lat": 41.3958667, "lon": 2.1985043}, {"type": "node", "id": 6123980361, "lat": 41.3958234, "lon": 2.1985242}, {"type": "node", "id": 6123980365, "lat": 41.3958937, "lon": 2.1984692}, {"type": "node", "id": 6123980380, "lat": 41.3958526, "lon": 2.198485}, {"type": "node", "id": 6123980395, "lat": 41.3956181, "lon": 2.1987068}, {"type": "node", "id": 6123980414, "lat": 41.3958389, "lon": 2.1989311, "tags": {"addr:housenumber": "29", "addr:postcode": "08005", "addr:street": "Carrer de Badajoz", "entrance": "yes"}}, {"type": "node", "id": 6123980447, "lat": 41.3958677, "lon": 2.1984713}, {"type": "node", "id": 6123980451, "lat": 41.3958517, "lon": 2.198449}, {"type": "node", "id": 6138972128, "lat": 41.3986272, "lon": 2.1930161}, {"type": "node", "id": 6138972135, "lat": 41.398322, "lon": 2.1926353}, {"type": "node", "id": 6138972165, "lat": 41.3983289, "lon": 2.1926184}, {"type": "node", "id": 6138972171, "lat": 41.3983401, "lon": 2.1926333}, {"type": "node", "id": 6138972295, "lat": 41.3985806, "lon": 2.1930773, "tags": {"addr:city": "Barcelona", "addr:housenumber": "105", "addr:postcode": "08018", "addr:street": "Carrer \u00c1vila", "entrance": "yes"}}, {"type": "node", "id": 6138972301, "lat": 41.3984522, "lon": 2.192783}, {"type": "node", "id": 6138972303, "lat": 41.3983059, "lon": 2.1926749}, {"type": "node", "id": 6138972324, "lat": 41.3982758, "lon": 2.192749}, {"type": "node", "id": 6138972356, "lat": 41.3985503, "lon": 2.1931171}, {"type": "node", "id": 6139483599, "lat": 41.392949, "lon": 2.1872993, "tags": {"addr:housenumber": "100", "addr:postcode": "08018", "addr:street": "Carrer de Sardenya", "entrance": "yes", "name:en": "Mahalo vintage", "shop": "clothes"}}, {"type": "node", "id": 6157628942, "lat": 41.4087979, "lon": 2.1886997, "tags": {"name": "Basar Xines", "shop": "variety_store"}}, {"type": "node", "id": 6157629898, "lat": 41.4079727, "lon": 2.1887483, "tags": {"name": "Llabot Perruquers", "shop": "hairdresser", "wheelchair": "no"}}, {"type": "node", "id": 6164139387, "lat": 41.405663, "lon": 2.1910001, "tags": {"addr:city": "Barcelona", "addr:country": "ES", "addr:housenumber": "208", "addr:postcode": "08018", "addr:street": "Avinguda Diagonal", "branch": "Centro Comercial Glories", "contact:phone": "+34 687611817", "name": "Sephora", "opening_hours": "Mo-Sa 09:00-21:00", "shop": "cosmetics", "survey:date": "2022-01-19"}}, {"type": "node", "id": 6167240128, "lat": 41.4080887, "lon": 2.1882085, "tags": {"addr:city": "Barcelona", "addr:country": "ES", "addr:housenumber": "59", "addr:postcode": "08018", "addr:street": "Carrer del Clot", "contact:email": "info@gruppaloma.com", "contact:phone": "+34 932465723", "contact:website": "http://palomaprimerainfancia.com/", "name": "Paloma", "payment:mastercard": "yes", "payment:visa": "yes", "shop": "baby_goods"}}, {"type": "node", "id": 6249960803, "lat": 41.4193009, "lon": 2.2022589, "tags": {"shop": "hairdresser"}}, {"type": "node", "id": 6296657085, "lat": 41.4080636, "lon": 2.1888372, "tags": {"addr:city": "Barcelona", "addr:housenumber": "3", "addr:postcode": "08018", "addr:street": "Carrer de Rossend Nobas", "name": "Gota Natural", "phone": "+34 931155059", "shop": "chemist"}}, {"type": "node", "id": 6321622311, "lat": 41.4000503, "lon": 2.2056537, "tags": {"addr:housenumber": "20", "addr:street": "Carrer de l'Amistat", "facebook": "https://www.facebook.com/Salon94estilistas-289036888488115/", "fax": "+34 627140523", "name": "Salon 94", "phone": "+34 933826560", "shop": "hairdresser", "unisex": "yes", "website": "https://www.peluqueriasalon94.com"}}, {"type": "node", "id": 6501527867, "lat": 41.4050046, "lon": 2.1908037, "tags": {"name": "Kiehl's", "shop": "cosmetics", "survey:date": "2022-01-19"}}, {"type": "node", "id": 6501527978, "lat": 41.4051338, "lon": 2.1905857, "tags": {"name": "H&M", "shop": "clothes"}}, {"type": "node", "id": 6533606785, "lat": 41.4027036, "lon": 2.2008396, "tags": {"addr:street": "Carrer de Mari\u00e0 Aguil\u00f3", "name": "Cram", "shop": "hairdresser"}}, {"type": "node", "id": 6588176185, "lat": 41.40478, "lon": 2.1900261, "tags": {"name": "C&A", "opening_hours": "Mo-Sa 09:00-21:00", "shop": "clothes"}}, {"type": "node", "id": 6633088634, "lat": 41.4241359, "lon": 2.1871777, "tags": {"addr:housenumber": "314", "addr:postcode": "08027", "addr:street": "Avinguda Meridiana", "name": "Humana", "phone": "+34933407135", "second_hand": "only", "shop": "clothes"}}, {"type": "node", "id": 7001050985, "lat": 41.4020834, "lon": 2.2018175, "tags": {"shop": "herbalist"}}, {"type": "node", "id": 7107839712, "lat": 41.4079724, "lon": 2.1881843, "tags": {"name": "La Balear", "shop": "chemist"}}, {"type": "node", "id": 7107839715, "lat": 41.4080981, "lon": 2.1879309, "tags": {"name": "Mora Hogar", "shop": "clothes", "wheelchair": "limited"}}, {"type": "node", "id": 7525422985, "lat": 41.4173916, "lon": 2.1861542, "tags": {"name": "Vicen\u00e7 i Luna", "shop": "hairdresser"}}, {"type": "node", "id": 7525556485, "lat": 41.4157873, "lon": 2.1905204, "tags": {"name": "Beig\u00e9", "shop": "hairdresser"}}, {"type": "node", "id": 7525556486, "lat": 41.4115058, "lon": 2.1898132, "tags": {"name": "Alternative", "shop": "hairdresser"}}, {"type": "node", "id": 7555814340, "lat": 41.4069286, "lon": 2.1932817, "tags": {"name": "Euro100 Sant Mart\u00ed", "shop": "variety_store"}}, {"type": "node", "id": 7556637990, "lat": 41.403021, "lon": 2.1984405, "tags": {"name": "Aloha", "shop": "beauty"}}, {"type": "node", "id": 7556637997, "lat": 41.4021744, "lon": 2.1996215, "tags": {"name": "Calcedonia", "shop": "clothes"}}, {"type": "node", "id": 7556637998, "lat": 41.4018692, "lon": 2.200001, "tags": {"name": "Quetglas", "shop": "shoes"}}, {"type": "node", "id": 7556637999, "lat": 41.4017848, "lon": 2.2001119, "tags": {"name": "Xagr\u00ed", "shop": "shoes"}}, {"type": "node", "id": 7556638091, "lat": 41.4020851, "lon": 2.1997333, "tags": {"name": "G&K", "shop": "beauty"}}, {"type": "node", "id": 7556742388, "lat": 41.4013473, "lon": 2.2006107, "tags": {"name": "Ashley", "shop": "boutique"}}, {"type": "node", "id": 7556742391, "lat": 41.4026637, "lon": 2.19726, "tags": {"name": "Jean Louis David", "shop": "hairdresser"}}, {"type": "node", "id": 7556742486, "lat": 41.4010558, "lon": 2.201068, "tags": {"name": "Festuc", "shop": "clothes"}}, {"type": "node", "id": 7556742587, "lat": 41.401009, "lon": 2.2011313, "tags": {"name": "4uatre", "shop": "clothes"}}, {"type": "node", "id": 7556742588, "lat": 41.4010944, "lon": 2.2010165, "tags": {"name": "Compte", "shop": "hairdresser"}}, {"type": "node", "id": 7556742589, "lat": 41.4011877, "lon": 2.2009146, "tags": {"name": "SecondBest", "shop": "second_hand"}}, {"type": "node", "id": 7557038714, "lat": 41.4037917, "lon": 2.1974117, "tags": {"name": "barberia Carlos Conde", "shop": "hairdresser"}}, {"type": "node", "id": 7559103785, "lat": 41.4072762, "lon": 2.1947953, "tags": {"shop": "hairdresser"}}, {"type": "node", "id": 7559103986, "lat": 41.4074493, "lon": 2.1935732, "tags": {"shop": "hairdresser"}}, {"type": "node", "id": 7559103987, "lat": 41.4074197, "lon": 2.1935329, "tags": {"name": "AcuMedic", "shop": "beauty"}}, {"type": "node", "id": 7559103988, "lat": 41.4073289, "lon": 2.1934071, "tags": {"name": "Slawa", "shop": "hairdresser"}}, {"type": "node", "id": 7559166784, "lat": 41.4076412, "lon": 2.1934115, "tags": {"shop": "hairdresser"}}, {"type": "node", "id": 7563843047, "lat": 41.4036779, "lon": 2.1986056, "tags": {"name": "incorpora", "shop": "beauty"}}, {"type": "node", "id": 7563862078, "lat": 41.4021119, "lon": 2.2000947, "tags": {"name": "Dandy Flair", "shop": "clothes"}}, {"type": "node", "id": 7563880551, "lat": 41.4020587, "lon": 2.2001602, "tags": {"name": "Beth . S", "shop": "perfumery"}}, {"type": "node", "id": 7563900754, "lat": 41.401386, "lon": 2.2010207, "tags": {"name": "Tot Natiu", "shop": "clothes"}}, {"type": "node", "id": 7563948533, "lat": 41.4018133, "lon": 2.2006141, "tags": {"name": "Onix", "shop": "clothes"}}, {"type": "node", "id": 7563964119, "lat": 41.4011792, "lon": 2.2012986, "tags": {"name": "Raffel Pages", "shop": "hairdresser"}}, {"type": "node", "id": 7563969029, "lat": 41.4012186, "lon": 2.201246, "tags": {"name": "erre de raso", "shop": "clothes"}}, {"type": "node", "id": 7563973790, "lat": 41.4011422, "lon": 2.2013406, "tags": {"name": "Perfumeria M\u00aa Luz", "shop": "perfumery"}}, {"type": "node", "id": 7563983740, "lat": 41.4010544, "lon": 2.2014563, "tags": {"name": "G & M", "shop": "clothes"}}, {"type": "node", "id": 7615987486, "lat": 41.3994362, "lon": 2.2021261, "tags": {"name": "Onails", "shop": "beauty"}}, {"type": "node", "id": 7616011485, "lat": 41.399701, "lon": 2.2002314, "tags": {"name": "Le Salon", "shop": "hairdresser"}}, {"type": "node", "id": 7778052585, "lat": 41.4052837, "lon": 2.1907956, "tags": {"name": "Hollister", "name:en": "Hollister", "shop": "clothes"}}, {"type": "node", "id": 7968907740, "lat": 41.4098966, "lon": 2.2157761, "tags": {"level": "0", "name": "Kiko", "shop": "beauty"}}, {"type": "node", "id": 7968946803, "lat": 41.4101711, "lon": 2.2170596, "tags": {"level": "0", "name": "Yves Rocher", "shop": "beauty"}}, {"type": "node", "id": 7968946804, "lat": 41.4101505, "lon": 2.2169876, "tags": {"level": "0", "name": "Claire's", "shop": "beauty"}}, {"type": "node", "id": 8034975685, "lat": 41.3962359, "lon": 2.2001097, "tags": {"name": "Il-lusi\u00f3", "shop": "clothes"}}, {"type": "node", "id": 8035019186, "lat": 41.4002413, "lon": 2.1957979, "tags": {"name": "Systemaction outlet", "shop": "clothes"}}, {"type": "node", "id": 8049731590, "lat": 41.4003778, "lon": 2.2046098, "tags": {"name": "Bagoa", "shop": "clothes"}}, {"type": "node", "id": 8049731591, "lat": 41.4005731, "lon": 2.204312, "tags": {"name": "Confeccions La Palma", "shop": "clothes"}}, {"type": "node", "id": 8049731593, "lat": 41.4013026, "lon": 2.203244, "tags": {"name": "Isidro", "shop": "beauty"}}, {"type": "node", "id": 8049731596, "lat": 41.4020206, "lon": 2.2021008, "tags": {"name": "Ginkgo", "shop": "variety_store"}}, {"type": "node", "id": 8049731599, "lat": 41.4027089, "lon": 2.2008062, "tags": {"name": "de peus a terra", "shop": "clothes"}}, {"type": "node", "id": 8049731600, "lat": 41.4030518, "lon": 2.2005678, "tags": {"name": "Din\u00e0mic", "shop": "cosmetics"}}, {"type": "node", "id": 8049731609, "lat": 41.4071197, "lon": 2.1947997, "tags": {"name": "Backstage", "shop": "hairdresser"}}, {"type": "node", "id": 8049731687, "lat": 41.4001669, "lon": 2.204937, "tags": {"name": "Cal\u00e7ats Arnal", "shop": "shoes"}}, {"type": "node", "id": 8049731688, "lat": 41.4005331, "lon": 2.2044049, "tags": {"name": "Centonze", "shop": "cosmetics"}}, {"type": "node", "id": 8049731691, "lat": 41.4015234, "lon": 2.2026523, "tags": {"name": "Euro New", "shop": "variety_store"}}, {"type": "node", "id": 8049731785, "lat": 41.3989346, "lon": 2.2066758, "tags": {"name": "Evelyn", "shop": "beauty"}}, {"type": "node", "id": 8049731788, "lat": 41.4000856, "lon": 2.2050503, "tags": {"name": "El taller", "shop": "jewelry"}}, {"type": "node", "id": 8049731791, "lat": 41.4007321, "lon": 2.2040822, "tags": {"name": "Perruqueria internacional", "shop": "hairdresser"}}, {"type": "node", "id": 8049731796, "lat": 41.4021379, "lon": 2.2019121, "tags": {"name": "X Style", "shop": "hairdresser"}}, {"type": "node", "id": 8049732185, "lat": 41.4003102, "lon": 2.2047082, "tags": {"name": "Bollywood", "shop": "hairdresser"}}, {"type": "node", "id": 8049732290, "lat": 41.4018537, "lon": 2.2023616, "tags": {"name": "Perruqueria Hedri", "shop": "hairdresser"}}, {"type": "node", "id": 8049732294, "lat": 41.4030638, "lon": 2.2001151, "tags": {"name": "M&Y", "shop": "hairdresser"}}, {"type": "node", "id": 8049732295, "lat": 41.4033782, "lon": 2.1997801, "tags": {"name": "A1 tattoo", "shop": "tattoo"}}, {"type": "node", "id": 8062015295, "lat": 41.4021215, "lon": 2.2010701, "tags": {"name": "Nail Art", "shop": "beauty"}}, {"type": "node", "id": 8062015488, "lat": 41.4040476, "lon": 2.2036363, "tags": {"name": "Boutique Juanita", "shop": "clothes"}}, {"type": "node", "id": 8062015489, "lat": 41.4037083, "lon": 2.2035571, "tags": {"name": "Rustic barber", "shop": "hairdresser"}}, {"type": "node", "id": 8062015591, "lat": 41.4028254, "lon": 2.2023889, "tags": {"name": "Basar", "shop": "variety_store"}}, {"type": "node", "id": 8062015592, "lat": 41.4027252, "lon": 2.201881, "tags": {"name": "Viv\u00f3 productes de perruqueria i bellesa", "shop": "hairdresser_supply"}}, {"type": "node", "id": 8062015786, "lat": 41.4038732, "lon": 2.2033856, "tags": {"name": "Abi", "shop": "clothes"}}, {"type": "node", "id": 8062016186, "lat": 41.40442, "lon": 2.2041025, "tags": {"name": "Maloa Moscato", "shop": "hairdresser"}}, {"type": "node", "id": 8062016190, "lat": 41.4029553, "lon": 2.2021719, "tags": {"shop": "hairdresser"}}, {"type": "node", "id": 8062016193, "lat": 41.4021501, "lon": 2.2015515, "tags": {"name": "Beauty depilnails", "shop": "beauty"}}, {"type": "node", "id": 8062016196, "lat": 41.4019682, "lon": 2.201272, "tags": {"name": "Manantial de Salud", "shop": "herbalist"}}, {"type": "node", "id": 8062016197, "lat": 41.4004516, "lon": 2.2016582, "tags": {"name": "Natalie Bob Cut", "shop": "hairdresser"}}, {"type": "node", "id": 8062016200, "lat": 41.3995696, "lon": 2.2000674, "tags": {"addr:housenumber": "155", "addr:postcode": "08005", "addr:street": "Carrer de Llull", "email": "nostrecos@yahoo.es", "healthcare": "alternative", "name": "Nostre Cos - dermoest\u00e8tica, ter\u00e0pies naturals", "phone": "+34 933094646", "shop": "beauty"}}, {"type": "node", "id": 8062016285, "lat": 41.4048376, "lon": 2.204654, "tags": {"name": "Glamour Barcelona", "shop": "beauty"}}, {"type": "node", "id": 8062016286, "lat": 41.4037271, "lon": 2.2035782, "tags": {"name": "Barber club", "shop": "hairdresser"}}, {"type": "node", "id": 8062016690, "lat": 41.4026577, "lon": 2.2017955, "tags": {"name": "Montse", "shop": "hairdresser"}}, {"type": "node", "id": 8077127519, "lat": 41.400946, "lon": 2.2035729, "tags": {"name": "Hanau", "shop": "clothes"}}, {"type": "node", "id": 8077127520, "lat": 41.4010823, "lon": 2.2033686, "tags": {"name": "Never I Can't", "shop": "clothes"}}, {"type": "node", "id": 8077127719, "lat": 41.4003359, "lon": 2.2045165, "tags": {"name": "Amapola cosmetica org\u00e1nica", "shop": "cosmetics"}}, {"type": "node", "id": 8077127720, "lat": 41.4009873, "lon": 2.2035107, "tags": {"shop": "hairdresser"}}, {"type": "node", "id": 8077127917, "lat": 41.4001688, "lon": 2.2047599, "tags": {"name": "Clarel", "shop": "chemist"}}, {"type": "node", "id": 8077127919, "lat": 41.4003624, "lon": 2.2044707, "tags": {"name": "Tresors", "shop": "clothes"}}, {"type": "node", "id": 8077127922, "lat": 41.4011166, "lon": 2.2033186, "tags": {"name": "Cotilleria Mari", "shop": "clothes"}}, {"type": "node", "id": 8090404618, "lat": 41.4062367, "lon": 2.1902063, "tags": {"name": "Moda Amiga. Fundaci\u00f2 Engrunes", "shop": "charity"}}, {"type": "node", "id": 8489754260, "lat": 41.404883, "lon": 2.1902253, "tags": {"name": "Primor", "shop": "clothes", "survey:date": "2022-01-19"}}, {"type": "node", "id": 8489754261, "lat": 41.4048848, "lon": 2.190645, "tags": {"name": "Pandora", "shop": "jewelry"}}, {"type": "node", "id": 8489754262, "lat": 41.4045882, "lon": 2.1903262, "tags": {"name": "Massimo Dutti", "shop": "clothes"}}, {"type": "node", "id": 8489754263, "lat": 41.40499, "lon": 2.1912247, "tags": {"name": "Uniqlo", "shop": "clothes", "survey:date": "2022-01-19"}}, {"type": "node", "id": 8489792523, "lat": 41.4047703, "lon": 2.1904961, "tags": {"brand": "Zara", "brand:wikidata": "Q147662", "brand:wikipedia": "en:Zara (retailer)", "name": "Zara", "shop": "clothes"}}, {"type": "node", "id": 8489792524, "lat": 41.4049742, "lon": 2.1903403, "tags": {"brand": "Oysho", "brand:wikidata": "Q3327046", "brand:wikipedia": "en:Oysho", "name": "Oysho", "shop": "clothes", "survey:date": "2022-01-19"}}, {"type": "node", "id": 9003468046, "lat": 41.413953, "lon": 2.1888988, "tags": {"name": "Wild Spirit Tattoo", "shop": "tattoo", "website": "http://www.tattoobcn.com/"}}, {"type": "node", "id": 9019772376, "lat": 41.4106218, "lon": 2.2173608, "tags": {"level": "0", "name": "Paco Mart\u00ednez", "shop": "bag"}}, {"type": "node", "id": 9019783217, "lat": 41.4103078, "lon": 2.2175416, "tags": {"level": "0", "name": "Tascon", "shop": "shoes"}}, {"type": "node", "id": 9019918349, "lat": 41.4102628, "lon": 2.2173918, "tags": {"brand": "Sephora", "brand:wikidata": "Q2408041", "brand:wikipedia": "en:Sephora", "level": "2", "name": "Sephora", "shop": "cosmetics"}}, {"type": "node", "id": 9019920985, "lat": 41.4102633, "lon": 2.2179635, "tags": {"brand": "Primark", "brand:wikidata": "Q137023", "brand:wikipedia": "en:Primark", "level": "2", "name": "Primark", "shop": "clothes"}}, {"type": "node", "id": 9020095576, "lat": 41.4103607, "lon": 2.2179113, "tags": {"level": "0", "name": "Hedonai", "shop": "beauty"}}, {"type": "node", "id": 9020095578, "lat": 41.4102087, "lon": 2.2179355, "tags": {"level": "0", "name": "My Hair", "shop": "hairdresser"}}, {"type": "node", "id": 9431243718, "lat": 41.4051129, "lon": 2.1909634, "tags": {"brand": "L'Occitane", "brand:wikidata": "Q1880676", "brand:wikipedia": "en:L'Occitane en Provence", "name": "L'Occitane", "shop": "cosmetics", "survey:date": "2022-01-19"}}, {"type": "node", "id": 9431243719, "lat": 41.4050659, "lon": 2.1911432, "tags": {"name": "Nyx", "shop": "beauty", "survey:date": "2022-01-19"}}, {"type": "node", "id": 9431243720, "lat": 41.4051665, "lon": 2.1907309, "tags": {"level": "-1", "name": "Sfera", "shop": "clothes", "survey:date": "2022-01-19"}}, {"type": "node", "id": 9431243721, "lat": 41.4050609, "lon": 2.1905941, "tags": {"level": "-1", "name": "Scalpers", "shop": "clothes", "survey:date": "2022-01-19"}}, {"type": "node", "id": 9431243722, "lat": 41.4045861, "lon": 2.1904229, "tags": {"level": "-1", "name": "u-casas", "shop": "shoes", "survey:date": "2022-01-19"}}, {"type": "node", "id": 9431243723, "lat": 41.4052249, "lon": 2.1910089, "tags": {"level": "-1", "name": "Rituals...", "shop": "cosmetics", "survey:date": "2022-01-19"}}, {"type": "node", "id": 9431243818, "lat": 41.40506, "lon": 2.1908903, "tags": {"brand": "Bimba y Lola", "brand:wikidata": "Q54869493", "brand:wikipedia": "es:Bimba y Lola", "name": "Bimba y Lola", "shop": "clothes", "survey:date": "2022-01-19"}}, {"type": "node", "id": 9431243819, "lat": 41.405372, "lon": 2.1907099, "tags": {"name": "Tous", "shop": "bag", "survey:date": "2022-01-19"}}, {"type": "node", "id": 9431243820, "lat": 41.4052543, "lon": 2.1908356, "tags": {"brand": "Pull & Bear", "brand:wikidata": "Q691029", "brand:wikipedia": "en:Pull&Bear", "level": "-1", "name": "Pull & Bear", "shop": "clothes", "survey:date": "2022-01-19"}}, {"type": "node", "id": 9431243822, "lat": 41.4048712, "lon": 2.1900556, "tags": {"brand": "Jack & Jones", "brand:wikidata": "Q6077665", "brand:wikipedia": "en:Jack & Jones", "level": "-1", "name": "Jack & Jones", "shop": "clothes", "survey:date": "2022-01-19"}}, {"type": "node", "id": 9431243823, "lat": 41.4048482, "lon": 2.1904892, "tags": {"clothes": "underwear", "level": "-1", "name": "Women'secret", "shop": "clothes", "survey:date": "2022-01-19"}}, {"type": "node", "id": 9431243825, "lat": 41.4050659, "lon": 2.1907954, "tags": {"brand": "Celio", "brand:wikidata": "Q2672003", "brand:wikipedia": "en:Celio (retailer)", "level": "-1", "name": "Celio", "shop": "clothes", "survey:date": "2022-01-19"}}, {"type": "node", "id": 9431243917, "lat": 41.4051214, "lon": 2.1910556, "tags": {"name": "Munich", "shop": "shoes", "survey:date": "2022-01-19"}}, {"type": "node", "id": 9431243918, "lat": 41.4051255, "lon": 2.1908753, "tags": {"clothes": "underwear", "level": "-1", "name": "intimissi uomo", "shop": "clothes", "survey:date": "2022-01-19"}}, {"type": "node", "id": 9431243919, "lat": 41.4051727, "lon": 2.1909422, "tags": {"clothes": "underwear", "level": "-1", "name": "intimissi italian lingerie", "shop": "clothes", "survey:date": "2022-01-19"}}, {"type": "node", "id": 9431244118, "lat": 41.4049413, "lon": 2.1904467, "tags": {"level": "-1", "name": "JD", "shop": "clothes", "survey:date": "2022-01-19"}}, {"type": "node", "id": 9431244317, "lat": 41.4049061, "lon": 2.1901654, "tags": {"level": "-1", "name": "lefties", "shop": "clothes", "survey:date": "2022-01-19"}}, {"type": "node", "id": 9431244318, "lat": 41.4046463, "lon": 2.1904869, "tags": {"level": "-1", "name": "Cortefiel", "shop": "clothes", "survey:date": "2022-01-19"}}, {"type": "node", "id": 9431244319, "lat": 41.404933, "lon": 2.1906289, "tags": {"brand": "United Colors of Benetton", "brand:wikidata": "Q817139", "brand:wikipedia": "en:Benetton Group", "level": "-1", "name": "United Colors of Benetton", "shop": "clothes", "short_name": "Benetton", "survey:date": "2022-01-19"}}, {"type": "node", "id": 9748084502, "lat": 41.4097173, "lon": 2.2101689, "tags": {"name": "Maria Dominguez", "shop": "hairdresser"}}, {"type": "node", "id": 9810769219, "lat": 41.3983754, "lon": 2.1983412, "tags": {"name:en": "Blow Hair Salon", "opening_hours": "Mo-Fr 10:00-19:00", "phone": "+34 930268734", "shop": "hairdresser"}}, {"type": "way", "id": 653445579, "nodes": [6123887980, 6123979877, 6123887981, 6123980361, 6123980380, 6123980353, 6123980365, 6123980447, 6123980451, 6123887982, 6123979878, 6123979876, 6123887983, 6123887984, 6123889585, 6123889586, 6123979874, 3980933072, 6123980414, 6123980352, 6123980342, 6123980395, 6123887978, 6123887980], "tags": {"building": "industrial", "building:levels": "2", "building:use": "retail", "clothes": "fashion", "name": "SystemAction Outlet", "shop": "clothes"}}, {"type": "way", "id": 655191292, "nodes": [6138972171, 6138972301, 6138972128, 6138972295, 6138972356, 6138972324, 6138972303, 6138972135, 6138972165, 6138972171], "tags": {"building": "industrial", "building:levels": "1", "name": "Outlet Leather Factory", "note": "The best leather factory-shop in Spain! Thousands of leather jackets for men and women. Real factory prices.", "opening_hours": "Mo-Sa 10:00-20:00", "phone": "+34 934855690", "shop": "clothes", "website": "https://www.olf.es/", "wheelchair": "yes"}}]}