{"version": 0.6, "generator": "Overpass API 0.7.58.5 b0c4acbb", "osm3s": {"timestamp_osm_base": "2022-09-05T11:34:24Z", "copyright": "The data included in this document is from www.openstreetmap.org. The data is made available under ODbL."}, "elements": [{"type": "node", "id": 300750923, "lat": 40.4266834, "lon": -3.6895046, "tags": {"amenity": "fast_food", "name": "Delina's"}}, {"type": "node", "id": 300750924, "lat": 40.4269232, "lon": -3.6894651, "tags": {"addr:city": "Madrid", "addr:housenumber": "4", "addr:postcode": "28046", "addr:street": "Paseo de la Castellana", "alt_name": "La Nicoletta", "amenity": "restaurant", "name": "Sinsombrero", "phone": "+34 915 77 52 39", "website": "https://sinsombrero.es/"}}, {"type": "node", "id": 326267125, "lat": 40.4304667, "lon": -3.6834992, "tags": {"amenity": "restaurant", "brand": "Vips", "brand:wikidata": "Q66087862", "cuisine": "international", "name": "Vips"}}, {"type": "node", "id": 327463626, "lat": 40.4252788, "lon": -3.6771112}, {"type": "node", "id": 327463634, "lat": 40.424957, "lon": -3.6763898}, {"type": "node", "id": 327463636, "lat": 40.4249934, "lon": -3.6771353}, {"type": "node", "id": 327475938, "lat": 40.4325697, "lon": -3.6782396, "tags": {"shop": "kiosk"}}, {"type": "node", "id": 327476846, "lat": 40.432857, "lon": -3.6797613, "tags": {"amenity": "fast_food", "brand": "Telepizza", "brand:wikidata": "Q2699863", "brand:wikipedia": "es:Telepizza", "cuisine": "pizza", "name": "Telepizza", "takeaway": "yes"}}, {"type": "node", "id": 327477607, "lat": 40.4327522, "lon": -3.6781495, "tags": {"addr:housenumber": "37", "addr:street": "Calle de Juan Bravo", "amenity": "cafe", "name": "Carb\u00f3n Negro", "opening_hours": "Mo-Th, Su 12:00-02:00; Fr, Sa 12:00-02:30", "phone": "+34 910 88 58 60", "website": "http://carbonnegro.com/"}}, {"type": "node", "id": 327528975, "lat": 40.4344125, "lon": -3.6745991, "tags": {"amenity": "fast_food", "brand": "Burger King", "brand:wikidata": "Q177054", "brand:wikipedia": "es:Burger King", "cuisine": "burger", "name": "Burger King", "takeaway": "yes"}}, {"type": "node", "id": 327529454, "lat": 40.433327, "lon": -3.6751848, "tags": {"brand": "Dia", "brand:wikidata": "Q925132", "brand:wikipedia": "es:DIA (supermercados)", "name": "Dia", "shop": "supermarket"}}, {"type": "node", "id": 327620205, "lat": 40.435783, "lon": -3.6774003, "tags": {"amenity": "pub"}}, {"type": "node", "id": 612921654, "lat": 40.4238303, "lon": -3.6771609, "tags": {"amenity": "cafe"}}, {"type": "node", "id": 993195631, "lat": 40.4363439, "lon": -3.6759793, "tags": {"brand": "Dia", "brand:wikidata": "Q925132", "brand:wikipedia": "es:DIA (supermercados)", "name": "Dia", "shop": "supermarket"}}, {"type": "node", "id": 1305153207, "lat": 40.433948, "lon": -3.6829667, "tags": {"addr:street": "Calle de Maldonado", "brand": "Dia", "brand:wikidata": "Q925132", "brand:wikipedia": "es:DIA (supermercados)", "name": "Dia", "shop": "supermarket"}}, {"type": "node", "id": 1305153209, "lat": 40.4342625, "lon": -3.6795813, "tags": {"addr:street": "Calle del Pr\u00edncipe de Vergara", "brand": "La Sirena", "brand:wikidata": "Q21034458", "brand:wikipedia": "ca:La Sirena", "name": "La Sirena", "shop": "supermarket"}}, {"type": "node", "id": 1305153224, "lat": 40.4341178, "lon": -3.677797, "tags": {"addr:housenumber": "96", "addr:street": "Calle del General Pardi\u00f1as", "brand": "La Plaza de DIA", "brand:wikidata": "Q58904673", "name": "La Plaza de DIA", "opening_hours": "Mo-Sa 09:00-21:30; Su 10:00-14:30", "shop": "supermarket"}}, {"type": "node", "id": 1305153227, "lat": 40.4339035, "lon": -3.6808655, "tags": {"addr:city": "Madrid", "addr:country": "ES", "addr:housenumber": "99", "addr:postcode": "28006", "addr:street": "Calle de Castell\u00f3", "amenity": "restaurant", "contact:email": "castello@cazorlarestaurantes.es", "contact:phone": "+34 915627194", "contact:website": "http://cazorlarestaurantes.es/", "cuisine": "mediterranean", "name": "Cazorla"}}, {"type": "node", "id": 1305153228, "lat": 40.4337924, "lon": -3.6791812, "tags": {"addr:street": "Calle de Maldonado", "name": "24/7", "shop": "convenience"}}, {"type": "node", "id": 1332768549, "lat": 40.4321286, "lon": -3.688157}, {"type": "node", "id": 1332768588, "lat": 40.4316347, "lon": -3.6873979}, {"type": "node", "id": 1332768596, "lat": 40.4316335, "lon": -3.687367}, {"type": "node", "id": 1332768637, "lat": 40.4320715, "lon": -3.6869504}, {"type": "node", "id": 1332768712, "lat": 40.4323246, "lon": -3.6874061}, {"type": "node", "id": 1332768722, "lat": 40.4316468, "lon": -3.6876421}, {"type": "node", "id": 1332768729, "lat": 40.4298645, "lon": -3.6878708}, {"type": "node", "id": 1332768730, "lat": 40.4320868, "lon": -3.6873331}, {"type": "node", "id": 1332768737, "lat": 40.4302865, "lon": -3.6871774}, {"type": "node", "id": 1332768771, "lat": 40.432104, "lon": -3.6875569}, {"type": "node", "id": 1332768815, "lat": 40.4318609, "lon": -3.6873494}, {"type": "node", "id": 1332768847, "lat": 40.4323156, "lon": -3.6872459}, {"type": "node", "id": 1332768872, "lat": 40.4297976, "lon": -3.6872665}, {"type": "node", "id": 1332768958, "lat": 40.4323061, "lon": -3.6870879}, {"type": "node", "id": 1332769024, "lat": 40.4303109, "lon": -3.6877863}, {"type": "node", "id": 1332769155, "lat": 40.4316483, "lon": -3.6876646}, {"type": "node", "id": 1332769186, "lat": 40.432364, "lon": -3.6880582}, {"type": "node", "id": 1332769222, "lat": 40.4322971, "lon": -3.6869305}, {"type": "node", "id": 1332769926, "lat": 40.4277291, "lon": -3.6902887, "tags": {"addr:city": "Madrid", "addr:housenumber": "13", "addr:postcode": "28046", "addr:street": "Paseo de la Castellana", "amenity": "restaurant", "cuisine": "regional", "name": "Sagardi"}}, {"type": "node", "id": 1359795118, "lat": 40.4326811, "lon": -3.6832448, "tags": {"amenity": "cafe", "brand": "Starbucks", "brand:wikidata": "Q37158", "brand:wikipedia": "en:Starbucks", "cuisine": "coffee_shop", "name": "Starbucks", "official_name": "Starbucks Coffee", "takeaway": "yes"}}, {"type": "node", "id": 1359795119, "lat": 40.4347966, "lon": -3.6829695, "tags": {"addr:street": "Calle de Diego de Le\u00f3n", "amenity": "restaurant", "name": "Chikito"}}, {"type": "node", "id": 1359795120, "lat": 40.4363317, "lon": -3.6809043, "tags": {"amenity": "restaurant", "name": "Depintxos"}}, {"type": "node", "id": 1359795121, "lat": 40.4351252, "lon": -3.6835198, "tags": {"addr:street": "Calle de Diego de Le\u00f3n", "amenity": "pub", "name": "B\u00f2 Finn", "payment:bitcoin": "yes"}}, {"type": "node", "id": 1359796754, "lat": 40.4376804, "lon": -3.6866683, "tags": {"amenity": "pub", "name": "Barril y Botella"}}, {"type": "node", "id": 1359796758, "lat": 40.4375703, "lon": -3.6864884, "tags": {"addr:housenumber": "93", "addr:street": "Calle de Serrano", "amenity": "pub", "name": "Sir Rana"}}, {"type": "node", "id": 1361587785, "lat": 40.4365907, "lon": -3.6865757, "tags": {"addr:housenumber": "85", "addr:street": "Calle de Serrano", "amenity": "restaurant", "name": "Tamero", "payment:bitcoin": "yes"}}, {"type": "node", "id": 1361587791, "lat": 40.4371912, "lon": -3.687073, "tags": {"addr:housenumber": "13", "addr:street": "Calle de L\u00f3pez de Hoyos", "amenity": "restaurant", "name": "Blanca Rosa"}}, {"type": "node", "id": 1361587792, "lat": 40.437361, "lon": -3.6865518, "tags": {"addr:housenumber": "17", "addr:street": "Calle de L\u00f3pez de Hoyos", "amenity": "restaurant", "name": "La \u00darsula", "payment:bitcoin": "yes"}}, {"type": "node", "id": 1361587793, "lat": 40.4376132, "lon": -3.6865268, "tags": {"addr:housenumber": "93", "addr:street": "Calle de Serrano", "amenity": "restaurant", "cuisine": "japanese", "name": "Sushiwakka", "website": "http://sushiwakka.com/"}}, {"type": "node", "id": 1361587798, "lat": 40.437087, "lon": -3.6865229, "tags": {"addr:city": "Madrid", "addr:country": "ES", "addr:housenumber": "91", "addr:postcode": "28006", "addr:street": "Calle de Serrano", "alt_name": "Lamucca de Serrano", "amenity": "restaurant", "name": "Lamucca", "old_name": "Mamma Mia", "phone": "(+34) 91 521 00 00 (ext. 4)", "website": "https://www.lamuccacompany.com/lamucca-serrano/"}}, {"type": "node", "id": 1361587800, "lat": 40.437451, "lon": -3.6865027, "tags": {"addr:street": "Calle de Serrano", "amenity": "restaurant", "name": "La Taberna", "payment:bitcoin": "yes"}}, {"type": "node", "id": 1364704729, "lat": 40.4361646, "lon": -3.6848207, "tags": {"addr:street": "Calle del General Or\u00e1a", "amenity": "restaurant", "name": "La Armonia", "payment:bitcoin": "yes"}}, {"type": "node", "id": 1364704730, "lat": 40.4360749, "lon": -3.6862586, "tags": {"addr:housenumber": "118", "addr:postcode": "28006", "addr:street": "Calle de Serrano", "amenity": "restaurant", "contact:phone": "+34 91 562 30 75", "name": "Hevia", "website": "http://www.heviamadrid.com/"}}, {"type": "node", "id": 1364704731, "lat": 40.4347019, "lon": -3.681434, "tags": {"addr:city": "Madrid", "addr:street": "Calle de Diego de Le\u00f3n", "amenity": "bar", "name": "Bar Escalera del 34"}}, {"type": "node", "id": 1364704733, "lat": 40.4361971, "lon": -3.6862478, "tags": {"addr:housenumber": "118", "addr:postcode": "28006", "addr:street": "Calle de Serrano", "amenity": "restaurant", "name": "Mes\u00f3n 5Jotas", "payment:bitcoin": "yes"}}, {"type": "node", "id": 1364704736, "lat": 40.4364074, "lon": -3.6861892, "tags": {"addr:street": "Calle de Serrano", "amenity": "restaurant", "delivery": "yes", "name": "El Kiosko", "old_name": "Ori", "outdoor_seating": "yes", "wheelchair": "no"}}, {"type": "node", "id": 1366075262, "lat": 40.4359258, "lon": -3.6805101, "tags": {"amenity": "bar", "name": "Orgaz"}}, {"type": "node", "id": 1366075265, "lat": 40.4351692, "lon": -3.6849646, "tags": {"addr:street": "Calle de Diego de Le\u00f3n", "amenity": "restaurant", "name": "El S\u00e9ptimo", "payment:bitcoin": "yes"}}, {"type": "node", "id": 1366075269, "lat": 40.4349724, "lon": -3.6805545, "tags": {"addr:city": "Madrid", "addr:country": "ES", "addr:housenumber": "107", "addr:postcode": "28006", "addr:street": "Calle de Castell\u00f3", "amenity": "bar", "contact:phone": "+34 915623106", "name": "Bar Rub\u00ed"}}, {"type": "node", "id": 1366075277, "lat": 40.4352013, "lon": -3.6844928, "tags": {"addr:street": "Calle de Diego de Le\u00f3n", "amenity": "restaurant", "name": "El Asador de Aranda", "payment:bitcoin": "yes"}}, {"type": "node", "id": 1366539657, "lat": 40.437727, "lon": -3.6892063, "tags": {"addr:street": "Maria de Molina", "amenity": "cafe", "name": "Caf\u00e9 Saig\u00f3n"}}, {"type": "node", "id": 1434342133, "lat": 40.4287604, "lon": -3.6874038, "tags": {"addr:housenumber": "45", "addr:street": "Calle de Serrano", "amenity": "restaurant", "name": "El Padre"}}, {"type": "node", "id": 1434351971, "lat": 40.4299709, "lon": -3.6742163, "tags": {"brand": "Supersol", "brand:wikidata": "Q62073427", "name": "Supersol", "shop": "supermarket", "wheelchair": "yes"}}, {"type": "node", "id": 1452728366, "lat": 40.4347162, "lon": -3.6818725, "tags": {"addr:street": "Calle de Diego de Le\u00f3n", "amenity": "fast_food", "brand": "Rodilla", "brand:wikidata": "Q7356777", "brand:wikipedia": "es:Rodilla (franquicia)", "cuisine": "sandwich", "name": "Rodilla", "takeaway": "yes"}}, {"type": "node", "id": 1459328431, "lat": 40.432067, "lon": -3.6718443, "tags": {"amenity": "restaurant", "cuisine": "greek", "name": "Milos", "phone": "+34 91 361 4472", "source": "knowledge", "website": "http://www.restaurantemilos.es/"}}, {"type": "node", "id": 1474195154, "lat": 40.4346614, "lon": -3.6801958, "tags": {"amenity": "restaurant", "name": "Restaurante Nipples", "source": "survey", "source:date": "201110"}}, {"type": "node", "id": 1474197984, "lat": 40.4349285, "lon": -3.6800263, "tags": {"amenity": "restaurant", "cuisine": "italian", "name": "Restaurante La Alpargater\u00eda", "source": "survey", "source:date": "201110"}}, {"type": "node", "id": 1483924474, "lat": 40.4326692, "lon": -3.6872715, "tags": {"addr:city": "Madrid", "addr:housenumber": "63", "addr:postcode": "28006", "addr:street": "Calle de Serrano", "amenity": "bar", "name": "Callej\u00f3n de Serrano", "payment:bitcoin": "yes", "phone": "+34 918310489", "website": "http://www.elcallejondeserrano.com/"}}, {"type": "node", "id": 1605617900, "lat": 40.4369649, "lon": -3.6871252, "tags": {"addr:housenumber": "10", "addr:street": "Calle de L\u00f3pez de Hoyos", "amenity": "restaurant", "cuisine": "steak_house", "name": "La Doma"}}, {"type": "node", "id": 1740022568, "lat": 40.4225777, "lon": -3.681808, "tags": {"addr:city": "Madrid", "addr:country": "ES", "addr:housenumber": "3", "addr:postcode": "28001", "addr:street": "Calle de Castell\u00f3", "amenity": "restaurant", "cuisine": "spanish", "name": "El Chisc\u00f3n"}}, {"type": "node", "id": 1740058741, "lat": 40.4223451, "lon": -3.6816075, "tags": {"amenity": "cafe", "name": "Caf\u00e9 & T\u00e9"}}, {"type": "node", "id": 2262030096, "lat": 40.4254426, "lon": -3.6746794, "tags": {"addr:city": "Madrid", "addr:country": "ES", "addr:housenumber": "155", "addr:postcode": "28009", "addr:street": "Calle de Alcal\u00e1", "amenity": "restaurant", "name": "Museo del Jam\u00f3n", "source": "survey"}}, {"type": "node", "id": 2351203474, "lat": 40.4233051, "lon": -3.6786467, "tags": {"amenity": "restaurant", "brand": "Foster's Hollywood", "brand:wikidata": "Q5864366", "brand:wikipedia": "en:Foster's Hollywood", "cuisine": "american", "name": "Foster's Hollywood", "source": "survey"}}, {"type": "node", "id": 2606329602, "lat": 40.4322128, "lon": -3.6745577, "tags": {"addr:city": "Madrid", "addr:postcode": "28039", "addr:street": "Calle de Berruguete", "amenity": "bar", "name": "Bulevar", "operator": "Magizan Bulevar, SL"}}, {"type": "node", "id": 2606329604, "lat": 40.4325385, "lon": -3.6746592, "tags": {"amenity": "bar", "name": "Nam\u00ed"}}, {"type": "node", "id": 2606329605, "lat": 40.4325362, "lon": -3.6745848, "tags": {"shop": "convenience"}}, {"type": "node", "id": 2606329607, "lat": 40.4329886, "lon": -3.6747868, "tags": {"amenity": "bar", "name": "El Duende"}}, {"type": "node", "id": 2621636923, "lat": 40.4247472, "lon": -3.6781654, "tags": {"amenity": "fast_food", "brand": "Burger King", "brand:wikidata": "Q177054", "brand:wikipedia": "en:Burger King", "cuisine": "burger", "name": "Burger King", "source": "survey", "takeaway": "yes"}}, {"type": "node", "id": 2621636925, "lat": 40.4251923, "lon": -3.6811941, "tags": {"amenity": "bar", "name": "La Casa del Abuelo", "source": "survey"}}, {"type": "node", "id": 2621636938, "lat": 40.4251406, "lon": -3.6795681, "tags": {"amenity": "restaurant", "brand": "Vips", "brand:wikidata": "Q66087862", "brand:wikipedia": "es:Vips", "cuisine": "international", "name": "Vips", "source": "survey"}}, {"type": "node", "id": 2621637171, "lat": 40.4252677, "lon": -3.6768771}, {"type": "node", "id": 2621637180, "lat": 40.4253155, "lon": -3.6768721}, {"type": "node", "id": 2621637181, "lat": 40.4253127, "lon": -3.6768129}, {"type": "node", "id": 2642152849, "lat": 40.4259668, "lon": -3.6743929, "tags": {"addr:city": "Madrid", "addr:country": "ES", "addr:housenumber": "101", "addr:postcode": "28006", "addr:street": "Calle de Hermosilla", "amenity": "bar", "name": "Baretu"}}, {"type": "node", "id": 2642152850, "lat": 40.4259896, "lon": -3.673598, "tags": {"addr:city": "Madrid", "addr:country": "ES", "addr:housenumber": "103", "addr:postcode": "28006", "addr:street": "Calle de Hermosilla", "amenity": "restaurant", "cuisine": "japanese", "microbrewery": "yes", "name": "Howe", "opening_hours": "Mo-Su 12:30-23:59", "website": "http://www.restaurantejaponeshowe.es/"}}, {"type": "node", "id": 2642152851, "lat": 40.4260366, "lon": -3.6747333, "tags": {"addr:city": "Madrid", "addr:country": "ES", "addr:housenumber": "101", "addr:postcode": "28006", "addr:street": "Calle de Hermosilla", "amenity": "restaurant", "cuisine": "chinese", "name": "Joya Oriental", "opening_hours": "12:30-16:30,19:30-02:00", "phone": "+34 915 75 71 54", "website": "https://plus.google.com/102090410391905204573/about?hl=es"}}, {"type": "node", "id": 2642163107, "lat": 40.426074, "lon": -3.6761618, "tags": {"addr:city": "Madrid", "addr:country": "ES", "addr:housenumber": "91", "addr:postcode": "28001", "addr:street": "Calle de Hermosilla", "amenity": "bar", "name": "Casa Picote", "old_name": "Bar Torrijos", "wheelchair": "no"}}, {"type": "node", "id": 2642179983, "lat": 40.4260869, "lon": -3.6764864, "tags": {"addr:city": "Madrid", "addr:country": "ES", "addr:housenumber": "91", "addr:postcode": "28001", "addr:street": "Calle de Hermosilla", "amenity": "fast_food", "contact:facebook": "https://www.facebook.com/EsmirnaBarKebap", "cuisine": "kebab", "name": "Esmirna Kebab", "opening_hours": "Mo-Th 12:00-24:00; Fr-Sa 12:00-01:00; Su 12:00-24:00", "phone": "+34 910149729"}}, {"type": "node", "id": 2642209564, "lat": 40.4261, "lon": -3.6770154, "tags": {"addr:city": "Madrid", "addr:country": "ES", "addr:housenumber": "85", "addr:postcode": "28001", "addr:street": "Calle de Hermosilla", "amenity": "restaurant", "cuisine": "pizza", "name": "Grosso Napoletano", "phone": "+34 910 51 08 61", "website": "https://grossonapoletano.com"}}, {"type": "node", "id": 2642214213, "lat": 40.4259651, "lon": -3.6784422, "tags": {"addr:city": "Madrid", "addr:housenumber": "28", "addr:postcode": "28001", "addr:street": "Calle del General Pardi\u00f1as", "amenity": "restaurant", "cuisine": "regional", "name": "Casa Poli", "website": "https://es.foursquare.com/v/casa-poli-hermosilla/4db9d1530437ffd207948d08"}}, {"type": "node", "id": 2642224160, "lat": 40.4261851, "lon": -3.6793198, "tags": {"addr:city": "Madrid", "addr:country": "ES", "addr:housenumber": "67", "addr:postcode": "28001", "addr:street": "Calle de Hermosilla", "amenity": "restaurant", "contact:facebook": "https://www.facebook.com/pages/CAMORRILLO/62786865812?id=62786865812&sk=info", "cuisine": "regional", "name": "Bar Camorrillo", "opening_hours": "Mo-Sa 09:00-24:00", "phone": "+34 914354579"}}, {"type": "node", "id": 2642224161, "lat": 40.4261557, "lon": -3.6787937, "tags": {"addr:city": "Madrid", "addr:country": "ES", "addr:housenumber": "73", "addr:postcode": "28001", "addr:street": "Calle de Hermosilla", "amenity": "restaurant", "cuisine": "regional", "name": "Tacoos", "old_name": "Lizarran", "website": "https://www.lizarran.es/"}}, {"type": "node", "id": 2642224163, "lat": 40.426184, "lon": -3.6792243, "tags": {"addr:city": "Madrid", "addr:country": "ES", "addr:housenumber": "69", "addr:postcode": "28001", "addr:street": "Calle de Hermosilla", "amenity": "restaurant", "cuisine": "japanese", "name": "Teppanyaki", "old_name": "Taberna de Buenaventura"}}, {"type": "node", "id": 2642274451, "lat": 40.4261049, "lon": -3.68181, "tags": {"addr:city": "Madrid", "addr:country": "ES", "addr:housenumber": "48", "addr:postcode": "28001", "addr:street": "Calle de Hermosilla", "amenity": "restaurant", "name": "Aromas", "old_name": "Balua", "wheelchair": "limited"}}, {"type": "node", "id": 2642274452, "lat": 40.4263865, "lon": -3.683255, "tags": {"addr:city": "Madrid", "addr:country": "ES", "addr:housenumber": "39", "addr:postcode": "28001", "addr:street": "Calle de Hermosilla", "amenity": "restaurant", "contact:facebook": "https://es-la.facebook.com/defilecafe", "email": "defile@defilecafe.com", "name": "D\u00e9FiL\u00e9 Caf\u00e9", "opening_hours": "Mo 09:00-24:00; Tu-Fr 00:00-01:00,09:00-24:00; Sa 00:00-01:00,11:00-24:00; Su 00:00-02:00", "phone": "+34 913 19 80 83"}}, {"type": "node", "id": 2642274453, "lat": 40.4261201, "lon": -3.6820574, "tags": {"addr:city": "Madrid", "addr:country": "ES", "addr:housenumber": "46", "addr:postcode": "28001", "addr:street": "Calle de Hermosilla", "amenity": "restaurant", "cuisine": "regional", "email": "correo@estayrestaurante.com", "name": "Estay", "phone": "+34 915780470", "website": "http://www.estayrestaurante.com/", "wheelchair": "yes"}}, {"type": "node", "id": 2642274454, "lat": 40.4261072, "lon": -3.6815626, "tags": {"addr:city": "Madrid", "addr:housenumber": "39", "addr:postcode": "28001", "addr:street": "Calle de Castell\u00f3", "amenity": "cafe", "brand": "Granier", "brand:wikidata": "Q102311169", "contact:facebook": "https://es-es.facebook.com/Granierhermosilla/info", "email": "granierhermosilla@gmail.com", "name": "Granier", "opening_hours": "Mo-Su 07:00-21:30", "phone": "+34 914 35 24 76", "shop": "bakery", "wheelchair": "yes"}}, {"type": "node", "id": 2642274456, "lat": 40.4264156, "lon": -3.6838196, "tags": {"addr:city": "Madrid", "addr:housenumber": "44", "addr:postcode": "28001", "addr:street": "Calle de Vel\u00e1zquez", "amenity": "pub", "brand": "M\u00e1sQMenos", "brand:wikidata": "Q98504930", "cuisine": "tapas", "name": "Mas Q Menos", "outdoor_seating": "yes", "phone": "+34 91 435 86 56", "website": "https://www.masqmenos.com/"}}, {"type": "node", "id": 2642274457, "lat": 40.4260456, "lon": -3.6807566, "tags": {"addr:city": "Madrid", "addr:country": "ES", "addr:housenumber": "58", "addr:postcode": "28001", "addr:street": "Calle de Hermosilla", "amenity": "cafe", "contact:facebook": "https://es-es.facebook.com/juliettascaffe/", "contact:phone": "+34 910530297", "old_name": "Nata Lovers", "wheelchair": "limited"}}, {"type": "node", "id": 2642274458, "lat": 40.4261465, "lon": -3.682848, "tags": {"addr:city": "Madrid", "addr:country": "ES", "addr:housenumber": "40", "addr:postcode": "28001", "addr:street": "Calle de Hermosilla", "amenity": "cafe", "name": "El Caf\u00e9 de Hermosilla", "wheelchair": "yes"}}, {"type": "node", "id": 2642295708, "lat": 40.4264939, "lon": -3.6853756, "tags": {"addr:city": "Madrid", "addr:housenumber": "23", "addr:postcode": "28001", "addr:street": "Calle de Hermosilla", "amenity": "restaurant", "cuisine": "spanish", "name": "El Pimiento Verde", "phone": "+34 910 741 454", "website": "https://elpimientoverde.com/", "wheelchair": "limited"}}, {"type": "node", "id": 2656183524, "lat": 40.42756, "lon": -3.6872599}, {"type": "node", "id": 2656183525, "lat": 40.427526, "lon": -3.6869341}, {"type": "node", "id": 2656183529, "lat": 40.4275481, "lon": -3.6871314}, {"type": "node", "id": 2656183531, "lat": 40.4275353, "lon": -3.687045}, {"type": "node", "id": 2656183533, "lat": 40.4277975, "lon": -3.6869158}, {"type": "node", "id": 2656183534, "lat": 40.4278117, "lon": -3.6871858}, {"type": "node", "id": 2656183536, "lat": 40.4277836, "lon": -3.6872166}, {"type": "node", "id": 2664763135, "lat": 40.4373416, "lon": -3.6798409, "tags": {"addr:city": "Madrid", "addr:housenumber": "56", "addr:postcode": "28006", "addr:street": "Calle de Mar\u00eda de Molina", "amenity": "restaurant", "name": "Caf\u00e9 & T\u00e9", "website": "https://cafeyteespana.wordpress.com/"}}, {"type": "node", "id": 2664763139, "lat": 40.4373325, "lon": -3.6794401, "tags": {"addr:city": "Madrid", "addr:housenumber": "58", "addr:postcode": "28006", "addr:street": "Calle de Mar\u00eda de Molina", "amenity": "fast_food", "email": "info@crono.tv", "name": "Lunch&Dinner", "phone": "+34 914113760", "website": "http://lunchanddinner.es/tiendas/calle/maria-de-molina/#.UviUM0KwbV0"}}, {"type": "node", "id": 2664763144, "lat": 40.4372486, "lon": -3.6777986, "tags": {"addr:city": "Madrid", "addr:housenumber": "70", "addr:postcode": "28006", "addr:street": "Calle de Mar\u00eda de Molina", "name": "Siguero", "name:es": "Siguero", "phone": "+34 915 623 233", "shop": "alcohol", "website": "http://www.bodegasiguero.com/"}}, {"type": "node", "id": 2664763151, "lat": 40.4374669, "lon": -3.6823303, "tags": {"addr:city": "Madrid", "addr:housenumber": "44", "addr:postcode": "28006", "addr:street": "Calle de Mar\u00eda de Molina", "amenity": "restaurant", "name": "Lemongrass", "old_name": "Sachi Sushi", "phone": "+34 91 164 40 96"}}, {"type": "node", "id": 2664863059, "lat": 40.4375918, "lon": -3.6793841, "tags": {"addr:city": "Madrid", "addr:housenumber": "39", "addr:postcode": "28006", "addr:street": "Calle de Mar\u00eda de Molina", "amenity": "restaurant", "cuisine": "regional", "name": "Espazo Enxebre", "website": "http://espazoenxebre.com/"}}, {"type": "node", "id": 2664863071, "lat": 40.4376823, "lon": -3.6809517, "tags": {"addr:city": "Madrid", "addr:housenumber": "37", "addr:postcode": "28006", "addr:street": "Calle de Mar\u00eda de Molina", "alt_name": "Nassau Madrid; La que se l\u00eda Dance club & nightclub", "amenity": "bar", "name": "La que se lia", "phone": "+34 910 88 50 40", "website": "https://grupolalala.com/locales/salas-de-fiesta/la-que-se-lia"}}, {"type": "node", "id": 2701969613, "lat": 40.4244662, "lon": -3.6754001}, {"type": "node", "id": 2701969616, "lat": 40.4244753, "lon": -3.675578, "tags": {"image": "https://www.tratamientodevarices.es", "name": "Cl\u00ednica Madrid Vascular"}}, {"type": "node", "id": 2701970970, "lat": 40.4246123, "lon": -3.6755647}, {"type": "node", "id": 2701970971, "lat": 40.4246443, "lon": -3.6755137}, {"type": "node", "id": 2701970972, "lat": 40.4242182, "lon": -3.6742745}, {"type": "node", "id": 2701970973, "lat": 40.4244573, "lon": -3.6752397}, {"type": "node", "id": 2701970974, "lat": 40.4245839, "lon": -3.6742757}, {"type": "node", "id": 2701970975, "lat": 40.4245576, "lon": -3.6742473}, {"type": "node", "id": 2701970976, "lat": 40.4241937, "lon": -3.6743103}, {"type": "node", "id": 2701970977, "lat": 40.4242433, "lon": -3.6752539}, {"type": "node", "id": 2730504180, "lat": 40.4212837, "lon": -3.6883051, "tags": {"addr:country": "ES", "addr:housenumber": "6", "addr:street": "Calle de Serrano", "internet_access": "wlan", "name": "Mallorca", "name:ru": "\u041c\u0430\u0439\u043e\u0440\u043a\u0430", "opening_hours": "Mo-Su 09:00-21:00", "shop": "bakery", "website": "http://pasteleria-mallorca.com"}}, {"type": "node", "id": 2743984997, "lat": 40.4232203, "lon": -3.6867402, "tags": {"addr:city": "Madrid", "addr:housenumber": "24", "addr:postcode": "28006", "addr:street": "Calle de Claudio Coello", "amenity": "restaurant", "email": "lagiralda4@hotmail.com", "name": "La Giralda", "phone": "+34 91 576 40 69", "website": "http://www.restauranteslagiralda.com/restaurante-la-giralda-iv/"}}, {"type": "node", "id": 2764318350, "lat": 40.4265999, "lon": -3.6783933, "tags": {"addr:city": "Madrid", "addr:housenumber": "32", "addr:street": "Calle del General Pardi\u00f1as", "amenity": "cafe", "cuisine": "Tapas,_copas", "name": "Caf\u00e9 de Zine", "note": "Se sirven copas (bar) y hay tapas (\u00bfrestaurante?), pero ellos mismos lo clasifican como \"Caf\u00e9\"."}}, {"type": "node", "id": 2779332314, "lat": 40.4271947, "lon": -3.6711737, "tags": {"addr:city": "Madrid", "addr:housenumber": "99", "addr:postcode": "28006", "addr:street": "Calle de Ayala", "amenity": "restaurant", "cuisine": "regional", "name": "Taberna Las Botas", "phone": "+34 91 401 63 58", "website": "http://www.tabernalasbotas.com/"}}, {"type": "node", "id": 2779332318, "lat": 40.4270471, "lon": -3.6718133, "tags": {"addr:city": "Madrid", "addr:housenumber": "144", "addr:postcode": "28006", "addr:street": "Calle de Ayala", "amenity": "restaurant", "cuisine": "regional", "email": "info@elfogondetrifon.com", "name": "El Fog\u00f3n de Trif\u00f3n", "phone": "+34 91 402 37 94", "website": "http://elfogondetrifon.com/"}}, {"type": "node", "id": 2779332321, "lat": 40.4270602, "lon": -3.6721896, "tags": {"addr:city": "Madrid", "addr:housenumber": "140", "addr:postcode": "28006", "addr:street": "Calle de Ayala", "amenity": "restaurant", "cuisine": "asian", "name": "Wok Planet", "phone": "+34 91 444 87 88", "website": "http://www.wokplanet.es/"}}, {"type": "node", "id": 2779332332, "lat": 40.4272883, "lon": -3.6731037, "tags": {"addr:city": "Madrid", "addr:housenumber": "87B", "addr:postcode": "28006", "addr:street": "Calle de Ayala", "amenity": "restaurant", "cuisine": "regional", "email": "pulperia@vilalua.net", "name": "Vilal\u00faa", "website": "http://www.vilalua.net/"}}, {"type": "node", "id": 2779332337, "lat": 40.4273025, "lon": -3.6733022, "tags": {"addr:city": "Madrid", "addr:housenumber": "87B", "addr:postcode": "28006", "addr:street": "Calle de Ayala", "amenity": "restaurant", "cuisine": "regional", "email": "tapas@40tapas.es", "name": "40 Tapas", "phone": "+34 91 014 21 04", "website": "http://www.40tapas.es/"}}, {"type": "node", "id": 2779332343, "lat": 40.4273103, "lon": -3.6735662, "tags": {"addr:city": "Madrid", "addr:housenumber": "87A", "addr:postcode": "28006", "addr:street": "Calle de Ayala", "amenity": "fast_food", "cuisine": "sushi", "name": "Go Sushing", "phone": "+34 914019810", "website": "https://www.gosushing.com/"}}, {"type": "node", "id": 2779332355, "lat": 40.42732, "lon": -3.6737652, "tags": {"addr:city": "Madrid", "addr:housenumber": "87A", "addr:postcode": "28006", "addr:street": "Calle de Ayala", "amenity": "cafe", "name": "Urban Coffee", "website": "http://loungecoffee.com/urban/ubicacion.html"}}, {"type": "node", "id": 2779332367, "lat": 40.427364, "lon": -3.6747167, "tags": {"addr:city": "Madrid", "addr:housenumber": "81", "addr:postcode": "28006", "addr:street": "Calle de Ayala", "amenity": "restaurant", "name": "La Brujita", "old_name": "El Rinc\u00f3n de Carlos", "wheelchair": "limited"}}, {"type": "node", "id": 2779332371, "lat": 40.4271584, "lon": -3.6748915, "tags": {"addr:city": "Madrid", "addr:housenumber": "102", "addr:postcode": "28006", "addr:street": "Calle de Ayala", "amenity": "bar", "name": "Bar Ayala"}}, {"type": "node", "id": 2779332393, "lat": 40.4274462, "lon": -3.6766517, "tags": {"addr:city": "Madrid", "addr:housenumber": "67", "addr:postcode": "28001", "addr:street": "Calle de Ayala", "amenity": "restaurant", "cuisine": "japanese", "name": "Ayala Jap\u00f3n", "phone": "+34 913095625", "website": "http://www.ayalajapon.com/"}}, {"type": "node", "id": 2779332399, "lat": 40.4273343, "lon": -3.6779552, "tags": {"addr:city": "Madrid", "addr:housenumber": "84", "addr:postcode": "28001", "addr:street": "Calle de Ayala", "amenity": "restaurant", "cuisine": "regional", "email": "info@tapillasixtina.com", "name": "Tapilla Sixtina", "phone": "+34 914354985", "website": "https://www.tapillasixtina.com/"}}, {"type": "node", "id": 2779332408, "lat": 40.4276037, "lon": -3.6783379, "tags": {"addr:city": "Madrid", "addr:housenumber": "40", "addr:postcode": "28001", "addr:street": "Calle del General Pardi\u00f1as", "amenity": "restaurant", "cuisine": "mexican", "email": "puntomx@puntomx.es", "name": "Punto MX", "phone": "+34 914022226"}}, {"type": "node", "id": 2779332414, "lat": 40.4273588, "lon": -3.6783279, "tags": {"addr:city": "Madrid", "addr:housenumber": "82", "addr:postcode": "28001", "addr:street": "Calle de Ayala", "amenity": "bar", "name": "DG Lounge Coffee", "phone": "+34 914318769", "website": "http://loungecoffee.com/lounge/ubicacion.html"}}, {"type": "node", "id": 2779332419, "lat": 40.4274138, "lon": -3.6790506, "tags": {"addr:city": "Madrid", "addr:housenumber": "72", "addr:postcode": "28001", "addr:street": "Calle de Ayala", "amenity": "restaurant", "cuisine": "chinese", "name": "Palacio Drag\u00f3n"}}, {"type": "node", "id": 2779332438, "lat": 40.4276006, "lon": -3.6833231, "tags": {"addr:city": "Madrid", "addr:housenumber": "46", "addr:postcode": "28001", "addr:street": "Calle de Ayala", "amenity": "restaurant", "cuisine": "asian", "name": "Tei", "phone": "+34 91 431 77 45", "website": "http://www.restaurantetei.com/"}}, {"type": "node", "id": 2779332446, "lat": 40.4278599, "lon": -3.6853549, "tags": {"addr:city": "Madrid", "addr:housenumber": "23", "addr:postcode": "28001", "addr:street": "Calle de Ayala", "amenity": "restaurant", "cuisine": "regional", "name": "Lago de Sanabria", "phone": "+34 915767421", "website": "http://www.restaurantelagodesanabria.com/"}}, {"type": "node", "id": 2779332462, "lat": 40.4278877, "lon": -3.6857523, "tags": {"addr:city": "Madrid", "addr:housenumber": "19", "addr:postcode": "28001", "addr:street": "Calle de Ayala", "amenity": "restaurant", "cuisine": "regional", "name": "Jurucha", "website": "http://www.jurucha.es/"}}, {"type": "node", "id": 2779332478, "lat": 40.4278349, "lon": -3.6878943, "tags": {"addr:city": "Madrid", "addr:housenumber": "14", "addr:postcode": "28001", "addr:street": "Calle de Ayala", "amenity": "restaurant", "cuisine": "mexican", "name": "Tepic", "old_name": "MAD 28001", "phone": "+34 91 522 08 50", "website": "http://www.tepic.es/"}}, {"type": "node", "id": 2779332503, "lat": 40.4278553, "lon": -3.6884987, "tags": {"addr:city": "Madrid", "addr:housenumber": "6", "addr:postcode": "28001", "addr:street": "Calle de Ayala", "amenity": "restaurant", "email": "restaurantetenconten@gmail.com", "name": "Ten Con Ten", "phone": "+34 915759254", "website": "http://www.restaurantetenconten.com/"}}, {"type": "node", "id": 2779332509, "lat": 40.4278811, "lon": -3.6892325, "tags": {"addr:city": "Madrid", "addr:housenumber": "12", "addr:postcode": "28046", "addr:street": "Paseo de la Castellana", "amenity": "restaurant", "email": "clientes@embassy.es", "name": "Embassy", "phone": "+34 91 435 94 80", "website": "https://www.embassy.es/"}}, {"type": "node", "id": 2813616947, "lat": 40.4257334, "lon": -3.6888979, "tags": {"addr:city": "Madrid", "addr:country": "ES", "addr:housenumber": "5", "addr:postcode": "28001", "addr:street": "Calle de Goya", "amenity": "restaurant", "cuisine": "italian", "email": "madrid.colon@lamafia.es", "name": "La Mafia", "phone": "+34 91 811 97 26"}}, {"type": "node", "id": 2883832904, "lat": 40.4362441, "lon": -3.6878248, "tags": {"amenity": "restaurant", "cuisine": "regional", "name": "Mes\u00f3n Jos\u00e9 Luis"}}, {"type": "node", "id": 2883851303, "lat": 40.4217694, "lon": -3.6828588, "tags": {"addr:street": "Calle de Alcal\u00e1", "amenity": "restaurant", "cuisine": "japanese", "name": "Maitake", "old_name": "Taberna de la Aguja"}}, {"type": "node", "id": 2883851304, "lat": 40.4285118, "lon": -3.6849147, "tags": {"amenity": "restaurant", "cuisine": "regional", "name": "La Saeta", "old_name": "Lagasca"}}, {"type": "node", "id": 2883857801, "lat": 40.432612, "lon": -3.6761828, "tags": {"addr:city": "Madrid", "addr:housenumber": "49", "addr:postcode": "28006", "addr:street": "Calle de Juan Bravo", "amenity": "restaurant", "cuisine": "regional", "name": "H\u00f3rreo IV", "phone": "+34 91 401 00 90"}}, {"type": "node", "id": 2888139000, "lat": 40.4289086, "lon": -3.6840321, "tags": {"addr:housenumber": "59", "addr:street": "Calle de Vel\u00e1zquez", "name": "Mallorca", "shop": "bakery"}}, {"type": "node", "id": 2910001438, "lat": 40.4370079, "lon": -3.6869952, "tags": {"amenity": "restaurant", "cuisine": "chinese", "name": "Restaurante Thong"}}, {"type": "node", "id": 2915208793, "lat": 40.4276172, "lon": -3.6857483, "tags": {"name": "Vinoteca Tierra", "shop": "wine"}}, {"type": "node", "id": 2918056723, "lat": 40.4198264, "lon": -3.6913229, "tags": {"addr:city": "Madrid", "addr:housenumber": "59", "addr:postcode": "28014", "addr:street": "Calle de Alcal\u00e1", "amenity": "pub", "contact:phone": "+34 91 575 4901", "contact:website": "http://www.jamesjoycemadrid.com/", "name": "James Joyce Irish Pub", "opening_hours": "11:00-02:00", "payment:bitcoin": "yes"}}, {"type": "node", "id": 2924977457, "lat": 40.4352426, "lon": -3.6863163, "tags": {"addr:city": "Madrid", "addr:housenumber": "110", "addr:postcode": "28006", "addr:street": "Calle de Serrano", "amenity": "bar", "name": "Makkila", "payment:bitcoin": "yes"}}, {"type": "node", "id": 2942276116, "lat": 40.4376633, "lon": -3.6868614, "tags": {"addr:city": "Madrid", "addr:housenumber": "18", "addr:postcode": "28006", "addr:street": "Calle de Mar\u00eda de Molina", "amenity": "cafe", "name": "Do Eat!", "payment:bitcoin": "yes", "phone": "+34 911 866 600", "website": "http://doeat.es/", "yelp": "http://www.yelp.com/biz/do-eat-madrid-2"}}, {"type": "node", "id": 2955618099, "lat": 40.4367393, "lon": -3.686582, "tags": {"addr:housenumber": "85", "addr:street": "Calle de Serrano", "amenity": "bar", "name": "Check-in Madrid", "payment:bitcoin": "yes", "phone": "+34 91 805 3144", "smoking": "outside", "website": "http://checkinmadrid.es/web/index.html"}}, {"type": "node", "id": 2968568488, "lat": 40.4241164, "lon": -3.6776777, "tags": {"addr:city": "Madrid", "addr:housenumber": "141", "addr:postcode": "28009", "addr:street": "Calle de Alcal\u00e1", "amenity": "restaurant", "capacity": "100", "name": "The Geographic Club", "payment:bitcoin": "yes", "phone": "+34 915 78 08 62", "website": "https://www.thegeographicclub.es/"}}, {"type": "node", "id": 2977298934, "lat": 40.4210523, "lon": -3.689841, "tags": {"addr:city": "Madrid", "addr:housenumber": "4", "addr:street": "Calle de Villalar", "amenity": "cafe", "cuisine": "regional", "internet_access": "yes", "name": "Caf\u00e9 Villalar", "payment:bitcoin": "yes", "website": "http://www.cafevillalar.com/"}}, {"type": "node", "id": 2985683880, "lat": 40.4376699, "lon": -3.6869566, "tags": {"addr:city": "Madrid", "addr:housenumber": "18", "addr:postcode": "28006", "addr:street": "Calle de Mar\u00eda de Molina", "amenity": "restaurant", "cuisine": "regional", "name": "Coffee City (El T\u00edo Palomo)", "payment:bitcoin": "yes", "phone": "+34 609746648", "website": "http://www.eltiopalomo.com/"}}, {"type": "node", "id": 3006697052, "lat": 40.4262504, "lon": -3.6786452, "tags": {"addr:city": "Madrid", "addr:housenumber": "21", "addr:postcode": "28001", "addr:street": "Calle del General Pardi\u00f1as", "amenity": "restaurant", "cuisine": "Madrile\u00f1a", "name": "Taberna La Daniela", "opening_hours": "Mo-Th 13:00-17:00,20:00-00:00; Fr 13:00-17:00,20:30-00:30; Sa,Su 13:00-17:30,20:30-00:30", "phone": "+34 915752329", "smoking": "no", "website": "http://www.tabernadeladaniela.com"}}, {"type": "node", "id": 3006701510, "lat": 40.4262568, "lon": -3.6784561, "tags": {"addr:city": "Madrid", "addr:housenumber": "30", "addr:postcode": "28001", "addr:street": "Calle del General Pardi\u00f1as", "amenity": "restaurant", "name": "Sabor", "smoking": "no"}}, {"type": "node", "id": 3006705491, "lat": 40.4266768, "lon": -3.6786121, "tags": {"addr:city": "Madrid", "addr:housenumber": "25", "addr:postcode": "28001", "addr:street": "Calle del General Pardi\u00f1as", "amenity": "restaurant", "cuisine": "spanish;tapas", "name": "Vinos y Tapas", "opening_hours": "Mo-Sa 11:00 - 23:00", "phone": "+34 915754388", "smoking": "no"}}, {"type": "node", "id": 3081532741, "lat": 40.4374069, "lon": -3.6865052, "tags": {"addr:city": "Madrid", "addr:housenumber": "93", "addr:postcode": "28006", "addr:street": "Calle de Serrano", "name": "AvatarBTC", "payment:bitcoin": "yes", "phone": "+34 91 008 5963", "shop": "supermarket", "website": "https://www.avatarbtc.es/"}}, {"type": "node", "id": 3081549376, "lat": 40.4316362, "lon": -3.6865138, "tags": {"addr:city": "Madrid", "addr:housenumber": "4", "addr:postcode": "28006", "addr:street": "Calle de Padilla", "amenity": "restaurant", "cuisine": "japanese", "name": "Miss Sushi", "payment:bitcoin": "yes", "phone": "+34 911 277 027", "website": "http://misssushi.es/"}}, {"type": "node", "id": 3094898221, "lat": 40.4351631, "lon": -3.6848307, "tags": {"addr:city": "Madrid", "addr:housenumber": "7", "addr:postcode": "28006", "addr:street": "Calle de Diego de Le\u00f3n", "amenity": "bar", "name": "El Cuento Bar", "payment:bitcoin": "yes", "phone": "+34 650 84 47 35", "website": "http://elcuentobar.es"}}, {"type": "node", "id": 3126079399, "lat": 40.4217419, "lon": -3.6829482, "tags": {"addr:city": "Madrid", "addr:housenumber": "105", "addr:postcode": "28009", "addr:street": "Calle de Alcal\u00e1", "amenity": "restaurant", "contact:phone": "+34 918437656", "contact:website": "https://bentleysburger.es/", "cuisine": "american", "name": "Bentley's", "opening_hours": "Mo-Su 9:00 - 24:00"}}, {"type": "node", "id": 3135943330, "lat": 40.4251887, "lon": -3.6872808, "tags": {"addr:city": "Madrid", "addr:country": "ES", "addr:housenumber": "6", "addr:postcode": "28001", "addr:street": "Calle de Goya", "name": "Jard\u00edn de Serrano", "payment:bitcoin": "yes", "shop": "mall"}}, {"type": "node", "id": 3136031898, "lat": 40.4257361, "lon": -3.6890505, "tags": {"addr:city": "Madrid", "addr:country": "ES", "addr:housenumber": "5", "addr:postcode": "28001", "addr:street": "Calle de Goya", "amenity": "restaurant", "cuisine": "diner", "delivery": "yes", "delivery_hours": "1300-1700, 2000-0000", "name": "Tommy Mel's", "old_name": "Arriba", "payment:bitcoin": "yes", "phone": "+34 915 759 409", "takeaway": "yes", "website": "https://www.tommymels.com/"}}, {"type": "node", "id": 3191950707, "lat": 40.4322355, "lon": -3.6881277, "tags": {"addr:city": "Madrid", "addr:country": "ES", "addr:housenumber": "34", "addr:postcode": "28046", "addr:street": "Paseo de la Castellana", "addr:ward": "Castellana", "old_name": "Farmacia Castellana, 34", "shop": "vacant"}}, {"type": "node", "id": 3205998418, "lat": 40.4357403, "lon": -3.6820068, "tags": {"addr:city": "Madrid", "addr:housenumber": "105", "addr:postcode": "28006", "addr:street": "Calle de N\u00fa\u00f1ez de Balboa", "amenity": "restaurant", "contact:phone": "+34 914110101", "name": "Casa Santo\u00f1a"}}, {"type": "node", "id": 3206877635, "lat": 40.4353719, "lon": -3.6818311, "tags": {"addr:city": "Madrid", "addr:housenumber": "106", "addr:postcode": "28006", "addr:street": "Calle de N\u00fa\u00f1ez de Balboa", "amenity": "restaurant", "cuisine": "regional", "name": "Surtop\u00eda", "phone": "+34 915630364", "source": "local knowledge", "website": "https://www.surtopia.es/"}}, {"type": "node", "id": 3212683921, "lat": 40.4321296, "lon": -3.6810288, "tags": {"addr:city": "Madrid", "addr:country": "ES", "addr:housenumber": "83", "addr:postcode": "28006", "addr:street": "Calle de Castell\u00f3", "amenity": "restaurant", "contact:phone": "+34 912831031", "contact:website": "http://www.alcaravea.com", "name": "Alcaravea"}}, {"type": "node", "id": 3212683924, "lat": 40.4347025, "lon": -3.6820934, "tags": {"addr:city": "Madrid", "addr:housenumber": "97", "addr:postcode": "28006", "addr:street": "Calle de N\u00fa\u00f1ez de Balboa", "amenity": "bar", "contact:phone": "+34 915781590", "name": "Bar Cruz"}}, {"type": "node", "id": 3212683925, "lat": 40.428904, "lon": -3.6814323, "tags": {"addr:city": "Madrid", "addr:country": "ES", "addr:housenumber": "40", "addr:postcode": "28006", "addr:street": "Calle de Don Ram\u00f3n de la Cruz", "contact:phone": "+34 915777937", "name": "Campos de Retana", "shop": "bakery"}}, {"type": "node", "id": 3212683926, "lat": 40.4331004, "lon": -3.6820027, "tags": {"addr:city": "Madrid", "addr:housenumber": "86", "addr:postcode": "28006", "addr:street": "Calle de N\u00fa\u00f1ez de Balboa", "contact:phone": "+34 914263777", "contact:website": "http://www.moscovitas.com/", "name": "Confiter\u00eda Rialto", "shop": "bakery"}}, {"type": "node", "id": 3212683927, "lat": 40.4306795, "lon": -3.6824249, "tags": {"addr:city": "Madrid", "addr:country": "ES", "addr:housenumber": "75", "addr:postcode": "28006", "addr:street": "Calle de N\u00fa\u00f1ez de Balboa", "amenity": "restaurant", "contact:email": "info@flashflashmadrid.com", "contact:phone": "+34 915751010", "contact:website": "http://flashflashmadrid.com", "name": "Flash Flash", "opening_hours": "Su-Th 13:00-00:00;Fr-Sa 13:00-01:30"}}, {"type": "node", "id": 3212683928, "lat": 40.4328293, "lon": -3.6806908, "tags": {"addr:city": "Madrid", "addr:country": "ES", "addr:housenumber": "23", "addr:postcode": "28006", "addr:street": "Calle de Juan Bravo", "amenity": "restaurant", "contact:phone": "+34 91 9266988", "contact:website": "http://www.ginos.es", "name": "P\u00f3lvora", "old_name": "Ginos", "website": "https://restaurantepolvora.com"}}, {"type": "node", "id": 3212683929, "lat": 40.4318104, "lon": -3.6821303, "tags": {"addr:city": "Madrid", "addr:country": "ES", "addr:housenumber": "76", "addr:postcode": "28006", "addr:street": "Calle de N\u00fa\u00f1ez de Balboa", "amenity": "restaurant", "contact:phone": "+34 609015034", "cuisine": "mediterranean", "name": "Restaurante Cassandra", "smoking": "outside"}}, {"type": "node", "id": 3212683930, "lat": 40.4302191, "lon": -3.6810407, "tags": {"addr:city": "Madrid", "addr:country": "ES", "addr:housenumber": "33", "addr:postcode": "28006", "addr:street": "Calle de Jos\u00e9 Ortega y Gasset", "amenity": "restaurant", "contact:phone": "+34 914356227", "contact:website": "http://www.sandwichclubcafe.com", "name": "Sandwich Club Caf\u00e9", "opening_hours": "Mo-Sa 08:00-21:00"}}, {"type": "node", "id": 3212683931, "lat": 40.4304201, "lon": -3.6824967, "tags": {"addr:city": "Madrid", "addr:country": "ES", "addr:housenumber": "29", "addr:postcode": "28006", "addr:street": "Calle de Jos\u00e9 Ortega y Gasset", "amenity": "cafe", "brand": "Starbucks", "brand:wikidata": "Q37158", "brand:wikipedia": "en:Starbucks", "contact:website": "http://www.starbucks.es", "cuisine": "coffee_shop", "name": "Starbucks", "official_name": "Starbucks Coffee", "takeaway": "yes"}}, {"type": "node", "id": 3223457179, "lat": 40.4373416, "lon": -3.6770296, "tags": {"amenity": "restaurant", "brand": "Vips", "brand:wikidata": "Q66087862", "cuisine": "international", "name": "Vips"}}, {"type": "node", "id": 3245880313, "lat": 40.4299573, "lon": -3.6739455, "tags": {"amenity": "restaurant", "cuisine": "japanese", "name": "Shintori"}}, {"type": "node", "id": 3245888784, "lat": 40.4299872, "lon": -3.6738093, "tags": {"amenity": "pub", "facebook": "https://www.facebook.com/Colosimos-130688057064161/", "name": "Colosimo", "phone": "+34 914 531425", "website": "https://restaurante-colosimo.negocio.site/"}}, {"type": "node", "id": 3245894150, "lat": 40.4299362, "lon": -3.6731487, "tags": {"addr:housenumber": "73", "addr:street": "Calle de Jos\u00e9 Ortega y Gasset", "amenity": "restaurant", "old_name": "Siniqual"}}, {"type": "node", "id": 3245918524, "lat": 40.4298308, "lon": -3.6709472, "tags": {"amenity": "restaurant", "cuisine": "indian", "name": "Tandoori Station", "phone": "+34 91 401 2228", "website": "https://www.tandooristation.com/"}}, {"type": "node", "id": 3245929916, "lat": 40.4295474, "lon": -3.6712251, "tags": {"amenity": "pub", "name": "Taberna El Olivo"}}, {"type": "node", "id": 3250746038, "lat": 40.424426, "lon": -3.675242}, {"type": "node", "id": 3250746040, "lat": 40.4244593, "lon": -3.6752756}, {"type": "node", "id": 3250746041, "lat": 40.4244642, "lon": -3.6753646}, {"type": "node", "id": 3250746047, "lat": 40.4251987, "lon": -3.676369}, {"type": "node", "id": 3250746048, "lat": 40.4252018, "lon": -3.676447}, {"type": "node", "id": 3250746053, "lat": 40.4252316, "lon": -3.6764441}, {"type": "node", "id": 3250746057, "lat": 40.4252514, "lon": -3.6763657}, {"type": "node", "id": 3250746060, "lat": 40.4252741, "lon": -3.676364}, {"type": "node", "id": 3250746761, "lat": 40.4252904, "lon": -3.6763628}, {"type": "node", "id": 3250746762, "lat": 40.4253091, "lon": -3.676747}, {"type": "node", "id": 3260540998, "lat": 40.4359407, "lon": -3.6765125, "tags": {"amenity": "restaurant"}}, {"type": "node", "id": 3268265721, "lat": 40.4260235, "lon": -3.6852028, "tags": {"amenity": "pub", "name": "El Rinc\u00f3n de Goya"}}, {"type": "node", "id": 3268265722, "lat": 40.4259686, "lon": -3.6851972, "tags": {"amenity": "restaurant", "cuisine": "regional", "name": "Pimiento Verde"}}, {"type": "node", "id": 3268269967, "lat": 40.4214299, "lon": -3.6859171, "tags": {"addr:housenumber": "5", "addr:street": "Calle de Lagasca", "amenity": "restaurant", "cuisine": "burger", "name": "Alfredo's Barbacoa", "phone": "+34 91 576 6271", "website": "http://www.alfredos-barbacoa.es"}}, {"type": "node", "id": 3268768364, "lat": 40.4249659, "lon": -3.6765653}, {"type": "node", "id": 3268768365, "lat": 40.4249844, "lon": -3.6763874}, {"type": "node", "id": 3268768373, "lat": 40.4252271, "lon": -3.6763675}, {"type": "node", "id": 3268768375, "lat": 40.4252427, "lon": -3.6763663}, {"type": "node", "id": 3268768377, "lat": 40.4252704, "lon": -3.6763643}, {"type": "node", "id": 3268768379, "lat": 40.4252775, "lon": -3.6770842}, {"type": "node", "id": 3269546367, "lat": 40.4369334, "lon": -3.6872064, "tags": {"addr:housenumber": "10", "addr:postcode": "28006", "addr:street": "Calle de L\u00f3pez de Hoyos", "amenity": "cafe", "entrance": "main", "name": "Panela&Co", "phone": "+34 915636069"}}, {"type": "node", "id": 3269546449, "lat": 40.4316521, "lon": -3.6873656}, {"type": "node", "id": 3269546453, "lat": 40.4316794, "lon": -3.6873634}, {"type": "node", "id": 3269546968, "lat": 40.4321697, "lon": -3.6869417, "tags": {"addr:city": "Madrid", "addr:country": "ES", "entrance": "main"}}, {"type": "node", "id": 3269546970, "lat": 40.4323413, "lon": -3.688061}, {"type": "node", "id": 3269546971, "lat": 40.4323416, "lon": -3.6880987}, {"type": "node", "id": 3269546973, "lat": 40.4323485, "lon": -3.6878173}, {"type": "node", "id": 3269552637, "lat": 40.4318974, "lon": -3.6873467}, {"type": "node", "id": 3269552640, "lat": 40.4319505, "lon": -3.6873429}, {"type": "node", "id": 3269552643, "lat": 40.4319946, "lon": -3.6873397}, {"type": "node", "id": 3269552645, "lat": 40.4320487, "lon": -3.6873358}, {"type": "node", "id": 3423479078, "lat": 40.4242298, "lon": -3.6749755, "tags": {"entrance": "yes"}}, {"type": "node", "id": 3423479081, "lat": 40.4245779, "lon": -3.675568, "tags": {"entrance": "yes"}}, {"type": "node", "id": 3423479082, "lat": 40.4246411, "lon": -3.6754485, "tags": {"entrance": "yes"}}, {"type": "node", "id": 3426628965, "lat": 40.422021, "lon": -3.6921997}, {"type": "node", "id": 3426628966, "lat": 40.4220217, "lon": -3.6922059}, {"type": "node", "id": 3426628967, "lat": 40.422023, "lon": -3.6921695}, {"type": "node", "id": 3426628968, "lat": 40.422023, "lon": -3.6921929}, {"type": "node", "id": 3426628969, "lat": 40.422024, "lon": -3.6922106}, {"type": "node", "id": 3426628970, "lat": 40.4220275, "lon": -3.6922128}, {"type": "node", "id": 3426628971, "lat": 40.422028, "lon": -3.6921885}, {"type": "node", "id": 3426628972, "lat": 40.4220307, "lon": -3.6922135}, {"type": "node", "id": 3426628973, "lat": 40.4220348, "lon": -3.6922133}, {"type": "node", "id": 3426628974, "lat": 40.4220376, "lon": -3.6922242}, {"type": "node", "id": 3426628975, "lat": 40.4220909, "lon": -3.6921391}, {"type": "node", "id": 3426628976, "lat": 40.4221051, "lon": -3.6921939}, {"type": "node", "id": 3428424428, "lat": 40.422395, "lon": -3.6911375, "tags": {"addr:city": "Madrid", "addr:housenumber": "14", "addr:postcode": "28001", "addr:street": "Paseo Recoletos", "amenity": "restaurant", "contact:website": "https://dingorestaurant.com/", "name": "Dingo Restaurant", "phone": "+34 917 81 70 73"}}, {"type": "node", "id": 3430976782, "lat": 40.4206223, "lon": -3.6883423, "tags": {"addr:city": "Madrid", "addr:housenumber": "5", "addr:postcode": "28001", "addr:street": "Plaza de la Independencia", "amenity": "cafe", "email": "madrid@grupocappuccino.com", "internet_access": "wlan", "name": "Cappuccino Grand Caf\u00e9", "phone": "+34 915 457 320", "smoking": "outside", "website": "https://www.cappuccinograndcafe.es/en/madrid/plaza-independencia", "wheelchair": "limited"}}, {"type": "node", "id": 3438292596, "lat": 40.4298323, "lon": -3.6872602}, {"type": "node", "id": 3438292598, "lat": 40.4298988, "lon": -3.6878643}, {"type": "node", "id": 3438292599, "lat": 40.4300409, "lon": -3.6872222, "tags": {"entrance": "yes"}}, {"type": "node", "id": 3438292601, "lat": 40.4302902, "lon": -3.6872694}, {"type": "node", "id": 3438292602, "lat": 40.4302992, "lon": -3.6874959, "tags": {"addr:city": "Madrid", "addr:housenumber": "2", "addr:postcode": "28006", "addr:street": "Calle de Jos\u00e9 Ortega y Gasset", "entrance": "main"}}, {"type": "node", "id": 3448545208, "lat": 40.4281872, "lon": -3.6756532, "tags": {"addr:city": "Madrid", "addr:housenumber": "35", "addr:postcode": "28006", "addr:street": "Calle del Conde de Pe\u00f1alver", "amenity": "restaurant", "contact:phone": "+34 91 402 07 42", "contact:website": "http://restaurantelossauces.com/index.html?body8.html", "cuisine": "regional", "name": "Los Sauces"}}, {"type": "node", "id": 3448545209, "lat": 40.4282566, "lon": -3.6756478, "tags": {"addr:city": "Madrid", "addr:housenumber": "35", "addr:postcode": "28006", "addr:street": "Calle del Conde de Pe\u00f1alver", "amenity": "restaurant", "contact:phone": "+34 914 025 677", "contact:website": "http://www.lizarran.es/", "cuisine": "regional", "name": "Lizarran", "toilets:wheelchair": "no", "wheelchair": "limited"}}, {"type": "node", "id": 3448545210, "lat": 40.4283219, "lon": -3.6756398, "tags": {"addr:city": "Madrid", "addr:housenumber": "37", "addr:postcode": "28006", "addr:street": "Calle del Conde de Pe\u00f1alver", "amenity": "restaurant", "brand": "100 Montaditos", "brand:wikidata": "Q8355805", "brand:wikipedia": "en:Cervecer\u00eda 100 Montaditos", "contact:website": "http://spain.100montaditos.com/", "cuisine": "sandwich", "name": "100 Montaditos"}}, {"type": "node", "id": 3450415872, "lat": 40.4323272, "lon": -3.687452}, {"type": "node", "id": 3450415873, "lat": 40.4323375, "lon": -3.6876296}, {"type": "node", "id": 3450415885, "lat": 40.4324628, "lon": -3.6878077, "tags": {"addr:city": "Madrid", "addr:country": "ES", "addr:housenumber": "36", "addr:postcode": "28046", "addr:street": "Paseo de la Castellana", "amenity": "restaurant", "cocktails": "yes", "cuisine": "spanish", "name": "TATEL Madrid", "opening_hours": "Mo-Su 12:00-02:30", "phone": "+34911721841", "website": "http://www.tatelrestaurants.com/madrid/"}}, {"type": "node", "id": 3450416235, "lat": 40.4327302, "lon": -3.6877853, "tags": {"addr:city": "Madrid", "addr:housenumber": "38", "addr:postcode": "28046", "addr:street": "Paseo de la Castellana", "amenity": "restaurant", "email": "larumbe38@larumbe.com", "name": "38 de Larumbe", "phone": "+34 91 575 11 12"}}, {"type": "node", "id": 3489256091, "lat": 40.4284428, "lon": -3.6724317, "tags": {"addr:city": "Madrid", "addr:street": "Calle Don Juan Ram\u00f3n de la Cruz", "amenity": "restaurant", "cuisine": "spanish", "name": "El Rinc\u00f3n de Ja\u00e9n"}}, {"type": "node", "id": 3489259522, "lat": 40.4285898, "lon": -3.6707741, "tags": {"addr:city": "Madrid", "addr:housenumber": "109", "addr:street": "Calle de Don Ram\u00f3n de la Cruz", "amenity": "restaurant", "cuisine": "spanish", "name": "Entre C\u00e1ceres y Badajoz"}}, {"type": "node", "id": 3489260155, "lat": 40.428647, "lon": -3.6724156, "tags": {"addr:street": "Calle Don Juan Ram\u00f3n de la Cruz", "amenity": "restaurant", "cuisine": "spanish", "name": "El Rinc\u00f3n de Ja\u00e9n"}}, {"type": "node", "id": 3504777723, "lat": 40.4288566, "lon": -3.6772178, "tags": {"addr:city": "Madrid", "addr:housenumber": "67", "addr:postcode": "28001", "addr:street": "Calle de Don Ram\u00f3n de la Cruz", "amenity": "restaurant", "capacity": "50", "cuisine": "international", "name": "El Kiosco Del Pan", "opening_hours": "Mo-Su 8:30-20:30", "smoking": "outside", "takeaway": "yes"}}, {"type": "node", "id": 3691975456, "lat": 40.4217288, "lon": -3.6879591, "tags": {"addr:city": "Madrid", "addr:country": "ES", "addr:housenumber": "4", "addr:postcode": "28001", "addr:street": "Calle del Conde de Aranda", "amenity": "restaurant", "contact:email": "info@alfredos-barbacoa.es", "contact:phone": "+34 91 431 36 46", "name": "Alfredo's Barbacoa", "source": "survey", "website": "http://www.alfredos-barbacoa.es/"}}, {"type": "node", "id": 3691975457, "lat": 40.4207181, "lon": -3.6888254, "tags": {"addr:city": "Madrid", "addr:housenumber": "1", "addr:postcode": "28001", "addr:street": "Calle de Serrano", "amenity": "restaurant", "cuisine": "spanish", "delivery": "yes", "email": "info@patiodeleones.es", "name": "Patio de Leones", "opening_hours": "Mo 00:00-02:00,07:30-24:00; Tu-Fr 07:30-24:00; Sa 12:00-24:00; Su 00:00-02:00,12:00-24:00", "outdoor_seating": "yes", "phone": "+34 651 55 50 00", "reservation": "yes", "smoking": "outside", "takeaway": "yes", "website": "https://patiodeleones.es", "wheelchair": "yes"}}, {"type": "node", "id": 3691975458, "lat": 40.4206959, "lon": -3.6889616, "tags": {"addr:city": "Madrid", "addr:housenumber": "4", "addr:postcode": "28001", "addr:street": "Plaza de la Independencia", "amenity": "cafe", "name": "Market Caf\u00e9", "old_name": "Caf\u00e9 & Tapas", "source": "survey", "website": "http://marketcafemadrid.com/"}}, {"type": "node", "id": 3691975459, "lat": 40.420658, "lon": -3.6891359, "tags": {"addr:city": "Madrid", "addr:postcode": "28001", "addr:street": "Plaza de la Independencia", "amenity": "restaurant", "contact:phone": "+34 91 435 16 66", "name": "Ramses", "source": "survey", "website": "https://www.ramseslife.com/"}}, {"type": "node", "id": 3699915798, "lat": 40.4265452, "lon": -3.6842149, "tags": {"addr:city": "Madrid", "addr:housenumber": "41", "addr:postcode": "28001", "addr:street": "Calle de Vel\u00e1zquez", "amenity": "cafe", "cuisine": "ice_cream", "internet_access": "wlan", "name": "Giangrossi", "opening_hours": "08:00-01:00", "outdoor_seating": "yes", "takeaway": "yes"}}, {"type": "node", "id": 3736433709, "lat": 40.4275863, "lon": -3.6693989, "tags": {"amenity": "restaurant", "brand": "Lizarr\u00e1n", "brand:wikidata": "Q1866620", "brand:wikipedia": "de:Lizarran", "cuisine": "spanish", "name": "Lizarr\u00e1n"}}, {"type": "node", "id": 3761642953, "lat": 40.4204539, "lon": -3.6913616, "tags": {"addr:city": "Madrid", "addr:housenumber": "5", "addr:postcode": "28001", "addr:street": "Calle del Marqu\u00e9s del Duero", "amenity": "restaurant", "cuisine": "spanish", "internet_access": "wlan", "name": "Restaurante Cibeles"}}, {"type": "node", "id": 3863824883, "lat": 40.4257238, "lon": -3.6888408, "tags": {"addr:city": "Madrid", "addr:country": "ES", "addr:housenumber": "5-7", "addr:postcode": "28001", "addr:street": "Calle de Goya", "amenity": "restaurant", "email": "info@plateamadrid.com", "name": "Platea", "name:zh": "\u7f8e\u98df\u7a7a\u95f4", "phone": "+34 915 77 00 25", "website": "https://plateamadrid.com/", "wikidata": "Q18166676"}}, {"type": "node", "id": 3903740881, "lat": 40.4237889, "lon": -3.686507, "tags": {"amenity": "restaurant", "name": "Alameda", "old_name": "Alkalde"}}, {"type": "node", "id": 3903740883, "lat": 40.4233495, "lon": -3.6863068, "tags": {"addr:city": "Madrid", "addr:country": "ES", "addr:housenumber": "8", "addr:postcode": "28001", "addr:province": "Madrid", "addr:state": "Comunidad de Madrid", "addr:street": "Calle de Puigcerd\u00e1", "amenity": "restaurant", "delivery": "yes", "name": "Restaurante SottoSopra", "phone": "+34917486197", "takeaway": "yes", "website": "http://sottosopra.es/"}}, {"type": "node", "id": 3903740890, "lat": 40.4237676, "lon": -3.6856566, "tags": {"amenity": "restaurant", "name": "El Paraguas"}}, {"type": "node", "id": 3903740896, "lat": 40.4237624, "lon": -3.6862319, "tags": {"addr:city": "Madrid", "addr:country": "ES", "addr:housenumber": "12", "addr:postcode": "28001", "addr:province": "Madrid", "addr:state": "Comunidad de Madrid", "addr:street": "Calle de Jorge Juan", "amenity": "restaurant", "description": "Elegante restaurante con espacios de dise\u00f1o ecl\u00e9ctico que sirve tapeo actual y platos de cocina mediterr\u00e1nea.", "name": "La M\u00e1quina Jorge Juan", "phone": "+34918336981", "takeaway": "yes", "website": "http://lamaquinajorgejuan.es", "wheelchair": "yes"}}, {"type": "node", "id": 3903740897, "lat": 40.423467, "lon": -3.6862847, "tags": {"addr:city": "Madrid", "addr:country": "ES", "addr:housenumber": "6", "addr:postcode": "28001", "addr:province": "Madrid", "addr:state": "Comunidad de Madrid", "addr:street": "Calle de Puigcerd\u00e1", "amenity": "restaurant", "description": "Platos de mercado en taberna chic de cuatro plantas con bodega y cocina vistas, terraza y azotea chill out.", "name": "Taberna Los Gallos", "phone": "+34914310647", "takeaway": "yes", "website": "http://www.tabernalosgallos.com/", "wheelchair": "yes"}}, {"type": "node", "id": 3903740899, "lat": 40.4239592, "lon": -3.6861041, "tags": {"amenity": "restaurant", "name": "Mediterr\u00e1neo"}}, {"type": "node", "id": 3903740905, "lat": 40.4239285, "lon": -3.6853977, "tags": {"addr:city": "Madrid", "addr:housenumber": "17", "addr:postcode": "28001", "addr:street": "Calle de Jorge Juan", "amenity": "restaurant", "name": "Ultramarinos Quint\u00edn", "phone": "+34 917 86 46 24", "website": "http://www.ultramarinosquintin.es/"}}, {"type": "node", "id": 3903740912, "lat": 40.4236817, "lon": -3.6862466, "tags": {"addr:city": "Madrid", "addr:country": "ES", "addr:postcode": "28001", "addr:province": "Madrid", "addr:state": "Comunidad de Madrid", "addr:street": "Calle de Puigcerd\u00e1", "amenity": "restaurant", "description": "Gastronom\u00eda ib\u00e9rica especializada en el jam\u00f3n en un mes\u00f3n elegante con paredes de madera laminada y terraza.", "name": "Cinco Jotas Jorge Juan", "nohousenumber": "yes", "phone": "+34915754125", "website": "https://www.cincojotas.es/restaurante-5-jotas/jorge-juan/"}}, {"type": "node", "id": 3911306110, "lat": 40.4376723, "lon": -3.6871521, "tags": {"addr:housenumber": "20", "addr:postcode": "28006", "addr:province": "Madrid", "addr:street": "Calle de Mar\u00eda de Molina", "amenity": "restaurant", "cuisine": "burger", "name": "Goiko Grill", "website": "https://www.goikogrill.com/reservas/reservas-maria-de-molina-16/"}}, {"type": "node", "id": 4068409548, "lat": 40.428919, "lon": -3.6755892, "tags": {"addr:city": "Madrid", "addr:housenumber": "41", "addr:postcode": "28006", "addr:street": "Calle del Conde de Pe\u00f1alver", "amenity": "restaurant", "capacity": "70", "cuisine": "burger", "delivery": "yes", "name": "GOIKO GRILL", "opening_hours": "13:00-17:00, 20:00-23:30", "smoking": "no", "takeaway": "yes", "website": "https://www.goikogrill.com/"}}, {"type": "node", "id": 4114728907, "lat": 40.4256129, "lon": -3.6758638, "tags": {"addr:city": "Madrid", "addr:housenumber": "9", "addr:postcode": "28006", "addr:street": "Calle del Conde de Pe\u00f1alver", "amenity": "fast_food", "brand": "Rodilla", "brand:wikidata": "Q7356777", "brand:wikipedia": "es:Rodilla (franquicia)", "cuisine": "sandwich", "name": "Rodilla", "operator": "Rodilla", "source": "survey", "takeaway": "yes", "website": "https://www.rodilla.es/"}}, {"type": "node", "id": 4139108290, "lat": 40.4356582, "lon": -3.6896292, "tags": {"addr:housenumber": "45", "addr:street": "Paseo de la Castellana", "amenity": "restaurant", "cuisine": "sushi", "name": "Miyama", "opening_hours": "Mo-Sa 13:30-16:00, 20:30-00:00", "phone": "+34913910026", "website": "http://www.restaurantemiyama.com/"}}, {"type": "node", "id": 4140732306, "lat": 40.4285634, "lon": -3.6840453, "tags": {"addr:housenumber": "57", "addr:street": "Calle de Vel\u00e1zquez", "amenity": "restaurant", "name": "Lateral", "website": "http://www.lateral.com/restaurantes/velazquez/"}}, {"type": "node", "id": 4146685189, "lat": 40.4289984, "lon": -3.6831538, "tags": {"addr:housenumber": "26", "addr:street": "Calle de Don Ram\u00f3n de la Cruz", "amenity": "restaurant", "name": "El Patio del Fisg\u00f3n", "opening_hours": "Mo-Su 09:00-02:00", "website": "http://elpatiodelfisgon.com/"}}, {"type": "node", "id": 4153142690, "lat": 40.4373133, "lon": -3.6806565, "tags": {"amenity": "restaurant", "contact:email": "info@hamburguesanostra.com", "contact:phone": "+34 91 692 66 94", "cuisine": "burger", "name": "Hamburguesa Nostra", "opening_hours": "Mo-Sa 12:00-00:00; Su 12:00-17:00; Aug Su off", "source": "survey", "website": "http://www.hamburguesanostra.com/maria-de-molin"}}, {"type": "node", "id": 4173479792, "lat": 40.4236442, "lon": -3.6772273, "tags": {"amenity": "bar", "name": "Mes\u00f3n Paxairi\u00f1os"}}, {"type": "node", "id": 4179630904, "lat": 40.427661, "lon": -3.669028, "tags": {"shop": "kiosk"}}, {"type": "node", "id": 4213142651, "lat": 40.4238207, "lon": -3.6913777}, {"type": "node", "id": 4213142652, "lat": 40.4238234, "lon": -3.6914018}, {"type": "node", "id": 4213142653, "lat": 40.4238292, "lon": -3.6913623}, {"type": "node", "id": 4213142654, "lat": 40.4238319, "lon": -3.6914186}, {"type": "node", "id": 4213142655, "lat": 40.4238452, "lon": -3.6913497}, {"type": "node", "id": 4213142656, "lat": 40.4238476, "lon": -3.6914246}, {"type": "node", "id": 4213142657, "lat": 40.4238658, "lon": -3.6914225}, {"type": "node", "id": 4213142658, "lat": 40.4240177, "lon": -3.6912691}, {"type": "node", "id": 4213142659, "lat": 40.4240331, "lon": -3.6912635}, {"type": "node", "id": 4213142660, "lat": 40.4240366, "lon": -3.6913416}, {"type": "node", "id": 4213142661, "lat": 40.4240499, "lon": -3.6912695}, {"type": "node", "id": 4213142662, "lat": 40.4240534, "lon": -3.6913293}, {"type": "node", "id": 4213142663, "lat": 40.4240592, "lon": -3.691288}, {"type": "node", "id": 4213142664, "lat": 40.4240603, "lon": -3.691309}, {"type": "node", "id": 4225196029, "lat": 40.4274864, "lon": -3.6893702, "tags": {"amenity": "restaurant", "name": "Otto"}}, {"type": "node", "id": 4244619515, "lat": 40.4305308, "lon": -3.6768954, "tags": {"addr:housenumber": "59", "addr:street": "Calle del General D\u00edaz Porlier", "amenity": "restaurant", "name": "El Tulip\u00e1n", "phone": "+34 914025027"}}, {"type": "node", "id": 4275213982, "lat": 40.4230072, "lon": -3.6815711, "tags": {"addr:city": "Madrid", "addr:housenumber": "12", "addr:postcode": "28001", "addr:street": "Calle de Castell\u00f3", "amenity": "restaurant", "name": "Fonty Bistro", "smoking": "no"}}, {"type": "node", "id": 4293159033, "lat": 40.4364289, "lon": -3.6790105, "tags": {"amenity": "bar", "name": "Mr. Mind"}}, {"type": "node", "id": 4307227333, "lat": 40.4218723, "lon": -3.6902405, "tags": {"amenity": "restaurant", "name": "Banzai"}}, {"type": "node", "id": 4307227334, "lat": 40.4219475, "lon": -3.6903531, "tags": {"amenity": "restaurant", "name": "mama chico", "natural": "tree"}}, {"type": "node", "id": 4312924501, "lat": 40.4274024, "lon": -3.6697937, "tags": {"addr:city": "Madrid", "addr:housenumber": "146", "addr:postcode": "28009", "addr:street": "Calle de Alcal\u00e1", "amenity": "pub", "contact:facebook": "https://www.facebook.com/Cerveceria-Seny-64381486244", "email": "cerveceriaseny@hotmail.com", "name": "Cervecer\u00eda Seny", "opening_hours": "Mo-Th 11:30-15:00,18:30-01:00; Fr,Sa 11:30-15:00,18:30-02:00; Su 18:30-00:00", "outdoor_seating": "yes", "phone": "+34 912 81 14 37", "real_ale": "yes"}}, {"type": "node", "id": 4314899958, "lat": 40.4272752, "lon": -3.6700562, "tags": {"addr:city": "Madrid", "addr:housenumber": "142", "addr:postcode": "28009", "addr:street": "Calle de Alcal\u00e1", "amenity": "restaurant", "cuisine": "italian", "name": "Andrea", "phone": "+34 91 361 6842", "website": "http://www.andreaeisuoamici.es"}}, {"type": "node", "id": 4339113687, "lat": 40.4211297, "lon": -3.6897958, "tags": {"amenity": "restaurant", "cuisine": "japanese", "name": "dokidoki"}}, {"type": "node", "id": 4348859892, "lat": 40.4332169, "lon": -3.6748039, "tags": {"addr:housenumber": "86", "addr:street": "Calle del Conde de Pe\u00f1alver", "amenity": "restaurant", "name": "Restaurante Ca\u00f1ad\u00edo", "website": "http://restaurantecanadio.com/"}}, {"type": "node", "id": 4422164389, "lat": 40.4269494, "lon": -3.6859252, "tags": {"addr:city": "Madrid", "addr:country": "ES", "addr:housenumber": "28", "addr:postcode": "28001", "addr:state": "Comunidad de Madrid", "addr:street": "Calle de Ayala", "amenity": "restaurant", "cuisine": "spanish", "name": "Casa Dani", "opening_hours": "Mo-Su 06:30-20:30", "phone": "+34 915755925", "takeaway": "yes", "website": "https://www.casadani.es"}}, {"type": "node", "id": 4425377490, "lat": 40.4350751, "lon": -3.6795247, "tags": {"addr:city": "Madrid", "addr:country": "ES", "addr:housenumber": "73", "addr:postcode": "28006", "addr:street": "Calle del Pr\u00edncipe de Vergara", "amenity": "restaurant", "cuisine": "diner;breakfast;coffee_shop;deli", "email": "contacto@benditalocuracoffe.com", "internet_access": "wlan", "name": "Bendita Locura", "name:en": "Espa\u00f1ol", "opening_hours": "Mo 08:30-17:00; Tu-Th 08:30-00:00; Fr 08:30-01:30; Sa 09:30-01:30; Su 09:30-17:00", "phone": "+34 915632570", "website": "https://www.benditalocuracoffe.com"}}, {"type": "node", "id": 4448657792, "lat": 40.4277581, "lon": -3.6865592, "tags": {"addr:city": "Madrid", "addr:country": "ES", "addr:housenumber": "24", "addr:postcode": "28001", "addr:state": "Comunidad de Madrid", "addr:street": "Calle de Ayala", "name": "Mantequer\u00eda Bravo", "opening_hours": "Mo-Sa 09:30-14:30", "shop": "convenience"}}, {"type": "node", "id": 4461053490, "lat": 40.4300013, "lon": -3.6867911, "tags": {"addr:housenumber": "70", "addr:street": "Calle de Serrano", "branch": "Lencer\u00eda", "brand": "El Corte Ingl\u00e9s", "brand:wikidata": "Q623133", "brand:wikipedia": "en:El Corte Ingl\u00e9s", "name": "El Corte Ingl\u00e9s", "shop": "department_store"}}, {"type": "node", "id": 4461053790, "lat": 40.4286439, "lon": -3.6874406, "tags": {"addr:housenumber": "41", "addr:postcode": "28001", "addr:street": "Calle de Serrano", "amenity": "restaurant", "brand": "Wagamama", "brand:wikidata": "Q503715", "brand:wikipedia": "en:Wagamama", "cuisine": "asian", "name": "Wagamama", "name:en": "Starbucks", "opening_hours": "Mo-Su 12:00-00:00", "operator": "Grupo Vips", "phone": "+34 91 275 21 45", "website": "https://www.wagamama.es/es-es/restaurantes/serrano"}}, {"type": "node", "id": 4514099290, "lat": 40.4277826, "lon": -3.6871542, "tags": {"addr:city": "Madrid", "addr:country": "ES", "addr:housenumber": "52", "addr:postcode": "28001", "addr:street": "Calle Serrano", "amenity": "restaurant", "email": "info@streetxo.com", "name": "StreetXo", "opening_hours": "Mo-Th 13:00-16:00,20:00-23:00; Fr-Su 13:00-23:00", "phone": "+34 915 31 98 84", "website": "https://www.streetxo.com"}}, {"type": "node", "id": 4515467397, "lat": 40.4241477, "lon": -3.6786315, "tags": {"addr:city": "Madrid", "addr:housenumber": "8", "addr:postcode": "28001", "addr:street": "Calle del General Pardi\u00f1as", "amenity": "restaurant", "cuisine": "burger", "name": "Gobu", "opening_hours": "Tu,We 13:30-16:15,21:00-23:15; Th-Sa 13:30-16:15,21:00-24:00; Su 13:30-16:15", "phone": "+34 915 75 76 41", "smoking": "no", "takeaway": "yes", "website": "http://www.gobuburger.com"}}, {"type": "node", "id": 4537651689, "lat": 40.4339, "lon": -3.685689, "tags": {"addr:housenumber": "4", "addr:postcode": "28006", "addr:street": "Calle de Maldonado", "amenity": "restaurant", "name": "Esbardos", "name:es": "Esbardos"}}, {"type": "node", "id": 4544947437, "lat": 40.423817, "lon": -3.6767749, "tags": {"amenity": "cafe"}}, {"type": "node", "id": 4547342631, "lat": 40.4221408, "lon": -3.6908645, "tags": {"addr:city": "Madrid", "addr:housenumber": "4", "addr:street": "Calle de Recoletos", "amenity": "restaurant", "name": "Taberna Pedraza", "old_name": "Thai Garden 2112", "phone": "+34 913 428 240", "website": "https://www.tabernapedraza.com/"}}, {"type": "node", "id": 4552564196, "lat": 40.4272006, "lon": -3.6709843, "tags": {"addr:housenumber": "183", "addr:street": "Calle de Alcal\u00e1", "amenity": "cafe", "name": "Cafeter\u00eda Audrey"}}, {"type": "node", "id": 4552614689, "lat": 40.4268851, "lon": -3.6716237, "tags": {"addr:city": "Madrid", "addr:country": "ES", "addr:housenumber": "181", "addr:postcode": "28009", "addr:street": "Calle de Alcal\u00e1", "name": "Kprichos Argentinos", "name:es": "Kprichos Argentinos", "shop": "bakery"}}, {"type": "node", "id": 4553553790, "lat": 40.4322495, "lon": -3.6748864, "tags": {"amenity": "restaurant", "name": "La Mar de Gambas", "old_name": "Lizarr\u00e1n;Porciner\u00eda Braser\u00eda Happig", "website": "https://www.lamardegambas.com/"}}, {"type": "node", "id": 4553647389, "lat": 40.4261321, "lon": -3.673295, "tags": {"addr:housenumber": "165", "addr:street": "Calle de Alcal\u00e1", "amenity": "restaurant", "name": "Faborit", "name:es": "Faborit"}}, {"type": "node", "id": 4553647390, "lat": 40.4294404, "lon": -3.6751493, "tags": {"addr:city": "Madrid", "addr:housenumber": "42", "addr:street": "Calle del Conde de Pe\u00f1alver", "email": "luzon@pastelerialuzon.com", "name": "Pasteler\u00eda Luz\u00f3n", "opening_hours": "Mo-Fr 08:30-14:30, 17:00-21:00; Sa-Su 09:30-14:30, 17:00-21:00", "phone": "+34 914019856", "shop": "pastry", "website": "http://www.pastelerialuzon.com"}}, {"type": "node", "id": 4553647589, "lat": 40.4247187, "lon": -3.6774947, "tags": {"addr:city": "Madrid", "addr:country": "ES", "addr:housenumber": "62", "addr:postcode": "28001", "addr:street": "Calle de Goya", "amenity": "restaurant", "name": "Nostrum", "name:ca": "Nostrum", "name:es": "Nostrum"}}, {"type": "node", "id": 4553647689, "lat": 40.4368916, "lon": -3.6829456, "tags": {"addr:city": "Madrid", "addr:housenumber": "124", "addr:postcode": "28006", "addr:street": "Calle de Vel\u00e1zquez", "amenity": "restaurant", "name": "Faborit", "name:es": "Faborit"}}, {"type": "node", "id": 4554247790, "lat": 40.4259638, "lon": -3.6842617, "tags": {"addr:housenumber": "39", "addr:street": "Calle de Vel\u00e1zquez", "brand": "Nespresso", "brand:wikidata": "Q301301", "brand:wikipedia": "en:Nespresso", "name": "Nespresso", "name:en": "Nespresso", "name:es": "Nespresso", "shop": "coffee"}}, {"type": "node", "id": 4565394682, "lat": 40.4260075, "lon": -3.689016, "tags": {"addr:city": "Madrid", "addr:street": "Calle Marqu\u00e9s de Zurgena", "name": "Mam\u00e1 Framboise Alta Pasteler\u00eda", "shop": "pastry"}}, {"type": "node", "id": 4565394684, "lat": 40.4195226, "lon": -3.6906551, "tags": {"addr:city": "Madrid", "addr:housenumber": "54", "addr:postcode": "28014", "addr:street": "Calle de Alcal\u00e1", "amenity": "cafe", "amenity_1": "pastry", "contact:website": "http://www.vait.es/", "cuisine": "coffee_shop", "name": "Vait Alcal\u00e1 Pasteler\u00eda", "phone": "+34-913-589-880"}}, {"type": "node", "id": 4565411735, "lat": 40.4262939, "lon": -3.6848974, "tags": {"addr:city": "Madrid", "addr:housenumber": "28", "addr:street": "Calle de Hermosilla", "brand": "Carrefour Express", "brand:wikidata": "Q2940190", "brand:wikipedia": "fr:Carrefour Express", "name": "Carrefour Express", "opening_hours": "Mo-Su 09:00-21:00", "phone": "+34 914908900", "shop": "convenience", "source": "site visit 21 December 2016, address and phone on receipt"}}, {"type": "node", "id": 4567499533, "lat": 40.4256766, "lon": -3.6886081, "tags": {"addr:city": "Madrid", "addr:country": "ES", "addr:housenumber": "5", "addr:postcode": "28001", "addr:street": "Calle de Goya", "delivery": "yes", "description": "high-end gourmet shop with delicatessen products, fine wines, cheeses, meats, fruits and vegetables", "email": "goldgourmet@hotmail.com", "name": "Gold Gourmet", "opening_hours": "Mo-Sa 09:00-21:00; Su 10:00-21:00; PH 10:00-21:00", "phone": "+34-91-173-1885", "shop": "deli", "website": "http://www.goldgourmet.es"}}, {"type": "node", "id": 4576234317, "lat": 40.4285602, "lon": -3.6874564, "tags": {"addr:housenumber": "41", "addr:street": "Calle de Serrano", "amenity": "restaurant", "brand": "Vips", "brand:wikidata": "Q66087862", "cuisine": "international", "name": "Vips", "source": "survey"}}, {"type": "node", "id": 4576234322, "lat": 40.4276809, "lon": -3.6872363, "tags": {"addr:housenumber": "52", "addr:street": "Calle de Serrano", "source": "WMS Catastro"}}, {"type": "node", "id": 4579195223, "lat": 40.4242199, "lon": -3.6827184, "tags": {"brand": "Supercor", "brand:wikidata": "Q6135841", "brand:wikipedia": "es:Supercor", "name": "Supercor Expr\u00e9s", "opening_hours": "08:30-24:00", "shop": "convenience"}}, {"type": "node", "id": 4579350791, "lat": 40.4237313, "lon": -3.6800903, "tags": {"addr:housenumber": "8", "addr:street": "Calle del Pr\u00edncipe de Vergara", "amenity": "pub", "name": "Cervecer\u00eda Vergara"}}, {"type": "node", "id": 4582592297, "lat": 40.42693, "lon": -3.6877841, "tags": {"addr:city": "Madrid", "addr:street": "Calle de Serrano", "amenity": "cafe", "brand": "Le Pain Quotidien", "brand:wikidata": "Q2046903", "brand:wikipedia": "en:Le Pain Quotidien", "cuisine": "coffee_shop", "name": "Le Pain Quotidien", "takeaway": "yes"}}, {"type": "node", "id": 4582592298, "lat": 40.4280152, "lon": -3.6882857, "tags": {"addr:city": "Madrid", "addr:street": "Calle de Ayala", "name": "La Fuente", "shop": "alcohol"}}, {"type": "node", "id": 4582592299, "lat": 40.4284552, "lon": -3.6874904, "tags": {"addr:city": "Madrid", "addr:street": "Calle de Serrano", "amenity": "fast_food", "branch": "Sandwich", "brand": "Rodilla", "brand:wikidata": "Q7356777", "brand:wikipedia": "es:Rodilla (franquicia)", "cuisine": "sandwich", "name": "Rodilla", "takeaway": "yes"}}, {"type": "node", "id": 4582592300, "lat": 40.4289345, "lon": -3.6874033, "tags": {"addr:city": "Madrid", "addr:street": "Calle de Serrano", "amenity": "biergarten", "name": "Cervercer\u00eda Serrano"}}, {"type": "node", "id": 4582592301, "lat": 40.4290723, "lon": -3.6873805, "tags": {"addr:city": "Madrid", "addr:street": "Calle de Serrano", "amenity": "restaurant", "cuisine": "pizza", "name": "Pizza Emporio"}}, {"type": "node", "id": 4582592302, "lat": 40.4258913, "lon": -3.6813447, "tags": {"addr:city": "Madrid", "addr:housenumber": "36", "addr:postcode": "28001", "addr:street": "Calle de Castell\u00f3", "brand": "Carrefour Express", "brand:wikidata": "Q2940190", "brand:wikipedia": "fr:Carrefour Express", "name": "Carrefour Express", "shop": "convenience"}}, {"type": "node", "id": 4594454594, "lat": 40.4344478, "lon": -3.6739866, "tags": {"amenity": "bar", "name": "Cervecer\u00eda Bar Los Calamares", "name:es": "Cervecer\u00eda Bar Los Calamares"}}, {"type": "node", "id": 4594489292, "lat": 40.4311983, "lon": -3.6710851, "tags": {"amenity": "bar", "name": "Caf\u00e9 Moli\u00e8re", "name:es": "Caf\u00e9 Moli\u00e8re"}}, {"type": "node", "id": 4594489392, "lat": 40.4306825, "lon": -3.6706599, "tags": {"amenity": "bar", "name": "Sidney", "name:en": "Sidney"}}, {"type": "node", "id": 4594496792, "lat": 40.4310236, "lon": -3.6709463, "tags": {"amenity": "bar", "name": "Cervecer\u00eda Toni", "name:es": "Cervecer\u00eda Toni"}}, {"type": "node", "id": 4594527791, "lat": 40.4356598, "lon": -3.6759427, "tags": {"amenity": "restaurant", "cuisine": "japanese", "name": "Sushi Ol\u00e9", "name:es": "Sushi Ol\u00e9"}}, {"type": "node", "id": 4594527792, "lat": 40.4332984, "lon": -3.673515, "tags": {"addr:city": "Madrid", "addr:street": "Calle Francisco Silvela", "amenity": "pub", "brewery": "yes", "cuisine": "tapas;fast_food", "food": "yes", "name": "Barril Express", "name:es": "Barril Express", "outdoor_seating": "yes"}}, {"type": "node", "id": 4594542401, "lat": 40.4342002, "lon": -3.6743796, "tags": {"name": "Pescados Jose", "name:es": "Pescados Jose", "shop": "seafood"}}, {"type": "node", "id": 4594542403, "lat": 40.4337662, "lon": -3.6739806, "tags": {"amenity": "bar", "name": "Don Carmelo", "name:es": "Don Carmelo"}}, {"type": "node", "id": 4594542404, "lat": 40.4335184, "lon": -3.6737096, "tags": {"amenity": "fast_food", "brand": "Rodilla", "brand:wikidata": "Q7356777", "brand:wikipedia": "es:Rodilla (franquicia)", "cuisine": "sandwich", "name": "Rodilla", "takeaway": "yes"}}, {"type": "node", "id": 4594568704, "lat": 40.4357931, "lon": -3.6753691, "tags": {"amenity": "bar", "name": "Valladares", "name:es": "Valladares"}}, {"type": "node", "id": 4594569095, "lat": 40.4359431, "lon": -3.6755514, "tags": {"name": "Frutas y Verduras", "name:es": "Frutas y Verduras", "shop": "greengrocer"}}, {"type": "node", "id": 4594569396, "lat": 40.436813, "lon": -3.6771294, "tags": {"amenity": "bar", "name": "Taberna Degusta", "name:es": "Taberna Degusta"}}, {"type": "node", "id": 4594569597, "lat": 40.4364911, "lon": -3.6768136, "tags": {"amenity": "restaurant", "name": "Silvela 77", "name:es": "Silvela 77"}}, {"type": "node", "id": 4594569598, "lat": 40.4340816, "lon": -3.674275, "tags": {"amenity": "bar", "name": "Euronews Cafe", "name:en": "Euronews Cafe"}}, {"type": "node", "id": 4594569895, "lat": 40.4361236, "lon": -3.6764297, "tags": {"amenity": "bar", "name": "Martinica", "name:es": "Martinica"}}, {"type": "node", "id": 4594569896, "lat": 40.4302058, "lon": -3.6709173, "tags": {"amenity": "restaurant", "name": "Taberna del Olivo II", "name:es": "Taberna del Olivo II"}}, {"type": "node", "id": 4594569897, "lat": 40.4301107, "lon": -3.6708404, "tags": {"name": "Boutique del Pan", "name:es": "Boutique del Pan", "shop": "bakery"}}, {"type": "node", "id": 4594571289, "lat": 40.435324, "lon": -3.6748881, "tags": {"name": "Nuevo Silvela", "name:es": "Nuevo Silvela", "shop": "butcher"}}, {"type": "node", "id": 4594571293, "lat": 40.4370393, "lon": -3.6773899, "tags": {"amenity": "bar", "name": "Castilla", "name:es": "Castilla"}}, {"type": "node", "id": 4594571297, "lat": 40.4294238, "lon": -3.6702485, "tags": {"amenity": "fast_food", "name": "D\u00f6ner Kebap Classico", "name:es": "D\u00f6ner Kebap Classico"}}, {"type": "node", "id": 4594613789, "lat": 40.4352448, "lon": -3.6755213, "tags": {"amenity": "cafe", "name": "Mayoma Cafeter\u00eda Churrer\u00eda", "name:es": "Mayoma Cafeter\u00eda Churrer\u00eda"}}, {"type": "node", "id": 4594662489, "lat": 40.4312007, "lon": -3.6717302, "tags": {"name": "Vino Premier.com", "name:es": "Vino Premier.com", "shop": "wine"}}, {"type": "node", "id": 4596780491, "lat": 40.4223791, "lon": -3.6895175, "tags": {"addr:housenumber": "2", "addr:street": "Calle de Gil de Santiva\u00f1es", "amenity": "restaurant", "cuisine": "italian", "name": "Flavia", "website": "http://flaviamadrid.com/"}}, {"type": "node", "id": 4602972001, "lat": 40.4221513, "lon": -3.6905695, "tags": {"amenity": "restaurant", "cuisine": "arab", "name": "Al-Mounia", "name:ar": "\u0645\u0637\u0639\u0645 al movnia restaurant", "website": "https://www.restaurantealmounia.es/"}}, {"type": "node", "id": 4630892894, "lat": 40.4337426, "lon": -3.6876648, "tags": {"addr:postcode": "28046", "amenity": "restaurant", "name": "Marieta", "phone": "+34915757553", "website": "https://www.marietamadrid.com/"}}, {"type": "node", "id": 4630892895, "lat": 40.43351, "lon": -3.6876199, "tags": {"addr:housenumber": "42", "addr:postcode": "28046", "addr:street": "Paseo de la Castellana", "amenity": "restaurant", "name": "Lateral", "phone": "+34915752553", "website": "http://www.lateral.com"}}, {"type": "node", "id": 4630901791, "lat": 40.4332642, "lon": -3.6876867, "tags": {"addr:housenumber": "40", "addr:postcode": "28046", "addr:street": "Paseo de la Castellana", "amenity": "restaurant", "name": "Flores de Alcachofa", "phone": "+34915027711", "website": "http://www.floresdealcachofa.com"}}, {"type": "node", "id": 4637849188, "lat": 40.4340278, "lon": -3.6747581, "tags": {"addr:city": "Madrid", "addr:street": "Calle del Conde de Pe\u00f1alver", "amenity": "restaurant", "name": "Sobre Vino"}}, {"type": "node", "id": 4637852489, "lat": 40.4338154, "lon": -3.6747784, "tags": {"addr:city": "Madrid", "addr:street": "Calle del Conde de Pe\u00f1alver", "amenity": "cafe", "name": "Cafeter\u00eda JM"}}, {"type": "node", "id": 4637852490, "lat": 40.4335952, "lon": -3.6747909, "tags": {"addr:city": "Madrid", "addr:street": "Calle del Conde de Pe\u00f1alver", "amenity": "restaurant", "name": "Don Carmelo"}}, {"type": "node", "id": 4637852491, "lat": 40.4335041, "lon": -3.6742798, "tags": {"addr:city": "Madrid", "addr:housenumber": "75", "addr:postcode": "28006", "addr:street": "Calle de Maldonado", "amenity": "restaurant", "contact:phone": "+34 910 27 40 02", "cuisine": "mexican", "name": "Tequilero by Hoos", "website": "http://tequilerobyhoos.com/"}}, {"type": "node", "id": 4648306698, "lat": 40.4194728, "lon": -3.6893612, "tags": {"addr:city": "Madrid", "addr:housenumber": "10", "addr:postcode": "28001", "addr:street": "Plaza de la Independencia", "amenity": "cafe", "contact:phone": "+34 91 52 28 785", "contact:website": "http://www.harinamadrid.com/", "name": "Harina", "shop": "bakery"}}, {"type": "node", "id": 4648306702, "lat": 40.4196532, "lon": -3.6898222, "tags": {"addr:city": "Madrid", "addr:housenumber": "58", "addr:postcode": "28014", "addr:street": "Calle de Alcal\u00e1", "amenity": "restaurant", "contact:phone": "+34 91 531 60 85", "contact:website": "http://www.arahyrestaurante.com/", "name": "Arahy"}}, {"type": "node", "id": 4648390269, "lat": 40.4200257, "lon": -3.6898324, "tags": {"addr:city": "Madrid", "addr:housenumber": "67", "addr:postcode": "28014", "addr:street": "Calle de Alcal\u00e1", "amenity": "fast_food", "brand": "Rodilla", "brand:wikidata": "Q7356777", "brand:wikipedia": "es:Rodilla (franquicia)", "contact:phone": "+34 917555322", "contact:website": "http://www.rodilla.es/", "cuisine": "sandwich", "name": "Rodilla", "takeaway": "yes"}}, {"type": "node", "id": 4648428275, "lat": 40.4198707, "lon": -3.6910587, "tags": {"addr:city": "Madrid", "addr:housenumber": "61", "addr:postcode": "28014", "addr:street": "Calle de Alcal\u00e1", "amenity": "fast_food", "brand": "Subway", "brand:wikidata": "Q244457", "brand:wikipedia": "en:Subway (restaurant)", "contact:phone": "+34 91 002 67 56", "contact:website": "http://subwayspain.com/es/", "cuisine": "sandwich", "name": "Subway", "takeaway": "yes"}}, {"type": "node", "id": 4648428277, "lat": 40.4198439, "lon": -3.6911916, "tags": {"addr:city": "Madrid", "addr:housenumber": "61", "addr:postcode": "28014", "addr:street": "Calle de Alcal\u00e1", "amenity": "cafe", "contact:phone": "+34 916 492 674", "contact:website": "http://www.faborit.com/", "name": "Faborit"}}, {"type": "node", "id": 4648428280, "lat": 40.4198001, "lon": -3.6915135, "tags": {"addr:city": "Madrid", "addr:housenumber": "57", "addr:postcode": "28014", "addr:street": "Calle de Alcal\u00e1", "amenity": "restaurant", "brand": "Vips", "brand:wikidata": "Q66087862", "contact:phone": "+34 912759581", "contact:website": "https://www.vips.es", "cuisine": "international", "name": "Vips"}}, {"type": "node", "id": 4648428282, "lat": 40.4197673, "lon": -3.6917503, "tags": {"addr:city": "Madrid", "addr:housenumber": "55", "addr:postcode": "28014", "addr:street": "Calle de Alcal\u00e1", "amenity": "restaurant", "contact:phone": "+34 91 137 59 52", "contact:website": "http://www.diferen-tmadrid.es/", "name": "Diferen-T"}}, {"type": "node", "id": 4688423873, "lat": 40.4238118, "lon": -3.6871192, "tags": {"addr:city": "Madrid", "addr:housenumber": "8", "addr:postcode": "28001", "addr:street": "Calle de Jorge Juan", "amenity": "restaurant", "name": "La Bien Aparecida", "phone": "+34 91 159 39 39"}}, {"type": "node", "id": 4688479045, "lat": 40.4227772, "lon": -3.6897814, "tags": {"addr:city": "Madrid", "addr:housenumber": "2", "addr:postcode": "28001", "addr:street": "Calle de Villanueva", "amenity": "restaurant", "email": "julien@sqd.es", "name": "SQD Meat Point", "phone": "+34 91 435 30 71"}}, {"type": "node", "id": 4690316265, "lat": 40.4351276, "lon": -3.684034, "tags": {"addr:city": "Madrid", "addr:housenumber": "11", "addr:postcode": "28006", "addr:street": "Calle de Diego de Le\u00f3n", "amenity": "restaurant", "email": "gestion@kenadeluisarevalo.com", "name": "Kena", "phone": "+34 91 725 96 48"}}, {"type": "node", "id": 4704036994, "lat": 40.4262222, "lon": -3.6730146, "tags": {"addr:city": "Madrid", "addr:housenumber": "167", "addr:street": "Calle de Alcal\u00e1", "amenity": "restaurant", "cuisine": "asian", "name": "Tuk Tuk", "phone": "+34663447309", "website": "http://tuktukstreetfood.es/"}}, {"type": "node", "id": 4704927189, "lat": 40.4315654, "lon": -3.6749469, "tags": {"addr:city": "Madrid", "addr:country": "ES", "addr:housenumber": "68", "addr:postcode": "28006", "addr:street": "Calle del Conde de Pe\u00f1alver", "name": "Pasteleria Manolo", "name:es": "Pasteleria Manolo", "shop": "bakery"}}, {"type": "node", "id": 4719356292, "lat": 40.4249301, "lon": -3.6839263, "tags": {"amenity": "cafe", "brand": "Starbucks", "brand:wikidata": "Q37158", "brand:wikipedia": "en:Starbucks", "cuisine": "coffee_shop", "internet_access": "wlan", "name": "Starbucks", "official_name": "Starbucks Coffee", "takeaway": "yes"}}, {"type": "node", "id": 4764521140, "lat": 40.4242441, "lon": -3.6786119, "tags": {"addr:housenumber": "10", "addr:street": "Calle del General Pardi\u00f1as", "amenity": "bar", "name": "El buey", "name:es": "El buey"}}, {"type": "node", "id": 4767505723, "lat": 40.4361666, "lon": -3.6851407, "tags": {"amenity": "bar", "name": "Los Claveles Tavern & Music", "name:es": "Los Claveles Tavern & Music", "wheelchair": "no"}}, {"type": "node", "id": 4767532422, "lat": 40.4360482, "lon": -3.6842106, "tags": {"name": "Pancomido", "name:es": "Pancomido", "shop": "bakery"}}, {"type": "node", "id": 4767854322, "lat": 40.4363269, "lon": -3.6850158, "tags": {"brand": "Dia", "brand:wikidata": "Q925132", "brand:wikipedia": "es:DIA (supermercados)", "name": "Dia", "shop": "supermarket"}}, {"type": "node", "id": 4774553324, "lat": 40.420286, "lon": -3.6911899, "tags": {"addr:city": "Madrid", "addr:housenumber": "6", "addr:postcode": "28001", "addr:street": "Calle del Marqu\u00e9s del Duero", "amenity": "restaurant", "name": "Pasacalles"}}, {"type": "node", "id": 4774553325, "lat": 40.4202705, "lon": -3.6910959, "tags": {"addr:city": "Madrid", "addr:housenumber": "8", "addr:postcode": "28001", "addr:street": "Calle del Marqu\u00e9s del Duero", "amenity": "bar", "contact:facebook": "https://es-es.facebook.com/St-Johns-cocteler%C3%ADa-402940313168045/", "contact:phone": "+34 91 575 81 66", "contact:website": "http://cocteleria-stjohns.com/", "name": "St John's"}}, {"type": "node", "id": 4774553326, "lat": 40.4206689, "lon": -3.6902133, "tags": {"addr:city": "Madrid", "addr:housenumber": "1", "addr:postcode": "28001", "addr:street": "Calle de Villalar", "amenity": "restaurant", "contact:phone": "+34 914 355 106", "contact:website": "http://aneltapas.com/", "cuisine": "regional", "name": "a.n.E.l"}}, {"type": "node", "id": 4774553328, "lat": 40.4203325, "lon": -3.6898564, "tags": {"addr:city": "Madrid", "addr:housenumber": "18", "addr:postcode": "28001", "addr:street": "Calle de Salustiano Ol\u00f3zaga", "amenity": "cafe", "contact:phone": "+34 91 309 09 55", "contact:website": "http://www.vailima.es/", "name": "Love Cofee"}}, {"type": "node", "id": 4778747544, "lat": 40.4223247, "lon": -3.6909735, "tags": {"addr:city": "Madrid", "addr:housenumber": "1", "addr:postcode": "28001", "addr:street": "Calle de Recoletos", "amenity": "cafe", "brand": "Santagloria", "brand:wikidata": "Q54606497", "contact:phone": "+34 914319000", "contact:website": "https://www.santagloria.com", "name": "Santagloria", "shop": "bakery"}}, {"type": "node", "id": 4778747545, "lat": 40.4220813, "lon": -3.6907483, "tags": {"addr:city": "Madrid", "addr:housenumber": "4", "addr:postcode": "28001", "addr:street": "Calle de Recoletos", "amenity": "restaurant", "contact:phone": "+34 914 31 84 17", "contact:website": "https://newyorkburger.es", "cuisine": "burger", "name": "New York Burger"}}, {"type": "node", "id": 4778747546, "lat": 40.4218211, "lon": -3.6898244, "tags": {"addr:city": "Madrid", "addr:housenumber": "13", "addr:postcode": "28001", "addr:street": "Calle de Recoletos", "amenity": "restaurant", "contact:phone": "+34 91 575 6453", "contact:website": "http://madrid.mestizomx.com/", "cuisine": "mexican", "name": "Mestizo"}}, {"type": "node", "id": 4798699721, "lat": 40.422341, "lon": -3.6860497, "tags": {"addr:housenumber": "26", "addr:postcode": "28001", "addr:street": "Calle de Villanueva", "amenity": "restaurant", "name": "El Escondite de Villanueva", "opening_hours": "Mo-Su 08:00-02:00", "phone": "+34 914313349", "website": "http://www.elesconditedevillanueva.com"}}, {"type": "node", "id": 4836736225, "lat": 40.4237074, "lon": -3.6851375, "tags": {"addr:city": "Madrid", "addr:country": "ES", "addr:housenumber": "20", "addr:postcode": "28001", "addr:street": "Calle de Jorge Juan", "amenity": "restaurant", "name": "Amazonico", "name:es": "Amazonico"}}, {"type": "node", "id": 4836738964, "lat": 40.4359229, "lon": -3.6814122, "tags": {"addr:housenumber": "40", "addr:street": "Calle del General Ora\u00e1", "amenity": "cafe", "description": "info@lotscoffeehouse.com", "name": "Lots Coffee House", "opening_hours": "Mo-Fr 08:00-14:00, 15:30-18:00", "phone": "+34611464286", "website": "http://www.lotscoffeehouse.com"}}, {"type": "node", "id": 4844071423, "lat": 40.4328881, "lon": -3.6748022, "tags": {"addr:housenumber": "82", "addr:street": "Calle del Conde de Pe\u00f1alver", "amenity": "restaurant", "name": "La Cuchara"}}, {"type": "node", "id": 4885020979, "lat": 40.4205392, "lon": -3.6873709, "tags": {"addr:city": "Madrid", "addr:country": "ES", "addr:housenumber": "1", "addr:postcode": "28001", "addr:street": "Calle de Claudio Coello", "amenity": "cafe", "name": "El Perro y la Galleta"}}, {"type": "node", "id": 4885020980, "lat": 40.4205668, "lon": -3.6869229, "tags": {"addr:city": "Madrid", "addr:country": "ES", "addr:housenumber": "77", "addr:postcode": "28001", "addr:street": "Calle de Alcal\u00e1", "name": "Moulin Chocolat", "phone": "+34 91 4318145", "shop": "confectionery", "source": "survey", "website": "https://moulinchocolat.com/"}}, {"type": "node", "id": 4885020981, "lat": 40.4205872, "lon": -3.6868224, "tags": {"addr:city": "Madrid", "addr:country": "ES", "addr:housenumber": "77", "addr:postcode": "28001", "addr:street": "Calle de Alcal\u00e1", "amenity": "restaurant", "name": "La Bodeguita de F\u00e1bula", "source": "survey"}}, {"type": "node", "id": 4885020984, "lat": 40.4208843, "lon": -3.6854531, "tags": {"addr:city": "Madrid", "addr:country": "ES", "addr:housenumber": "87", "addr:postcode": "28001", "addr:street": "Calle de Alcal\u00e1", "amenity": "cafe", "name": "Copalcal\u00e1", "source": "survey"}}, {"type": "node", "id": 4885020985, "lat": 40.4209568, "lon": -3.6851151, "tags": {"addr:city": "Madrid", "addr:country": "ES", "addr:housenumber": "89", "addr:postcode": "28001", "addr:street": "Calle de Alcal\u00e1", "amenity": "cafe", "name": "La Mejor Tarta de Chocolate del Mundo", "source": "survey"}}, {"type": "node", "id": 4885020987, "lat": 40.4207771, "lon": -3.6856784, "tags": {"addr:city": "Madrid", "addr:country": "ES", "addr:housenumber": "85", "addr:postcode": "28001", "addr:street": "Calle de Alcal\u00e1", "shop": "kiosk", "source": "survey"}}, {"type": "node", "id": 4885020995, "lat": 40.421502, "lon": -3.6834669, "tags": {"addr:city": "Madrid", "addr:country": "ES", "addr:housenumber": "99", "addr:postcode": "28001", "addr:street": "Calle de Alcal\u00e1", "amenity": "restaurant", "name": "Casa Domingo", "source": "survey"}}, {"type": "node", "id": 4885056594, "lat": 40.4210436, "lon": -3.6868465, "tags": {"shop": "convenience"}}, {"type": "node", "id": 4885056597, "lat": 40.4210936, "lon": -3.6880723, "tags": {"addr:city": "Madrid", "addr:country": "ES", "addr:housenumber": "2", "addr:postcode": "28001", "addr:street": "Calle de Serrano", "amenity": "restaurant", "name": "La Vanduca", "outdoor_seating": "yes", "source": "survey"}}, {"type": "node", "id": 4885056598, "lat": 40.4208179, "lon": -3.6888032, "tags": {"addr:city": "Madrid", "addr:country": "ES", "addr:housenumber": "1", "addr:postcode": "28001", "addr:street": "Calle de Serrano", "amenity": "fast_food", "brand": "Sushi Shop", "brand:wikidata": "Q3505657", "brand:wikipedia": "fr:Sushi Shop", "cuisine": "sushi", "name": "Sushi Shop", "source": "survey", "takeaway": "yes"}}, {"type": "node", "id": 4927372921, "lat": 40.4205057, "lon": -3.6873462, "tags": {"amenity": "bar", "name": "El perro y la galleta", "name:es": "El perro y la galleta"}}, {"type": "node", "id": 4933666321, "lat": 40.4266023, "lon": -3.6879919, "tags": {"addr:housenumber": "7", "addr:postcode": "28001", "addr:street": "Calle de Hermosilla", "amenity": "restaurant", "name": "Tierra de Queiles", "name:es": "Tierra de Queiles"}}, {"type": "node", "id": 4944807272, "lat": 40.4298235, "lon": -3.6769862, "tags": {"amenity": "restaurant", "name": "Monteagudo"}}, {"type": "node", "id": 4951797527, "lat": 40.4230831, "lon": -3.6799903, "tags": {"name": "Chino", "name:es": "Chino", "shop": "convenience"}}, {"type": "node", "id": 4951797528, "lat": 40.4231386, "lon": -3.6798593, "tags": {"amenity": "cafe", "name": "Alboraya", "name:es": "Alboraya"}}, {"type": "node", "id": 4951801025, "lat": 40.4230446, "lon": -3.680095, "tags": {"amenity": "fast_food", "brand": "Subway", "brand:wikidata": "Q244457", "brand:wikipedia": "en:Subway (restaurant)", "cuisine": "sandwich", "name": "Subway", "name:es": "Subway", "takeaway": "yes"}}, {"type": "node", "id": 4953243821, "lat": 40.422998, "lon": -3.6828447, "tags": {"addr:housenumber": "12", "addr:postcode": "28001", "addr:street": "Calle de N\u00fa\u00f1ez de Balboa", "amenity": "restaurant", "cuisine": "burger", "name": "Goiko Grill", "name:es": "Goiko Grill", "phone": "+34910608862", "website": "https://www.goikogrill.com/"}}, {"type": "node", "id": 4958833021, "lat": 40.4295828, "lon": -3.6725469, "tags": {"addr:housenumber": "86", "addr:street": "Calle de Jos\u00e9 Ortega y Gasset", "name": "Animari", "name:es": "Animari", "shop": "bakery"}}, {"type": "node", "id": 5057892723, "lat": 40.4286741, "lon": -3.6874341, "tags": {"addr:housenumber": "41", "addr:street": "Calle de Serrano", "amenity": "restaurant", "diet:vegan": "yes", "diet:vegetarian": "yes", "name": "Honest Green"}}, {"type": "node", "id": 5059496924, "lat": 40.4205146, "lon": -3.6873935, "tags": {"addr:housenumber": "1", "addr:street": "Calle de Claudio Coello", "amenity": "restaurant", "name": "El perro y la galleta"}}, {"type": "node", "id": 5070214923, "lat": 40.4281622, "lon": -3.6696399, "tags": {"amenity": "fast_food", "brand": "Rodilla", "brand:wikidata": "Q7356777", "brand:wikipedia": "es:Rodilla (franquicia)", "cuisine": "sandwich", "name": "Rodilla", "name:es": "Rodilla", "takeaway": "yes"}}, {"type": "node", "id": 5070216322, "lat": 40.4280915, "lon": -3.6696578, "tags": {"addr:housenumber": "3", "addr:postcode": "28028", "addr:street": "Plaza de Manuel Becerra", "amenity": "cafe", "name": "Men\u00e9ndez", "phone": "+34 91 4011294"}}, {"type": "node", "id": 5085913649, "lat": 40.4285126, "lon": -3.6862596, "tags": {"addr:housenumber": "67", "addr:postcode": "28001", "addr:street": "Calle de Claudio Coello", "amenity": "restaurant", "cuisine": "fine_dining", "name": "Ram\u00f3n Freixa", "opening_hours": "Tu-Sa 13:30-15:30, 21:00-22:30", "phone": "+34 917 81 82 62", "website": "https://www.eltenedor.es/"}}, {"type": "node", "id": 5085990522, "lat": 40.4247754, "lon": -3.6784969, "tags": {"addr:city": "Madrid", "addr:country": "ES", "addr:housenumber": "50", "addr:postcode": "28001", "addr:street": "Calle de Goya", "amenity": "cafe", "cuisine": "ice_cream;tea;coffee_shop", "name": "Mistura Ice Cream & Coffee", "opening_hours": "Mo-Th 08:00-23:00; Fr 08:00-24:00; Sa 10:00-24:00; Su 10:00-23:00", "phone": "+34 910 51 28 26", "website": "https://misturaicecream.com/"}}, {"type": "node", "id": 5143359122, "lat": 40.4243394, "lon": -3.679035, "tags": {"addr:city": "Madrid", "addr:housenumber": "7", "addr:postcode": "28001", "addr:street": "Calle Espartinas", "amenity": "restaurant", "name": "O'Nabo de Lugo", "phone": "+34 914 35 62 32", "smoking": "no"}}, {"type": "node", "id": 5178202211, "lat": 40.4369659, "lon": -3.6876663, "tags": {"amenity": "restaurant", "name": "La Traviesa"}}, {"type": "node", "id": 5178205479, "lat": 40.4370594, "lon": -3.6873354, "tags": {"amenity": "restaurant", "name": "Bestia Kitchen & Bar"}}, {"type": "node", "id": 5204958238, "lat": 40.4240111, "lon": -3.6778613, "tags": {"amenity": "bar", "name": "Aromas de la Dehesa", "source": "survey"}}, {"type": "node", "id": 5204958239, "lat": 40.4239428, "lon": -3.6780412, "tags": {"brand": "Alcampo", "brand:wikidata": "Q2832081", "brand:wikipedia": "es:Alcampo", "name": "Alcampo", "shop": "supermarket", "source": "survey"}}, {"type": "node", "id": 5224341621, "lat": 40.437135, "lon": -3.6866527, "tags": {"amenity": "restaurant", "cuisine": "spanish", "name": "Lamucca"}}, {"type": "node", "id": 5254388140, "lat": 40.4206499, "lon": -3.6864907, "tags": {"addr:city": "Madrid", "addr:housenumber": "81", "addr:postcode": "28009", "addr:street": "Calle de Alcal\u00e1", "amenity": "restaurant", "contact:phone": "+34 91 991 48 80", "contact:website": "http://www.hamburguesanostra.com/", "cuisine": "burger", "name": "Hamburguesa Nostra"}}, {"type": "node", "id": 5276387221, "lat": 40.4351629, "lon": -3.6839539, "tags": {"amenity": "restaurant", "name": "Doli Restaurante Hindu", "wheelchair": "yes"}}, {"type": "node", "id": 5310392101, "lat": 40.4258207, "lon": -3.6828517, "tags": {"amenity": "restaurant", "cuisine": "mexican", "name": "La Leyenda del Agave", "wheelchair": "no"}}, {"type": "node", "id": 5343684123, "lat": 40.4356993, "lon": -3.6882216, "tags": {"addr:housenumber": "52", "addr:street": "Paseo de la Castellana", "amenity": "restaurant", "name": "Bibo"}}, {"type": "node", "id": 5366396021, "lat": 40.429129, "lon": -3.6756022, "tags": {"addr:housenumber": "43", "addr:street": "Calle del Conde de Pe\u00f1alver", "name": "Chocolater\u00eda Valor", "shop": "confectionery"}}, {"type": "node", "id": 5367915821, "lat": 40.4310063, "lon": -3.6742354, "tags": {"addr:housenumber": "68", "addr:street": "Calle de Padilla", "name": "Flor d'kko", "shop": "confectionery"}}, {"type": "node", "id": 5405353239, "lat": 40.4238521, "lon": -3.6837322, "tags": {"addr:city": "Madrid", "addr:housenumber": "27", "addr:postcode": "28001", "addr:street": "Calle de Jorge Juan", "amenity": "restaurant", "contact:phone": "+34 622 184 163", "contact:website": "https://www.restaurantekrapula.com", "name": "Restaurante Kr\u00e1pula"}}, {"type": "node", "id": 5405353241, "lat": 40.4235102, "lon": -3.6809117, "tags": {"addr:city": "Madrid", "addr:housenumber": "50", "addr:postcode": "28001", "addr:street": "Calle de Jorge Juan", "amenity": "restaurant", "contact:phone": "+34 910586196", "contact:website": "http://troquelmadrid.com/", "name": "Troquel"}}, {"type": "node", "id": 5405353242, "lat": 40.4248411, "lon": -3.6799803, "tags": {"addr:city": "Madrid", "addr:country": "ES", "addr:housenumber": "42", "addr:postcode": "28001", "addr:street": "Calle de Goya", "contact:website": "https://www.fnac.es/", "name": "FNAC", "shop": "department_store"}}, {"type": "node", "id": 5419586322, "lat": 40.4190716, "lon": -3.691959, "tags": {"amenity": "restaurant", "name": "Terraza del Palacio de Correos"}}, {"type": "node", "id": 5422311449, "lat": 40.4283271, "lon": -3.6695507, "tags": {"addr:city": "Madrid", "addr:housenumber": "5", "addr:postcode": "28028", "addr:street": "Plaza de Manuel Becerra", "amenity": "cafe", "contact:website": "http://marketcafemadrid.com/", "name": "Market Caf\u00e9"}}, {"type": "node", "id": 5447274825, "lat": 40.4304352, "lon": -3.6769042, "tags": {"addr:housenumber": "57", "addr:street": "Calle del General D\u00edaz Porlier", "amenity": "restaurant", "name": "Sargo"}}, {"type": "node", "id": 5475288760, "lat": 40.428485, "lon": -3.6727538, "tags": {"addr:city": "Madrid", "addr:housenumber": "88", "addr:postcode": "28006", "addr:street": "Calle de Don Ram\u00f3n de la Cruz", "amenity": "bar", "name": "RC 88", "wheelchair": "limited"}}, {"type": "node", "id": 5475288761, "lat": 40.428497, "lon": -3.6729039, "tags": {"addr:city": "Madrid", "addr:housenumber": "86", "addr:postcode": "28006", "addr:street": "Calle de Don Ram\u00f3n de la Cruz", "amenity": "restaurant", "contact:phone": "+34 91 401 89 46", "contact:website": "http://restaurantegerardo.com/", "name": "Gerardo", "wheelchair": "no"}}, {"type": "node", "id": 5475288762, "lat": 40.4286497, "lon": -3.6728229, "tags": {"addr:city": "Madrid", "addr:housenumber": "97", "addr:street": "Calle de Don Ram\u00f3n de la Cruz", "amenity": "bar", "name": "Casa Baltasar", "wheelchair": "no"}}, {"type": "node", "id": 5475288763, "lat": 40.4286553, "lon": -3.6729483, "tags": {"addr:city": "Madrid", "addr:housenumber": "97", "addr:postcode": "28006", "addr:street": "Calle de Don Ram\u00f3n de la Cruz", "amenity": "cafe", "contact:facebook": "https://es-es.facebook.com/bossanovacafebarmadrid/", "contact:phone": "+34 911 62 01 28", "name": "Bossa Nova", "wheelchair": "no"}}, {"type": "node", "id": 5475288764, "lat": 40.428663, "lon": -3.6731219, "tags": {"addr:city": "Madrid", "addr:housenumber": "95", "addr:postcode": "28006", "addr:street": "Calle de Don Ram\u00f3n de la Cruz", "amenity": "restaurant", "name": "La Maria", "wheelchair": "no"}}, {"type": "node", "id": 5475288765, "lat": 40.4287007, "lon": -3.673673, "tags": {"addr:city": "Madrid", "addr:housenumber": "30", "addr:postcode": "28006", "addr:street": "Calle Alc\u00e1ntara", "amenity": "restaurant", "contact:phone": "+34 91 401 33 05", "contact:website": "http://elbarrilalcantara.com/", "cuisine": "seafood;regional", "name": "El Barril de Alc\u00e1ntara", "wheelchair": "no"}}, {"type": "node", "id": 5475288766, "lat": 40.4278363, "lon": -3.6739587, "tags": {"addr:city": "Madrid", "addr:housenumber": "23", "addr:postcode": "28006", "addr:street": "Calle Alc\u00e1ntara", "amenity": "restaurant", "contact:phone": "+34 910 122 549", "contact:website": "http://yoisushi.es/", "cuisine": "sushi;japanese", "name": "Yoi Sushi", "wheelchair": "no"}}, {"type": "node", "id": 5475288767, "lat": 40.4268974, "lon": -3.6753581, "tags": {"addr:city": "Madrid", "addr:housenumber": "20", "addr:postcode": "28006", "addr:street": "Calle del Conde de Pe\u00f1alver", "amenity": "restaurant", "contact:phone": "+34 917 04 92 05", "contact:website": "http://taberna20alacata.com/", "name": "20 a la cata", "wheelchair": "limited"}}, {"type": "node", "id": 5475288768, "lat": 40.4261511, "lon": -3.6754168, "tags": {"addr:city": "Madrid", "addr:postcode": "28006", "addr:street": "Calle del Conde de Pe\u00f1alver", "amenity": "cafe", "brand": "Starbucks", "brand:wikidata": "Q37158", "brand:wikipedia": "en:Starbucks", "contact:website": "http://www.starbucks.es/", "cuisine": "coffee_shop", "name": "Starbucks", "official_name": "Starbucks Coffee", "takeaway": "yes", "wheelchair": "limited"}}, {"type": "node", "id": 5475288769, "lat": 40.425883, "lon": -3.676443, "tags": {"addr:city": "Madrid", "addr:country": "ES", "addr:housenumber": "84", "addr:postcode": "28001", "addr:street": "Calle de Hermosilla", "amenity": "cafe", "contact:facebook": "https://es-es.facebook.com/Livanda-141759209873744/", "contact:phone": "+34 646 88 44 76", "name": "Livanda"}}, {"type": "node", "id": 5475288770, "lat": 40.4261925, "lon": -3.6794658, "tags": {"addr:city": "Madrid", "addr:country": "ES", "addr:housenumber": "65", "addr:postcode": "28001", "addr:street": "Calle de Hermosilla", "amenity": "restaurant", "contact:facebook": "https://es-es.facebook.com/Tostas-Tapas-190321814662797/", "contact:phone": "+34 911 38 97 68", "name": "Tostas & Tapas", "wheelchair": "no"}}, {"type": "node", "id": 5475288771, "lat": 40.4261718, "lon": -3.6786629, "tags": {"addr:city": "Madrid", "amenity": "cafe", "cuisine": "juice", "name": "Rawcoco", "wheelchair": "limited"}}, {"type": "node", "id": 5475288772, "lat": 40.4264714, "lon": -3.6886087, "tags": {"addr:city": "Madrid", "addr:housenumber": "4", "addr:postcode": "28001", "addr:street": "Calle de Hermosilla", "amenity": "restaurant", "contact:phone": "+34 914 312 715", "contact:website": "http://www.99sushibar.com/", "cuisine": "sushi;japanese", "name": "99 Sushi Bar", "wheelchair": "no"}}, {"type": "node", "id": 5475288773, "lat": 40.4264886, "lon": -3.6888358, "tags": {"addr:city": "Madrid", "addr:housenumber": "4", "addr:postcode": "28001", "addr:street": "Calle de Hermosilla", "amenity": "restaurant", "contact:phone": "+34 91 134 49 43", "contact:website": "https://www.romola.es/", "name": "R\u00f3mola", "wheelchair": "limited"}}, {"type": "node", "id": 5488123923, "lat": 40.4322049, "lon": -3.6740912, "tags": {"addr:housenumber": "58", "addr:street": "Calle de Juan Bravo", "brand": "Alcampo", "brand:wikidata": "Q2832081", "brand:wikipedia": "es:Alcampo", "name": "Alcampo", "shop": "supermarket"}}, {"type": "node", "id": 5562693705, "lat": 40.4260415, "lon": -3.6842471, "tags": {"amenity": "restaurant", "name": "Loft 39"}}, {"type": "node", "id": 5622543322, "lat": 40.4346617, "lon": -3.6802537, "tags": {"addr:housenumber": "42", "addr:street": "Calle de Diego de Le\u00f3n", "amenity": "restaurant", "name": "Limone"}}, {"type": "node", "id": 5623425021, "lat": 40.426652, "lon": -3.6758253, "tags": {"addr:city": "Madrid", "addr:housenumber": "17", "addr:street": "Calle del Conde de Pe\u00f1alver", "brand": "Carrefour Market", "brand:wikidata": "Q2689639", "brand:wikipedia": "fr:Carrefour Market", "name": "Carrefour Market", "shop": "supermarket"}}, {"type": "node", "id": 5701886001, "lat": 40.4236552, "lon": -3.6830998, "tags": {"addr:city": "Madrid", "addr:housenumber": "34", "addr:postcode": "28001", "addr:street": "Calle de Jorge Juan", "amenity": "bar", "facebook": "https://www.facebook.com/pages/La-Colonial-de-Goya/162042973838371", "name": "La Colonial de Goya", "opening_hours": "Mo-Sa 7:00-24:00", "outdoor_seating": "yes", "phone": "+34 915 75 63 06", "smoking": "outside", "website": "http://www.lacolonialdegoya.com"}}, {"type": "node", "id": 5734248604, "lat": 40.42745, "lon": -3.6767668, "tags": {"addr:city": "Madrid", "addr:housenumber": "65", "addr:postcode": "28001", "addr:street": "Calle de Ayala", "amenity": "restaurant", "cuisine": "ramen;asian", "name": "Ramen Shifu", "outdoor_seating": "no", "phone": "+34 914 01 77 30", "smoking": "no"}}, {"type": "node", "id": 5760632221, "lat": 40.432858, "lon": -3.6800132, "tags": {"amenity": "cafe", "name": "Waycup Specialty Coffee"}}, {"type": "node", "id": 5768824555, "lat": 40.4249814, "lon": -3.6830825, "tags": {"addr:city": "Madrid", "addr:country": "ES", "addr:housenumber": "24", "addr:postcode": "28001", "addr:street": "Calle de Goya", "amenity": "cafe", "name": "Faborit"}}, {"type": "node", "id": 5814492526, "lat": 40.4333968, "lon": -3.6751847, "tags": {"brand": "Carrefour Express", "brand:wikidata": "Q2940190", "brand:wikipedia": "fr:Carrefour Express", "name": "Carrefour Express", "shop": "convenience"}}, {"type": "node", "id": 5814501955, "lat": 40.4333661, "lon": -3.674807, "tags": {"addr:housenumber": "86", "addr:street": "Calle del Conde de Pe\u00f1alver", "brand": "Granier", "brand:wikidata": "Q102311169", "name": "Granier", "phone": "+34 913 09 28 22", "shop": "bakery", "website": "https://pansgranier.com/"}}, {"type": "node", "id": 5902800386, "lat": 40.4261425, "lon": -3.6776139, "tags": {"addr:city": "Madrid", "addr:country": "ES", "addr:housenumber": "81", "addr:postcode": "28001", "addr:street": "Calle de Hermosilla", "name": "Formentor", "name:en": "Formentor", "shop": "confectionery"}}, {"type": "node", "id": 6017439785, "lat": 40.430479, "lon": -3.6830263, "tags": {"amenity": "restaurant", "name": "Cristina Oria"}}, {"type": "node", "id": 6042190390, "lat": 40.4324473, "lon": -3.6855154, "tags": {"amenity": "restaurant", "name": "Ponteareas"}}, {"type": "node", "id": 6111510386, "lat": 40.4217242, "lon": -3.687759, "tags": {"addr:housenumber": "6", "addr:street": "Calle del Conde de Aranda", "amenity": "restaurant", "name": "Cristina Oria", "wheelchair": "no"}}, {"type": "node", "id": 6121729095, "lat": 40.4289799, "lon": -3.6782141, "tags": {"amenity": "restaurant", "name": "Santerra"}}, {"type": "node", "id": 6129452986, "lat": 40.4366447, "lon": -3.6865735, "tags": {"addr:housenumber": "85", "addr:street": "Calle de Serrano", "amenity": "restaurant", "name": "Morao"}}, {"type": "node", "id": 6138185051, "lat": 40.4363457, "lon": -3.6878165, "tags": {"addr:housenumber": "5", "addr:street": "Calle de los Hermanos B\u00e9cquer", "amenity": "restaurant", "cuisine": "barbecue;mediterranean", "level": "0", "name": "Restaurante Fuego", "operator": "Los Cuatro Elementos", "outdoor_seating": "yes", "phone": "+34910515811", "smoking": "outside", "takeaway": "no", "toilets": "yes", "toilets:access": "customers", "website": "http://grupolos4elementos.com/fuego"}}, {"type": "node", "id": 6189835658, "lat": 40.4257115, "lon": -3.6866599, "tags": {"addr:city": "Madrid", "addr:housenumber": "41", "addr:postcode": "28001", "addr:street": "Calle de Claudio Coello", "amenity": "restaurant", "cuisine": "japanese", "name": "Shina Tora Ya"}}, {"type": "node", "id": 6189835661, "lat": 40.4253093, "lon": -3.6834621, "tags": {"addr:city": "Madrid", "addr:country": "ES", "addr:postcode": "28001", "addr:street": "Calle de Goya", "amenity": "cafe", "name": "Viena Capellanes"}}, {"type": "node", "id": 6189835662, "lat": 40.4258066, "lon": -3.686643, "tags": {"addr:city": "Madrid", "addr:housenumber": "41", "addr:postcode": "28001", "addr:street": "Calle de Claudio Coello", "amenity": "restaurant", "name": "El 41"}}, {"type": "node", "id": 6189881278, "lat": 40.4246846, "lon": -3.6768657, "tags": {"addr:city": "Madrid", "addr:country": "ES", "addr:postcode": "28001", "addr:street": "Calle de Goya", "alt_name": "Kentucky Fried Chicken", "amenity": "fast_food", "brand": "KFC", "brand:wikidata": "Q524757", "brand:wikipedia": "en:KFC", "cuisine": "chicken", "name": "KFC", "takeaway": "yes"}}, {"type": "node", "id": 6189881280, "lat": 40.4246845, "lon": -3.6766648, "tags": {"addr:city": "Madrid", "addr:country": "ES", "addr:postcode": "28001", "addr:street": "Calle de Goya", "amenity": "fast_food", "brand": "McDonald's", "brand:wikidata": "Q38076", "brand:wikipedia": "en:McDonald's", "cuisine": "burger", "name": "McDonald's", "takeaway": "yes"}}, {"type": "node", "id": 6190249585, "lat": 40.4252427, "lon": -3.6832104, "tags": {"addr:city": "Madrid", "addr:country": "ES", "addr:housenumber": "45", "addr:postcode": "28001", "addr:street": "Calle de Goya", "name": "Quiosco Laura", "shop": "kiosk"}}, {"type": "node", "id": 6190249587, "lat": 40.4253094, "lon": -3.6831535, "tags": {"addr:city": "Madrid", "addr:country": "ES", "addr:housenumber": "45", "addr:postcode": "28001", "addr:street": "Calle de Goya", "amenity": "fast_food", "brand": "Rodilla", "brand:wikidata": "Q7356777", "brand:wikipedia": "es:Rodilla (franquicia)", "cuisine": "sandwich", "name": "Rodilla", "takeaway": "yes"}}, {"type": "node", "id": 6190249590, "lat": 40.4249781, "lon": -3.6760584, "tags": {"addr:city": "Madrid", "addr:country": "ES", "addr:postcode": "28001", "addr:street": "Calle de Goya", "name": "La Casa Del Bacalao", "shop": "seafood"}}, {"type": "node", "id": 6190249591, "lat": 40.4252973, "lon": -3.6829068, "tags": {"addr:city": "Madrid", "addr:country": "ES", "addr:postcode": "28001", "addr:street": "Calle de Goya", "name": "Viandas De Salamanca", "shop": "deli"}}, {"type": "node", "id": 6190249594, "lat": 40.4252678, "lon": -3.6822433, "tags": {"addr:city": "Madrid", "addr:country": "ES", "addr:housenumber": "47", "addr:postcode": "28001", "addr:street": "Calle de Goya", "amenity": "ice_cream", "name": "Palazzo"}}, {"type": "node", "id": 6190268313, "lat": 40.4253648, "lon": -3.6826313, "tags": {"addr:city": "Madrid", "addr:postcode": "28001", "addr:street": "Calle de N\u00fa\u00f1ez de Balboa", "name": "Oomuomb", "shop": "confectionery"}}, {"type": "node", "id": 6190268317, "lat": 40.4250174, "lon": -3.6839312, "tags": {"amenity": "cafe", "name": "Caf\u00e9 Y T\u00e9"}}, {"type": "node", "id": 6281209085, "lat": 40.420955, "lon": -3.6879407, "tags": {"amenity": "restaurant", "name": "Magasand", "website": "https://www.magasand.com/"}}, {"type": "node", "id": 6334389244, "lat": 40.4287293, "lon": -3.6782216, "tags": {"name": "Mares", "shop": "wine"}}, {"type": "node", "id": 6334389249, "lat": 40.4289876, "lon": -3.6784254, "tags": {"amenity": "restaurant", "name": "La Costa Navarra"}}, {"type": "node", "id": 6334389250, "lat": 40.4292658, "lon": -3.6784091, "tags": {"addr:city": "Madrid", "addr:housenumber": "43", "addr:postcode": "28001", "addr:street": "Calle del General Pardi\u00f1as", "amenity": "restaurant", "cuisine": "japanese", "name": "Inari"}}, {"type": "node", "id": 6334389252, "lat": 40.4297192, "lon": -3.6781497, "tags": {"amenity": "restaurant", "name": "Stop 66"}}, {"type": "node", "id": 6334389253, "lat": 40.4298632, "lon": -3.6781448, "tags": {"name": "Oriol Balaguer", "shop": "pastry"}}, {"type": "node", "id": 6334389257, "lat": 40.4298975, "lon": -3.6787173, "tags": {"amenity": "restaurant", "name": "Sanxenxo"}}, {"type": "node", "id": 6334389258, "lat": 40.4299089, "lon": -3.6789952, "tags": {"amenity": "restaurant", "name": "Martinete"}}, {"type": "node", "id": 6455385244, "lat": 40.4242781, "lon": -3.678822, "tags": {"addr:housenumber": "7", "addr:street": "Calle del General Pardi\u00f1as", "amenity": "ice_cream", "name": "La Commedia", "opening_hours": "Mo-Th 09:00-22:00; Fr 09:00-00:00; Sa 10:30-00:00; Su 10:30-22:00", "phone": "+34 918279132", "website": "https://www.lacommedia.es/"}}, {"type": "node", "id": 6684049135, "lat": 40.422211, "lon": -3.6907019, "tags": {"amenity": "restaurant", "name": "Pelotari", "phone": "+34 915 78 24 97", "website": "http://pelotari-asador.com/"}}, {"type": "node", "id": 6795884485, "lat": 40.4299228, "lon": -3.6728855, "tags": {"amenity": "restaurant", "name": "El pescador"}}, {"type": "node", "id": 6806382285, "lat": 40.4222351, "lon": -3.6907431, "tags": {"amenity": "restaurant", "name": "El Pelotari"}}, {"type": "node", "id": 6807487782, "lat": 40.4237946, "lon": -3.6865491, "tags": {"amenity": "restaurant", "name": "Lobito de Mar Madrid", "phone": "+34 91 088 94 40", "website": "https://www.grupodanigarcia.com/es/restaurantes-lobito-de-mar/"}}, {"type": "node", "id": 6809958778, "lat": 40.4245694, "lon": -3.67426, "tags": {"entrance": "yes"}}, {"type": "node", "id": 6870896785, "lat": 40.4285588, "lon": -3.6709814, "tags": {"amenity": "restaurant", "name": "Aqu\u00ed Galicia"}}, {"type": "node", "id": 6911410885, "lat": 40.4271407, "lon": -3.6701437, "tags": {"addr:city": "Madrid", "addr:country": "ES", "addr:housenumber": "10528009", "addr:postcode": "28009", "addr:street": "Calle de Ayala", "name": "todoukuleles.com", "shop": "convenience", "website": "https://todoukeleles.com"}}, {"type": "node", "id": 6992520085, "lat": 40.4237264, "lon": -3.6774281, "tags": {"amenity": "restaurant", "name": "Horno de Juan"}}, {"type": "node", "id": 7159026170, "lat": 40.4319839, "lon": -3.6749078, "tags": {"amenity": "pub", "name": "Cervecer\u00eda Catalina"}}, {"type": "node", "id": 7159028069, "lat": 40.4315793, "lon": -3.6734361, "tags": {"amenity": "bar", "name": "Before Madrid"}}, {"type": "node", "id": 7159030538, "lat": 40.4330982, "lon": -3.6735121, "tags": {"amenity": "restaurant", "name": "Mola Grill"}}, {"type": "node", "id": 7159054298, "lat": 40.4321802, "lon": -3.6733659, "tags": {"amenity": "pub", "name": "La Casa de la Cerveza"}}, {"type": "node", "id": 7159055048, "lat": 40.4311686, "lon": -3.6737023, "tags": {"shop": "convenience"}}, {"type": "node", "id": 7159063257, "lat": 40.4322024, "lon": -3.6738008, "tags": {"amenity": "fast_food", "brand": "Domino's", "brand:wikidata": "Q839466", "brand:wikipedia": "en:Domino's Pizza", "cuisine": "pizza", "name": "Domino's", "takeaway": "yes"}}, {"type": "node", "id": 7159067141, "lat": 40.4311465, "lon": -3.6734627, "tags": {"amenity": "pub", "name": "La Taberna de Padilla"}}, {"type": "node", "id": 7159075150, "lat": 40.4308741, "lon": -3.6714995, "tags": {"name": "Mantequer\u00eda Alemana", "shop": "convenience"}}, {"type": "node", "id": 7176627185, "lat": 40.4274152, "lon": -3.6728208, "tags": {"addr:housenumber": "89", "addr:street": "Calle de Ayala", "brand": "Mercadona", "brand:wikidata": "Q377705", "brand:wikipedia": "es:Mercadona", "name": "Mercadona", "shop": "supermarket"}}, {"type": "node", "id": 7310111441, "lat": 40.4376769, "lon": -3.6865641, "tags": {"amenity": "restaurant", "cuisine": "mexican", "name": "Tierra Burrito Bar", "phone": "+34 913 40 79 56", "source": "survey", "website": "https://tierraburritos.com/"}}, {"type": "node", "id": 7597154529, "lat": 40.424129, "lon": -3.6866224, "tags": {"addr:street": "Calle de Claudio Coello", "amenity": "restaurant", "name": "cerveceria Pittu"}}, {"type": "node", "id": 7644166785, "lat": 40.4244195, "lon": -3.6792368, "tags": {"addr:housenumber": "5", "addr:postcode": "28001", "addr:street": "Calle Espartinas", "amenity": "bar", "cuisine": "fish;friture;grill;local;mediterranean;regional;seafood", "name": "Taberna Recreo Espartinas", "opening_hours": "Tu-Sa 13:30-16:00", "phone": "+34910334379"}}, {"type": "node", "id": 7650091142, "lat": 40.4223488, "lon": -3.6861968, "tags": {"brand": "Carrefour Express", "brand:wikidata": "Q2940190", "brand:wikipedia": "fr:Carrefour Express", "name": "Carrefour Express", "shop": "convenience"}}, {"type": "node", "id": 7894944985, "lat": 40.426088, "lon": -3.6842561, "tags": {"addr:city": "Madrid", "addr:country": "ES", "addr:housenumber": "39", "addr:postcode": "28001", "addr:street": "Calle de Vel\u00e1zquez", "alt_name": "Trattoria Bel Mondo", "amenity": "restaurant", "name": "Bel Mondo", "phone": "+34 910 44 72 03", "website": "https://www.bigmammagroup.com/en/trattorias/bel-mondo"}}, {"type": "node", "id": 7995802370, "lat": 40.4319181, "lon": -3.6861107, "tags": {"amenity": "restaurant", "name": "D\u00f3nde M\u00f3nica", "phone": "+34 91 577 7657"}}, {"type": "node", "id": 8137568917, "lat": 40.4338897, "lon": -3.6816628, "tags": {"name": "frutos secos", "shop": "supermarket"}}, {"type": "node", "id": 8146885817, "lat": 40.4202504, "lon": -3.6919982, "tags": {"addr:housenumber": "2", "addr:street": "Paseo de Recoletos", "amenity": "restaurant", "name": "Raimunda"}}, {"type": "node", "id": 8177412217, "lat": 40.4238404, "lon": -3.6835959, "tags": {"addr:housenumber": "29", "addr:street": "Calle de Jorge Juan", "amenity": "restaurant", "description": "C\u00e1lida iluminaci\u00f3n en fina taberna con suelo hidr\u00e1ulico para medallones de rape o berberechos al vapor.", "name": "Ocaf\u00fa", "phone": "+34 91 826 91 64", "website": "http://www.ocafu.com"}}, {"type": "node", "id": 8294838432, "lat": 40.4239609, "lon": -3.6840255, "tags": {"amenity": "restaurant", "name": "La Clave", "phone": "+34 910 532031", "website": "https://restaurantelaclave.com"}}, {"type": "node", "id": 8296229820, "lat": 40.4273354, "lon": -3.6841475, "tags": {"amenity": "restaurant", "cuisine": "sushi", "name": "Nacionsushi"}}, {"type": "node", "id": 8296483817, "lat": 40.4325683, "lon": -3.6815776, "tags": {"addr:housenumber": "26", "addr:street": "Calle de Juan Bravo", "amenity": "restaurant", "name": "St. James"}}, {"type": "node", "id": 8304659699, "lat": 40.4347007, "lon": -3.6816012, "tags": {"brand": "Supersol", "brand:wikidata": "Q62073427", "name": "Supersol", "shop": "supermarket"}}, {"type": "node", "id": 8335798850, "lat": 40.4249426, "lon": -3.6898814, "tags": {"addr:city": "Madrid", "addr:country": "ES", "addr:housenumber": "4", "addr:postcode": "28001", "addr:street": "Plaza de Col\u00f3n", "amenity": "restaurant", "brand": "Pap\u00faa", "delivery": "yes", "name": "Pap\u00faa", "payment:credit_cards": "yes", "payment:debit_cards": "yes", "phone": "+34915766897", "takeaway": "yes", "website": "https://www.papuacolon.com/"}}, {"type": "node", "id": 8335809637, "lat": 40.4231886, "lon": -3.6863389, "tags": {"addr:city": "Madrid", "addr:country": "ES", "addr:housenumber": "16", "addr:postcode": "28001", "addr:province": "Madrid", "addr:state": "Comunidad de Madrid", "addr:street": "Calle de Puigcerd\u00e1", "amenity": "restaurant", "description": "\"Pasen, coman, beban y d\u00e9jense llevar\u2026\u201d", "name": "El Babero Restaurante", "phone": "+34 91 431 84 70", "website": "http://www.elbabero.es/"}}, {"type": "node", "id": 8407891256, "lat": 40.4238283, "lon": -3.6830463, "tags": {"addr:housenumber": "35", "addr:street": "Calle de Jorge Juan", "amenity": "restaurant", "name": "Restaurante Cadaqu\u00e9s Madrid", "phone": "+34 91 360 90 53", "website": "http://restaurantecadaques.com"}}, {"type": "node", "id": 8408689065, "lat": 40.4328606, "lon": -3.6810213, "tags": {"name": "Panaderia Delirio", "phone": "+34 912 680588", "shop": "bakery", "website": "https://www.pandelirio.es"}}, {"type": "node", "id": 8633269117, "lat": 40.4237193, "lon": -3.6869264, "tags": {"addr:housenumber": "27", "addr:street": "Calle de Claudio Coello", "amenity": "restaurant", "cuisine": "japanese", "name": "No.na.me Bar"}}, {"type": "node", "id": 8634990947, "lat": 40.4273787, "lon": -3.6812351, "tags": {"addr:city": "Madrid", "addr:housenumber": "52", "addr:postcode": "28001", "addr:street": "Calle de Castell\u00f3", "amenity": "restaurant", "cuisine": "italian", "name": "Forta pizza bar"}}, {"type": "node", "id": 8634990955, "lat": 40.4272174, "lon": -3.6814472, "tags": {"addr:city": "Madrid", "addr:housenumber": "51", "addr:postcode": "28001", "addr:street": "Calle de Castell\u00f3", "name": "La Potxola whisky shop", "shop": "beverages"}}, {"type": "node", "id": 8634990960, "lat": 40.4255041, "lon": -3.6813781, "tags": {"addr:city": "Madrid", "addr:housenumber": "32", "addr:postcode": "28001", "addr:street": "Calle de Castell\u00f3", "amenity": "cafe", "name": "El Horno"}}, {"type": "node", "id": 8639425217, "lat": 40.4259866, "lon": -3.682557, "tags": {"addr:housenumber": "34", "addr:street": "Calle de N\u00fa\u00f1ez de Balboa", "name": "Casabase", "shop": "supermarket"}}, {"type": "node", "id": 8662377848, "lat": 40.4277228, "lon": -3.6871191, "tags": {"amenity": "bar", "name": "Sal\u00f3n Cascabel"}}, {"type": "node", "id": 8676589690, "lat": 40.4311455, "lon": -3.6775753, "tags": {"addr:housenumber": "54", "addr:street": "Calle de Padilla", "amenity": "restaurant", "description": "Cocido madrile\u00f1o tradicional todos los d\u00edas", "name": "Casa Carola", "phone": "+34 914 01 94 08", "website": "http://www.casacarola.com"}}, {"type": "node", "id": 8776264594, "lat": 40.4244731, "lon": -3.6755345}, {"type": "node", "id": 8830043096, "lat": 40.4366705, "lon": -3.6841549, "tags": {"addr:city": "Madrid", "addr:housenumber": "134", "addr:postcode": "28006", "addr:street": "Calle de Lagasca", "amenity": "restaurant", "name": "Villoldo", "opening_hours": "Mo-Sa 13:30-16:00", "phone": "+34 910 224552", "website": "https://villoldomadrid.com"}}, {"type": "node", "id": 8911132566, "lat": 40.4235737, "lon": -3.6818543, "tags": {"amenity": "restaurant", "name": "La Cocina de Mar\u00eda Luisa", "phone": "+34 917 810 180", "website": "https://www.lacocinademarialuisa.es/"}}, {"type": "node", "id": 9111233919, "lat": 40.4208006, "lon": -3.6918537, "tags": {"addr:housenumber": "6", "addr:street": "Paseo de Recoletos", "amenity": "restaurant", "name": "Dai"}}, {"type": "node", "id": 9132646917, "lat": 40.4361032, "lon": -3.6801423, "tags": {"addr:housenumber": "49", "addr:postcode": "28006", "addr:street": "Calle del Gral Ora\u00e0", "name": "Sana Locura Gluten Free Bakery", "opening_hours": "Mo-Sa 09:00-14:00", "phone": "+34917295747", "shop": "bakery", "website": "https://www.sanalocura.es/"}}, {"type": "node", "id": 9207113044, "lat": 40.4262402, "lon": -3.684259, "tags": {"addr:city": "Madrid", "addr:housenumber": "39", "addr:postcode": "28001", "addr:street": "Calle de Vel\u00e1zquez", "name": "La Mallorquina", "opening_hours": "Mo-Su 09:00-20:30", "phone": "+34 615 734922", "shop": "pastry", "website": "https://pastelerialamallorquina.es/"}}, {"type": "node", "id": 9207295291, "lat": 40.4299432, "lon": -3.6873825, "tags": {"amenity": "cafe", "name": "Isabel Maestre", "opening_hours": "Mo-Sa 08:00-22:00; Su 10:00-21:00", "phone": "+34 917 045472", "website": "https://isabelmaestre.com/"}}, {"type": "node", "id": 9207304543, "lat": 40.4250643, "lon": -3.6765453, "tags": {"amenity": "cafe", "name": "Isabel Maestre", "website": "https://isabelmaestre.com/"}}, {"type": "node", "id": 9207363243, "lat": 40.4370756, "lon": -3.6892799, "tags": {"addr:city": "Madrid", "addr:housenumber": "62", "addr:postcode": "28046", "addr:street": "Paseo de la Castellana", "amenity": "restaurant", "cuisine": "mediterranean", "name": "La mamona Castellana", "outdoor_seating": "yes", "website": "https://grupolalala.com/locales/restaurantes/la-mamona-castellana"}}, {"type": "node", "id": 9207510419, "lat": 40.4341249, "lon": -3.68491, "tags": {"addr:city": "Madrid", "addr:housenumber": "7", "addr:postcode": "28006", "addr:street": "Calle de Maldonado", "amenity": "restaurant", "name": "La Revuelta", "opening_hours": "Mo-Fr 09:00-00:00; Sa 09:00-16:00,20:00-00:00; PH off", "phone": "+34 91 5613489", "website": "https://larevueltamadrid.com/"}}, {"type": "node", "id": 9207695355, "lat": 40.4220139, "lon": -3.6906004, "tags": {"addr:city": "Madrid", "addr:housenumber": "6", "addr:postcode": "28001", "addr:street": "Calle de Recoletos", "amenity": "restaurant", "cuisine": "italian", "name": "NOI", "phone": "+34 91 0694 07", "website": "https://restaurantenoi.com/"}}, {"type": "node", "id": 9207749714, "lat": 40.4291217, "lon": -3.685887, "tags": {"addr:city": "Madrid", "addr:housenumber": "70", "addr:postcode": "28001", "addr:street": "Calle de Claudio Coello", "amenity": "restaurant", "cuisine": "mexican", "name": "Restaurante Indiano", "phone": "+34 911 567167", "website": "https://restauranteindiano.es/"}}, {"type": "node", "id": 9207850217, "lat": 40.4218751, "lon": -3.6901227, "tags": {"amenity": "cafe", "name": "masticar"}}, {"type": "node", "id": 9287652452, "lat": 40.4287541, "lon": -3.6748719, "tags": {"addr:housenumber": "83", "addr:postcode": "28006", "addr:street": "Calle Don Ram\u00f3n de la Cruz", "amenity": "restaurant", "cuisine": "peruvian", "name": "Cilindro", "phone": "+34 91 066 33 56", "website": "https://www.restaurantecilindro.es"}}, {"type": "node", "id": 9287652453, "lat": 40.4363042, "lon": -3.6844844, "tags": {"addr:housenumber": "25", "addr:postcode": "28006", "addr:street": "Calle del General Ora\u00e1", "amenity": "restaurant", "name": "Ronda 14", "phone": "+34 648 17 53 59", "website": "https://www.ronda14.com"}}, {"type": "node", "id": 9301305517, "lat": 40.4291455, "lon": -3.686462, "tags": {"addr:housenumber": "6", "addr:street": "Calle de Don Ram\u00f3n de la Cruz", "amenity": "restaurant", "name": "China Crown"}}, {"type": "node", "id": 9315046501, "lat": 40.4322425, "lon": -3.6869353}, {"type": "node", "id": 9326686713, "lat": 40.4271453, "lon": -3.6850632, "tags": {"amenity": "restaurant", "name": "La Trinera", "phone": "+34 915 760 575", "website": "https://latrainera.es/"}}, {"type": "node", "id": 9417636513, "lat": 40.4308728, "lon": -3.6719543, "tags": {"amenity": "cafe", "cuisine": "coffee_shop", "level": "0", "name": "Hornea", "wheelchair": "yes"}}, {"type": "node", "id": 9417636514, "lat": 40.4309023, "lon": -3.6722178, "tags": {"amenity": "restaurant", "level": "0", "name": "El Rescoldo", "wheelchair": "no"}}, {"type": "node", "id": 9456060886, "lat": 40.4263191, "lon": -3.689263, "tags": {"addr:city": "Madrid", "addr:housenumber": "2", "addr:postcode": "28001", "addr:street": "Calle de Hermosilla", "amenity": "bar", "name": "Dry Martini", "website": "https://www.drymartiniorg.com/locales/dry-at-the-gran-melia-fenix-v2/"}}, {"type": "node", "id": 9562675653, "lat": 40.4250632, "lon": -3.6769054, "tags": {"addr:city": "Madrid", "addr:country": "ES", "addr:housenumber": "87", "addr:postcode": "28001", "addr:street": "Calle de Goya", "addr:unit": "Zona Gourmet", "amenity": "restaurant", "name": "El Vag\u00f3n de la M\u00e1quina", "phone": "+34 918 26 37 74", "website": "https://lamaquinagourmet.es/"}}, {"type": "node", "id": 9586280922, "lat": 40.4360727, "lon": -3.6870916, "tags": {"addr:city": "Madrid", "addr:housenumber": "6", "addr:street": "Calle de los Hermanos B\u00e9cquer", "amenity": "restaurant", "email": "info@beker6.com", "name": "Beker6", "phone": "+34 911734397", "website": "http://beker6.com/", "website:menu": "http://beker6.com/carta"}}, {"type": "node", "id": 9684686250, "lat": 40.4204045, "lon": -3.6893324}, {"type": "node", "id": 9684686251, "lat": 40.4203941, "lon": -3.6893116}, {"type": "node", "id": 9684686252, "lat": 40.4203539, "lon": -3.689346}, {"type": "node", "id": 9684686253, "lat": 40.4203643, "lon": -3.6893668}, {"type": "node", "id": 9713536251, "lat": 40.436129, "lon": -3.6809243, "tags": {"addr:city": "Madrid", "addr:housenumber": "45", "addr:postcode": "28006", "addr:street": "Calle del General Or\u00e1a", "amenity": "fast_food", "cuisine": "sandwich;peruvian", "name": "Apura", "phone": "+34 690051780", "website": "http://apura.es"}}, {"type": "node", "id": 9740280967, "lat": 40.426319, "lon": -3.671981, "tags": {"addr:housenumber": "122", "addr:street": "Alcal\u00e1", "amenity": "restaurant", "name": "Taberna Colina"}}, {"type": "node", "id": 9886949117, "lat": 40.4374096, "lon": -3.6833313, "tags": {"addr:housenumber": "123", "addr:street": "Calle de Vel\u00e1zquez", "amenity": "cafe", "name:en": "Honest Greens"}}, {"type": "node", "id": 9904823118, "lat": 40.4223841, "lon": -3.6818357, "tags": {"addr:housenumber": "3", "addr:postcode": "28001", "addr:street": "Calle de Castell\u00f3", "amenity": "restaurant", "cuisine": "mediterranean;spanish;vegan;vegetarian", "name": "Arugula", "opening_hours": "Mo-Fr 12:30-16:00", "website": "https://arugulamadrid.es"}}, {"type": "node", "id": 9905976371, "lat": 40.4240084, "lon": -3.6814898, "tags": {"addr:city": "Madrid", "addr:housenumber": "18", "addr:postcode": "28001", "addr:street": "Calle de Castell\u00f3", "amenity": "restaurant", "contact:facebook": "https://www.facebook.com/manolitachenrest", "contact:instagram": "https://www.instagram.com/manolitachenrest/", "cuisine": "asian", "name": "Manolita Chen", "opening_hours": "Mo-Su 13:00-17:00,20:30-01:00", "phone": "+34 911 52 27 91", "website": "https://www.manolitachen.com/"}}, {"type": "node", "id": 9990621289, "lat": 40.4270148, "lon": -3.686202, "tags": {"addr:city": "Madrid", "addr:street": "Calle de Claudio Coello", "amenity": "restaurant", "name": "La Bodega de Casanova"}}, {"type": "node", "id": 9990621293, "lat": 40.4274302, "lon": -3.6863778, "tags": {"addr:city": "Madrid", "addr:housenumber": "55", "addr:street": "Calle de Claudio Coello", "name": "Isolee", "shop": "mall"}}, {"type": "way", "id": 118512979, "nodes": [1332768872, 3438292596, 3438292599, 1332768737, 3438292601, 3438292602, 1332769024, 3438292598, 1332768729, 1332768872], "tags": {"addr:housenumber": "47", "addr:postcode": "28001", "addr:street": "Calle de Serrano", "branch": "Serrano", "brand": "El Corte Ingl\u00e9s", "brand:wikidata": "Q623133", "brand:wikipedia": "en:El Corte Ingl\u00e9s", "building": "yes", "building:colour": "#FFFFFF", "building:material": "concrete", "name": "El Corte Ingl\u00e9s", "shop": "department_store", "wheelchair": "yes"}}, {"type": "way", "id": 118513025, "nodes": [3269546971, 3269546970, 1332769186, 3269546973, 3450415873, 3450415872, 1332768712, 1332768847, 1332768958, 1332769222, 9315046501, 3269546968, 1332768637, 1332768730, 3269552645, 3269552643, 3269552640, 3269552637, 1332768815, 3269546453, 3269546449, 1332768596, 1332768588, 1332768722, 1332769155, 1332768771, 1332768549, 3191950707, 3269546971], "tags": {"addr:city": "Madrid", "addr:country": "ES", "addr:housenumber": "61", "addr:postcode": "28006", "addr:street": "Calle de Serrano", "building": "retail", "changing_table": "yes", "name": "Centro Comercial ABC", "opening_hours": "Mo-Sa 09:30-21:30", "payment:bitcoin": "no", "shop": "mall", "toilets": "yes", "website": "https://www.abcserrano.com/"}}, {"type": "way", "id": 260131421, "nodes": [2656183524, 2656183529, 2656183531, 2656183525, 2656183533, 2656183534, 2656183536, 4576234322, 2656183524], "tags": {"addr:city": "Madrid", "addr:housenumber": "52", "addr:postcode": "28001", "addr:street": "Calle de Serrano", "brand": "El Corte Ingl\u00e9s", "brand:wikidata": "Q623133", "brand:wikipedia": "en:El Corte Ingl\u00e9s", "building": "retail", "name": "El Corte Ingl\u00e9s", "name:ru": "\u0422\u0426 El Corte Ingl\u00e9s", "phone": "+34 914 325 490", "shop": "department_store", "website": "http://www.elcorteingles.es/"}}, {"type": "way", "id": 264533053, "nodes": [2701970977, 3423479078, 2701970976, 2701970972, 2701970975, 6809958778, 2701970974, 3423479082, 2701970971, 2701970970, 3423479081, 2701969616, 8776264594, 2701969613, 3250746041, 3250746040, 2701970973, 3250746038, 2701970977], "tags": {"branch": "Goya   (Moda  Complementos  Supermercado)", "brand": "El Corte Ingl\u00e9s", "brand:wikidata": "Q623133", "brand:wikipedia": "en:El Corte Ingl\u00e9s", "building": "retail", "building:levels": "7", "name": "El Corte Ingl\u00e9s", "shop": "department_store"}}, {"type": "way", "id": 320367215, "nodes": [3250746053, 3250746048, 3250746047, 3268768365, 327463634, 3268768364, 327463636, 327463626, 3268768379, 2621637171, 2621637180, 2621637181, 3250746762, 3250746761, 3250746060, 3268768377, 3250746057, 3268768375, 3268768373, 3250746053], "tags": {"addr:housenumber": "87", "addr:postcode": "28001", "addr:street": "Calle de Goya", "branch": "Goya", "brand": "El Corte Ingl\u00e9s", "brand:wikidata": "Q623133", "brand:wikipedia": "en:El Corte Ingl\u00e9s", "building": "yes", "name": "El Corte Ingl\u00e9s", "shop": "department_store", "source": "PNOA", "source:date": "2010", "wheelchair": "yes", "wikidata": "Q62938242"}}, {"type": "way", "id": 335564334, "nodes": [3426628973, 3426628972, 3426628970, 3426628969, 3426628966, 3426628965, 3426628968, 3426628971, 3426628967, 3426628975, 3426628976, 3426628974, 3426628973], "tags": {"amenity": "bar", "building": "yes"}}, {"type": "way", "id": 421563919, "nodes": [4213142658, 4213142659, 4213142661, 4213142663, 4213142664, 4213142662, 4213142660, 4213142657, 4213142656, 4213142654, 4213142652, 4213142651, 4213142653, 4213142655, 4213142658], "tags": {"amenity": "restaurant", "building": "yes", "contact:phone": "+34 91 308 23 47", "name": "Caf\u00e9 El Espejo", "source": "PNOA", "source:date": "2014", "website": "http://www.restauranteelespejo.com/"}}, {"type": "way", "id": 1053839505, "nodes": [9684686250, 9684686251, 9684686252, 9684686253, 9684686250], "tags": {"addr:city": "Madrid", "addr:street": "Plaza de la Independencia", "building": "yes", "shop": "kiosk"}}]}