{"version": 0.6, "generator": "Overpass API 0.7.58.5 b0c4acbb", "osm3s": {"timestamp_osm_base": "2022-08-31T11:22:29Z", "copyright": "The data included in this document is from www.openstreetmap.org. The data is made available under ODbL."}, "elements": [{"type": "node", "id": 580793191, "lat": 35.68774, "lon": 139.742716, "tags": {"shop": "clothes"}}, {"type": "node", "id": 599543584, "lat": 35.700732, "lon": 139.7558284, "tags": {"brand": "\u6d0b\u670d\u306e\u9752\u5c71", "brand:en": "Aoyama Tailor", "brand:ja": "\u6d0b\u670d\u306e\u9752\u5c71", "brand:wikidata": "Q11661241", "brand:wikipedia": "ja:\u9752\u5c71\u5546\u4e8b", "name": "\u6d0b\u670d\u306e\u9752\u5c71", "name:en": "Aoyama Tailor", "name:ja": "\u6d0b\u670d\u306e\u9752\u5c71", "name:ja_rm": "Yofuku no Aoyama", "shop": "clothes"}}, {"type": "node", "id": 1195197271, "lat": 35.673224, "lon": 139.766174, "tags": {"brand": "Cartier", "brand:wikidata": "Q538587", "brand:wikipedia": "en:Cartier (jeweler)", "name": "Cartier", "shop": "jewelry", "wheelchair": "limited"}}, {"type": "node", "id": 1606621657, "lat": 35.7006876, "lon": 139.7422896, "tags": {"name": "\u842c\u56fd\u9928", "shop": "hairdresser"}}, {"type": "node", "id": 1621709588, "lat": 35.6736813, "lon": 139.765976}, {"type": "node", "id": 1621709597, "lat": 35.6737736, "lon": 139.7660744}, {"type": "node", "id": 1621709602, "lat": 35.6737881, "lon": 139.7658243}, {"type": "node", "id": 1621709681, "lat": 35.6738803, "lon": 139.7659228}, {"type": "node", "id": 1634099722, "lat": 35.6956989, "lon": 139.7578121, "tags": {"level": "0", "name": "Suit Select", "shop": "clothes"}}, {"type": "node", "id": 1634100034, "lat": 35.6958458, "lon": 139.760131, "tags": {"name": "\u30ec\u30aa \u30de\u30ab\u30e9\u30ba\u30e4", "name:en": "Leo Makarazuya Bag Shop", "shop": "bag"}}, {"type": "node", "id": 1635233542, "lat": 35.6949263, "lon": 139.7668512, "tags": {"name": "DAIKI", "shop": "shoes"}}, {"type": "node", "id": 1635233557, "lat": 35.6957681, "lon": 139.7678252, "tags": {"name": "The SUPER SUITS STORE", "shop": "clothes"}}, {"type": "node", "id": 1635233578, "lat": 35.6947274, "lon": 139.766323, "tags": {"brand": "\u30a8\u30d5\u30ef\u30f3", "name": "\u30a8\u30d5\u30ef\u30f3", "name:en": "F-ONE", "name:ja": "\u30a8\u30d5\u30ef\u30f3", "name:ja_rm": "Efuwan", "shop": "clothes"}}, {"type": "node", "id": 1746046223, "lat": 35.6748675, "lon": 139.7621677, "tags": {"name": "ESTNATION", "shop": "clothes", "source": "image;Bing,2007-03"}}, {"type": "node", "id": 2018990019, "lat": 35.6719897, "lon": 139.7636637, "tags": {"brand": "Coach", "brand:wikidata": "Q727697", "brand:wikipedia": "en:Coach New York", "name": "Coach", "shop": "bag"}}, {"type": "node", "id": 2018990020, "lat": 35.671778, "lon": 139.7627093, "tags": {"name": "DSQUARED2", "name:en": "DSQUARED2", "shop": "clothes", "source": "image;Bing"}}, {"type": "node", "id": 2018990021, "lat": 35.6722946, "lon": 139.7639978, "tags": {"brand": "Gap", "brand:wikidata": "Q420822", "brand:wikipedia": "en:Gap Inc.", "name": "Gap", "shop": "clothes", "source": "image;Bing", "wheelchair": "yes"}}, {"type": "node", "id": 2018990022, "lat": 35.6718457, "lon": 139.7627877, "tags": {"name": "JUNMEN", "name:en": "JUNMEN", "shop": "clothes", "source": "image;Bing"}}, {"type": "node", "id": 2018990025, "lat": 35.6715919, "lon": 139.7620158, "tags": {"name": "Ms. REIKO", "name:en": "Ms. REIKO", "shop": "clothes"}}, {"type": "node", "id": 2018990089, "lat": 35.6720764, "lon": 139.763533, "tags": {"name:en": "Herm\u00e8s Ginza", "shop": "bag", "source": "image;Bing"}}, {"type": "node", "id": 2291210700, "lat": 35.673932, "lon": 139.7615692, "tags": {"name": "\u30d5\u30b8\u30e4\u30de", "shop": "clothes", "source": "image,2013-05;Bing"}}, {"type": "node", "id": 2291366282, "lat": 35.6737637, "lon": 139.7609853, "tags": {"name": "QB HOUSE", "shop": "hairdresser", "source": "image,2013-05;Bing"}}, {"type": "node", "id": 2291366283, "lat": 35.6737057, "lon": 139.7610686, "tags": {"name": "TSUTSUMI", "shop": "jewelry", "source": "image,2013-05;Bing"}}, {"type": "node", "id": 2324060711, "lat": 35.674144, "lon": 139.761287, "tags": {"name": "ARMANI", "shop": "clothes"}}, {"type": "node", "id": 2429720245, "lat": 35.6725944, "lon": 139.764946, "tags": {"name": "Venchi", "shop": "clothes", "source": "image,2013-08,Bing"}}, {"type": "node", "id": 2463553445, "lat": 35.6804924, "lon": 139.7688005, "tags": {"addr:city": "\u6771\u4eac\u90fd", "addr:housenumber": "1-7-23", "addr:postcode": "205-0002", "addr:street": "\u7fbd\u6751\u5e02\u6804\u753a", "fixme": "please put it in proper location (address included)", "name": "\u30ec\u30a2\u30eb\u30d8\u30a2\u30fc", "phone": "042-554-6455", "shop": "hairdresser", "wheelchair": "yes", "wheelchair:description": "\u8eca\u3044\u3059\u306e\u304b\u305f\u3067\u3082\u4f7f\u3048\u308b\u7f8e\u5bb9\u9662\u3002\u30c8\u30a4\u30ec\u3082\u5e83\u3044\u3002"}}, {"type": "node", "id": 2800570512, "lat": 35.6693714, "lon": 139.7597018, "tags": {"name": "EARTH", "shop": "hairdresser", "source": "image,2014-04;Bing;GSI/KIBAN"}}, {"type": "node", "id": 2882602645, "lat": 35.6744925, "lon": 139.765955, "tags": {"name": "ESTNATION", "shop": "clothes", "source": "image,2014-05;Bing;GSI/KIBAN 2500,NARO", "wheelchair": "limited"}}, {"type": "node", "id": 2882602648, "lat": 35.6745144, "lon": 139.7666895, "tags": {"name": "J.FERRY", "shop": "clothes", "source": "image,2014-05;Bing;GSI/KIBAN 2500,NARO", "wheelchair": "limited"}}, {"type": "node", "id": 2882602650, "lat": 35.6742296, "lon": 139.7652549, "tags": {"name": "UNITED ARROWS", "shop": "clothes", "source": "image,2014-05;Bing;GSI/KIBAN 2500,NARO", "wheelchair": "yes"}}, {"type": "node", "id": 2950257612, "lat": 35.673206, "lon": 139.7644953, "tags": {"name": "\u8cc7\u751f\u5802\u30b5\u30ed\u30f3&\u30b9\u30d1\u9280\u5ea7", "name:en": "Shiseido Salon & Spa Ginza", "shop": "beauty"}}, {"type": "node", "id": 3021593199, "lat": 35.7017879, "lon": 139.7455661, "tags": {"amenity": "fast_food", "branch": "\u98ef\u7530\u6a4b\u99c5\u524d\u5e97", "capacity": "26", "cuisine": "noodle", "level": "0;1", "name": "\u820e\u9234", "name:en": "Sharin", "name:ja-Hira": "\u3057\u3083\u308a\u3093", "opening_hours": "Mo-Fr 11:00-02:00; PH,Sa-Su 11:00-23:00", "shop": "shoes", "smoking": "no", "source": "image,2014-08;Bing;GSI/KIBAN 2500", "wheelchair": "limited"}}, {"type": "node", "id": 3021619305, "lat": 35.7005626, "lon": 139.7479832, "tags": {"shop": "clothes", "source": "image,2014-08;Bing;GSI/KIBAN 2500"}}, {"type": "node", "id": 3121899299, "lat": 35.6829716, "lon": 139.7416203, "tags": {"name": "\u30ec\u30c7\u30a3\u30fc\u30b9\u30b7\u30e7\u30c3\u30d7 \u30a2 \u30d7\u30ec\u30b9\u30c8", "name:en": "A PRESTO", "shop": "clothes"}}, {"type": "node", "id": 3121900297, "lat": 35.6830048, "lon": 139.741615, "tags": {"name": "\u7406\u5bb9\u5ba4 \u9577\u8c37\u5ddd", "shop": "hairdresser"}}, {"type": "node", "id": 3233781670, "lat": 35.6968374, "lon": 139.7689879, "tags": {"name": "\u5449\u670d\u306e\u4e0b\u4e45", "name:en": "Shimokyu Kimoto Store", "shop": "clothes", "source": "Bing;survey"}}, {"type": "node", "id": 3342922518, "lat": 35.6956833, "lon": 139.7560761, "tags": {"layer": "1", "level": "1", "name": "COCO", "shop": "hairdresser"}}, {"type": "node", "id": 3342922519, "lat": 35.6957451, "lon": 139.7564862, "tags": {"name": "DEPAK", "shop": "variety_store"}}, {"type": "node", "id": 3625989000, "lat": 35.6955607, "lon": 139.760747, "tags": {"name": "\u795e\u4fdd\u753a\u3044\u3061\u306e\u3044\u3061", "name:en": "Jimbocho Ichinoichi", "opening_hours": "10:00-20:00", "shop": "variety_store"}}, {"type": "node", "id": 3625989194, "lat": 35.6954652, "lon": 139.7602828, "tags": {"brand": "\u30c0\u30a4\u30bd\u30fc", "brand:en": "Daiso", "brand:ja": "\u30c0\u30a4\u30bd\u30fc", "brand:wikidata": "Q866991", "brand:wikipedia": "ja:\u5927\u5275\u7523\u696d", "level": "0", "name": "\u30c0\u30a4\u30bd\u30fc", "name:en": "Daiso", "name:ja": "\u30c0\u30a4\u30bd\u30fc", "opening_hours": "09:30-21:00", "shop": "variety_store", "wheelchair": "yes"}}, {"type": "node", "id": 3868424006, "lat": 35.7003993, "lon": 139.7542583, "tags": {"addr:city": "\u5343\u4ee3\u7530\u533a", "addr:housenumber": "2-7-6", "addr:street": "\u4e09\u5d0e", "name": "D'\u30d5\u30ec\u30a4\u30e0", "name:en": "D' Frame", "shop": "clothes", "wheelchair": "no"}}, {"type": "node", "id": 3888636657, "lat": 35.6978991, "lon": 139.7569483, "tags": {"name": "\u5965\u91ce\u304b\u308b\u305f\u5e97", "name:en": "Okuno Karuta -ten", "shop": "variety_store"}}, {"type": "node", "id": 4015828684, "lat": 35.6945715, "lon": 139.763885, "tags": {"name": "\u539f\u4e45\u6d0b\u670d\u5e97", "name:en": "Harakyu", "shop": "clothes"}}, {"type": "node", "id": 4015954427, "lat": 35.6958656, "lon": 139.7612292, "tags": {"level": "2", "name": "\u795e\u7530\u30d6\u30fc\u30c4\u7814\u7a76\u6240", "name:en": "Kanda Boots Kenkyusho", "shop": "clothes"}}, {"type": "node", "id": 4030817619, "lat": 35.696342, "lon": 139.7693853, "tags": {"name": "\u795e\u7530\u3061\u3087\u3093\u5b50", "name:en": "Kanda Chonko", "shop": "variety_store"}}, {"type": "node", "id": 4030932713, "lat": 35.6973338, "lon": 139.7672987, "tags": {"name": "Rin8890", "name:en": "Rin8890", "shop": "variety_store"}}, {"type": "node", "id": 4053969108, "lat": 35.6941378, "lon": 139.7650219, "tags": {"addr:city": "\u5343\u4ee3\u7530\u533a\u795e\u7530\u5c0f\u5ddd\u753a\uff12\u2212\uff11", "addr:postcode": "101-0052", "name": "\u9854\u306eY\u30b7\u30e3\u30c4", "name:en": "Kaono Y-shirt", "shop": "clothes"}}, {"type": "node", "id": 4055753583, "lat": 35.6911308, "lon": 139.7698392, "tags": {"name": "\u5c71\u672c\u67d3\u5449\u670d\u5e97", "name:en": "Yamamoto Kimono Shop", "shop": "clothes"}}, {"type": "node", "id": 4547666648, "lat": 35.6876204, "lon": 139.7421532, "tags": {"shop": "jewelry"}}, {"type": "node", "id": 4547666656, "lat": 35.6872159, "lon": 139.7416984, "tags": {"name": "CUT SALON TAKAHASHI", "shop": "hairdresser"}}, {"type": "node", "id": 4548444516, "lat": 35.6872438, "lon": 139.741732, "tags": {"name": "DQ&Co", "shop": "variety_store"}}, {"type": "node", "id": 4548444518, "lat": 35.6873195, "lon": 139.7417669, "tags": {"name": "\u30a8\u30b9\u30d1\u30fc\u30b9", "second_hand": "yes", "shop": "clothes"}}, {"type": "node", "id": 4618111192, "lat": 35.6732986, "lon": 139.7654733, "tags": {"name:en": "ATMOS Ginza", "name:it": "Atmos", "shop": "shoes"}}, {"type": "node", "id": 4711533590, "lat": 35.6769009, "lon": 139.7620729, "tags": {"name:en": "COMME des GAR\u00c7ONS", "name:it": "Comme des Gar\u00e7ons", "shop": "clothes"}}, {"type": "node", "id": 4964039142, "lat": 35.6958145, "lon": 139.7676325, "tags": {"name": "Zome", "shop": "clothes"}}, {"type": "node", "id": 4964039144, "lat": 35.6953132, "lon": 139.7611079, "tags": {"name": "ABC MART", "name:en": "ABC-Mart", "shop": "shoes"}}, {"type": "node", "id": 4967321854, "lat": 35.7009816, "lon": 139.7468897, "tags": {"name": "\u85ac\u306e\u30d2\u30b0\u30c1", "shop": "chemist"}}, {"type": "node", "id": 4967321868, "lat": 35.7009083, "lon": 139.7459897, "tags": {"name": "Hair Salon Yamada", "opening_hours:signed": "no", "shop": "hairdresser"}}, {"type": "node", "id": 4968211224, "lat": 35.7002691, "lon": 139.7423712, "tags": {"name": "Cut it", "shop": "hairdresser"}}, {"type": "node", "id": 4969852100, "lat": 35.7007178, "lon": 139.7426685, "tags": {"name": "Riat!", "shop": "shoes"}}, {"type": "node", "id": 4972066856, "lat": 35.7016409, "lon": 139.7443005, "tags": {"name": "aspri classe", "shop": "clothes"}}, {"type": "node", "id": 4972066857, "lat": 35.7016962, "lon": 139.744367, "tags": {"name": "ELLE", "shop": "clothes"}}, {"type": "node", "id": 4972910996, "lat": 35.7013166, "lon": 139.748323, "tags": {"name": "BRISTOL", "shop": "clothes"}}, {"type": "node", "id": 4972910998, "lat": 35.7011502, "lon": 139.7481551, "tags": {"name": "USHIJIMA", "shop": "hairdresser"}}, {"type": "node", "id": 5031567432, "lat": 35.6947281, "lon": 139.767656, "tags": {"name": "\u30d2\u30e5\u30fc\u30e1\u30c3\u30af\u30b9", "shop": "shoes"}}, {"type": "node", "id": 5031567436, "lat": 35.6948086, "lon": 139.7676218, "tags": {"level": "0", "name": "\u30d3\u30c3\u30b0\u30f4\u30a3\u30b8\u30e7\u30f3", "shop": "clothes"}}, {"type": "node", "id": 5035982879, "lat": 35.6989708, "lon": 139.7681911, "tags": {"name": "Eye Candy", "shop": "variety_store"}}, {"type": "node", "id": 5038827337, "lat": 35.7028364, "lon": 139.7441986, "tags": {"clothes": "suits", "name": "The Suit Company", "shop": "clothes", "wheelchair": "yes"}}, {"type": "node", "id": 5046154024, "lat": 35.6786257, "lon": 139.761955, "tags": {"name:en": "Pass The Baton - Marunouchi", "shop": "clothes"}}, {"type": "node", "id": 5065132723, "lat": 35.6743082, "lon": 139.7628099, "tags": {"name": "\u30de\u30c4\u30e2\u30c8\u30ad\u30e8\u30b7", "name:en": "Matsumotokiyoshi", "shop": "cosmetics"}}, {"type": "node", "id": 5214002987, "lat": 35.699574, "lon": 139.7636947, "tags": {"contact:phone": "+81 3 5577 7637", "level": "3", "name": "HIRO GINZA", "shop": "hairdresser", "source": "survey"}}, {"type": "node", "id": 5252152097, "lat": 35.6968532, "lon": 139.7597546, "tags": {"level": "0", "name": "QB House", "shop": "hairdresser"}}, {"type": "node", "id": 5283400077, "lat": 35.6923773, "lon": 139.7678363, "tags": {"level": "1", "name": "\u30d8\u30a2\u30fc\u30b5\u30ed\u30f3\u30bb\u30ad\u30cd", "shop": "hairdresser"}}, {"type": "node", "id": 5283408362, "lat": 35.6920386, "lon": 139.7670984, "tags": {"shop": "hairdresser", "source": "survey"}}, {"type": "node", "id": 5308229321, "lat": 35.6786412, "lon": 139.7627113, "tags": {"name": "PASS THE BATON MARUNOUCHI", "shop": "clothes"}}, {"type": "node", "id": 5388394152, "lat": 35.6963676, "lon": 139.7612527, "tags": {"male": "yes", "name": "Men's Hair Salon AZSET", "shop": "hairdresser"}}, {"type": "node", "id": 5445799073, "lat": 35.6954568, "lon": 139.760128, "tags": {"name": "\u30c4\u30eb\u30cf\u30bc\u30e9\u30c4\u30b0", "name:en": "Tsuruhaze Drug", "shop": "cosmetics"}}, {"type": "node", "id": 5456398080, "lat": 35.6954237, "lon": 139.7579877, "tags": {"level": "0", "name": "CVS", "shop": "cosmetics"}}, {"type": "node", "id": 5463561345, "lat": 35.6954013, "lon": 139.758914, "tags": {"name": "Outlet Shoes Mate", "shop": "shoes"}}, {"type": "node", "id": 5505710821, "lat": 35.6732684, "lon": 139.7606743, "tags": {"addr:housenumber": "7F", "name:en": "use nana cool", "shop": "clothes"}}, {"type": "node", "id": 5516491706, "lat": 35.6963588, "lon": 139.7608153, "tags": {"name": "\u7406\u5bb9\u5ba4K\u30fbSTYLE", "shop": "hairdresser"}}, {"type": "node", "id": 5527984722, "lat": 35.6727877, "lon": 139.7651359, "tags": {"name:en": "45R", "shop": "clothes"}}, {"type": "node", "id": 5600190077, "lat": 35.702567, "lon": 139.7438567, "tags": {"contact:phone": "+81 3260 7241", "name": "Sowelu", "shop": "hairdresser"}}, {"type": "node", "id": 5600195593, "lat": 35.7025962, "lon": 139.7437777, "tags": {"name": "\u304a\u305f\u304b\u3089\u3084", "shop": "bag", "source": "survey"}}, {"type": "node", "id": 5605920909, "lat": 35.7009506, "lon": 139.7427622, "tags": {"name": "TUC shop", "shop": "variety_store", "source": "survey"}}, {"type": "node", "id": 5613596246, "lat": 35.6975085, "lon": 139.7592197, "tags": {"level": "0", "name": "BLUE BLUE KANDA", "shop": "clothes", "source": "survey"}}, {"type": "node", "id": 5615122936, "lat": 35.7028829, "lon": 139.7443181, "tags": {"name": "THE SHOE", "shop": "shoes", "source": "survey"}}, {"type": "node", "id": 5694758093, "lat": 35.6991854, "lon": 139.7649326, "tags": {"level": "0", "name": "\u30b7\u30e7\u30c3\u30d7\u30a4\u30f3", "shop": "variety_store", "source": "survey"}}, {"type": "node", "id": 5781511083, "lat": 35.6743122, "lon": 139.760065, "tags": {"level": "0", "name": "Simmons", "shop": "clothes"}}, {"type": "node", "id": 5781511087, "lat": 35.6745591, "lon": 139.760797, "tags": {"level": "0", "name": "Graff", "shop": "jewelry"}}, {"type": "node", "id": 5781511097, "lat": 35.6741758, "lon": 139.7602532, "tags": {"brand": "Lacoste", "brand:wikidata": "Q309031", "brand:wikipedia": "en:Lacoste", "level": "0", "name": "Lacoste", "opening_hours": "Mo-Su 11:00-20:00", "shop": "clothes", "wheelchair": "yes"}}, {"type": "node", "id": 5781511107, "lat": 35.6747437, "lon": 139.7603849, "tags": {"level": "0", "name": "Shatzy Chen", "shop": "clothes"}}, {"type": "node", "id": 6127396929, "lat": 35.6957999, "lon": 139.7519116, "tags": {"brand": "AOKI", "brand:wikidata": "Q11189480", "brand:wikipedia": "ja:AOKI\u30db\u30fc\u30eb\u30c7\u30a3\u30f3\u30b0\u30b9", "clothes": "men", "level": "0", "name": "AOKI", "name:ja": "\u30a2\u30aa\u30ad", "shop": "clothes"}}, {"type": "node", "id": 6187350559, "lat": 35.6994345, "lon": 139.7550961, "tags": {"name": "Oxa by homme hair", "shop": "hairdresser"}}, {"type": "node", "id": 6187350562, "lat": 35.7022155, "lon": 139.7539057, "tags": {"name": "Sweat.JP", "shop": "clothes", "wheelchair": "no"}}, {"type": "node", "id": 6193806093, "lat": 35.6816998, "lon": 139.764709, "tags": {"level": "-1", "name": "Echika fit tokyo", "shop": "clothes"}}, {"type": "node", "id": 6199854573, "lat": 35.6906632, "lon": 139.7584886, "tags": {"level": "-1", "name": "Aso Barber", "opening_hours": "Mo-Fr 09:30-18:50, Sa 09:30-17:00", "shop": "hairdresser", "wheelchair": "limited"}}, {"type": "node", "id": 6204822788, "lat": 35.6739073, "lon": 139.7663791, "tags": {"brand": "Calvin Klein", "brand:wikidata": "Q1068628", "brand:wikipedia": "en:Calvin Klein (fashion house)", "name": "Calvin Klein", "shop": "clothes", "wheelchair": "yes"}}, {"type": "node", "id": 6204822789, "lat": 35.67334, "lon": 139.7660809, "tags": {"brand": "COS", "brand:wikidata": "Q60772401", "brand:wikipedia": "en:COS (clothing)", "name": "COS", "shop": "clothes", "wheelchair": "limited"}}, {"type": "node", "id": 6204822793, "lat": 35.6734592, "lon": 139.7659204, "tags": {"brand": "Max Mara", "brand:wikidata": "Q1151774", "brand:wikipedia": "en:Max Mara", "name": "Max Mara", "shop": "clothes"}}, {"type": "node", "id": 6229209143, "lat": 35.674221, "lon": 139.7602173, "tags": {"level": "1", "name": "Only Think Suit", "shop": "clothes"}}, {"type": "node", "id": 6229209144, "lat": 35.674043, "lon": 139.7602174, "tags": {"level": "0", "name": "C&J Clarks", "opening_hours": "Mo-Su 11:00-20:00", "shop": "shoes", "wheelchair": "yes"}}, {"type": "node", "id": 6604343185, "lat": 35.7024332, "lon": 139.7441203, "tags": {"brand": "Uniqlo", "brand:wikidata": "Q26070", "brand:wikipedia": "en:Uniqlo", "level": "-1", "name": "Uniqlo", "shop": "clothes"}}, {"type": "node", "id": 6698307824, "lat": 35.6956555, "lon": 139.7672966, "tags": {"shop": "hairdresser"}}, {"type": "node", "id": 6773654515, "lat": 35.6736511, "lon": 139.7628078, "tags": {"brand": "Gucci", "brand:wikidata": "Q178516", "name": "Gucci", "shop": "clothes"}}, {"type": "node", "id": 6784840891, "lat": 35.6963774, "lon": 139.7577699, "tags": {"name": "Vanfu", "shop": "bag", "source": "survey"}}, {"type": "node", "id": 6784918729, "lat": 35.6969885, "lon": 139.7574346, "tags": {"brand": "\u30ad\u30e3\u30f3\u30c9\u30a5", "brand:en": "CAN DO", "brand:ja": "\u30ad\u30e3\u30f3\u30c9\u30a5", "brand:wikidata": "Q11297367", "brand:wikipedia": "ja:\u30ad\u30e3\u30f3\u30c9\u30a5", "name": "\u30ad\u30e3\u30f3\u30c9\u30a5", "name:en": "CAN DO", "name:ja": "\u30ad\u30e3\u30f3\u30c9\u30a5", "name:ja-Latn": "Kyan d\u014d", "name:ja_kana": "\u304d\u3083\u3093\u3069\u3045", "name:ja_rm": "Kyan d\u014d", "operator": "\u30ad\u30e3\u30f3\u30c9\u30a5", "shop": "variety_store", "source": "survey"}}, {"type": "node", "id": 6823038528, "lat": 35.6970927, "lon": 139.7586364, "tags": {"name": "\u57fc\u7389\u3084", "shop": "tailor", "source": "survey"}}, {"type": "node", "id": 6823038535, "lat": 35.6967942, "lon": 139.7579987, "tags": {"name": "HOMME HAIR Zero", "shop": "hairdresser", "source": "survey"}}, {"type": "node", "id": 6878486787, "lat": 35.696346, "lon": 139.7617321, "tags": {"name": "Unique", "shop": "hairdresser"}}, {"type": "node", "id": 6896022111, "lat": 35.6992321, "lon": 139.7633638, "tags": {"level": "2", "name": "Neolive", "shop": "hairdresser", "source": "survey"}}, {"type": "node", "id": 6898440927, "lat": 35.6741882, "lon": 139.7595115, "tags": {"layer": "-1", "name": "KALDI COFFEE FARM", "shop": "variety_store", "source": "survey"}}, {"type": "node", "id": 7161523705, "lat": 35.6864018, "lon": 139.7399875, "tags": {"name": "STELLAR", "shop": "hairdresser"}}, {"type": "node", "id": 7161544249, "lat": 35.6849174, "lon": 139.7374439, "tags": {"name": "welcia", "shop": "chemist"}}, {"type": "node", "id": 7215839956, "lat": 35.6961691, "lon": 139.7607773, "tags": {"shop": "shoes"}}, {"type": "node", "id": 7440039133, "lat": 35.6725279, "lon": 139.7650071, "tags": {"name": "Luzir", "shop": "hairdresser"}}, {"type": "node", "id": 7440039135, "lat": 35.6722806, "lon": 139.7649938, "tags": {"name": "\u30d3\u30fc\u30e0\u30b9 \u9280\u5ea7", "shop": "clothes"}}, {"type": "node", "id": 7440039136, "lat": 35.6725429, "lon": 139.7649533, "tags": {"name": "HIRO GINZA", "shop": "hairdresser"}}, {"type": "node", "id": 7440039138, "lat": 35.6725773, "lon": 139.7649286, "tags": {"name": "Hair Age", "shop": "hairdresser"}}, {"type": "node", "id": 7440039161, "lat": 35.6721659, "lon": 139.7643612, "tags": {"name": "\u697d\u6765", "shop": "beauty"}}, {"type": "node", "id": 7443753986, "lat": 35.692806, "lon": 139.7715163, "tags": {"brand": "QB\u30cf\u30a6\u30b9", "brand:en": "QB HOUSE", "brand:ja": "QB\u30cf\u30a6\u30b9", "brand:wikidata": "Q11297528", "brand:wikipedia": "ja:\u30ad\u30e5\u30fc\u30d3\u30fc\u30cd\u30c3\u30c8", "name": "QB\u30cf\u30a6\u30b9", "name:en": "QB HOUSE", "name:ja": "QB\u30cf\u30a6\u30b9", "shop": "hairdresser"}}, {"type": "node", "id": 7880353236, "lat": 35.6943289, "lon": 139.7712462, "tags": {"name": "\u30d0\u30e9\u30a8\u30c6\u30a3\u30fc\u30b7\u30e7\u30c3\u30d7\u30cf\u30e4\u30b5\u30ab", "shop": "variety_store", "source": "survey"}}, {"type": "node", "id": 7922860939, "lat": 35.6964169, "lon": 139.7567021, "tags": {"level": "1,2", "name": "\u795e\u7530\u795e\u4fdd\u753a\u30a8\u30b9\u30c6\u30b5\u30ed\u30f3", "shop": "beauty", "source": "survey"}}, {"type": "node", "id": 7922979981, "lat": 35.6953927, "lon": 139.7578929, "tags": {"level": "0", "name": "Hananone", "shop": "variety_store"}}, {"type": "node", "id": 7923010314, "lat": 35.695326, "lon": 139.7560735, "tags": {"name": "Ken House", "shop": "tailor", "source": "survey"}}, {"type": "node", "id": 8016329017, "lat": 35.6935771, "lon": 139.7661466, "tags": {"shop": "hairdresser", "source": "survey"}}, {"type": "node", "id": 9160557681, "lat": 35.6946358, "lon": 139.7688526, "tags": {"level": "0", "name": "\u30d6\u30eb\u30fc\u30e0", "shop": "hearing_aids"}}, {"type": "node", "id": 9177482642, "lat": 35.6944032, "lon": 139.7692362, "tags": {"name": "\u7406\u5bb9 \u30ef\u30b3\u30a6", "shop": "hairdresser"}}, {"type": "node", "id": 9822381691, "lat": 35.6899494, "lon": 139.771026, "tags": {"shop": "hairdresser"}}, {"type": "node", "id": 9822381694, "lat": 35.6892215, "lon": 139.7713581, "tags": {"shop": "tailor"}}, {"type": "node", "id": 9893255122, "lat": 35.6727391, "lon": 139.7642336, "tags": {"name": "\u30de\u30f3\u30ac\u30cd\u30c3\u30c8\u30c0\u30fc\u30c4\u9280\u5ea7\u5e97", "shop": "erotic"}}, {"type": "node", "id": 9979221136, "lat": 35.6912106, "lon": 139.7689258, "tags": {"name": "Brooch", "shop": "jewelry"}}, {"type": "way", "id": 149147751, "nodes": [1621709602, 1621709681, 1621709597, 1621709588, 1621709602], "tags": {"building": "retail", "name:en": "Mikimoto Ginza 2", "name:ja": "MIKIMOTO \u9280\u5ea72", "shop": "jewelry", "source": "Bing,2007"}}]}