{"version": 0.6, "generator": "Overpass API 0.7.58.5 b0c4acbb", "osm3s": {"timestamp_osm_base": "2022-09-04T19:12:12Z", "copyright": "The data included in this document is from www.openstreetmap.org. The data is made available under ODbL."}, "elements": [{"type": "node", "id": 2595823499, "lat": 41.4037607, "lon": 2.2042587, "tags": {"shop": "convenience"}}, {"type": "node", "id": 2764585970, "lat": 41.4033811, "lon": 2.2031684, "tags": {"addr:country": "ES", "brand": "Granier", "brand:wikidata": "Q102311169", "name": "Granier", "shop": "bakery"}}, {"type": "node", "id": 2915567416, "lat": 41.4032667, "lon": 2.2025276, "tags": {"addr:city": "Barcelona", "addr:housenumber": "209", "addr:postcode": "08005", "addr:street": "Carrer de Pujades", "amenity": "restaurant", "cuisine": "italian", "name": "O Principe", "opening_hours": "Mo-Th 12:00-16:00,20:00-23:30; Fr-Su 12:00-16:00,20:00-00:00"}}, {"type": "node", "id": 2918936192, "lat": 41.4035872, "lon": 2.2033968, "tags": {"amenity": "bar", "name": "Bar Restaurant Vendrell"}}, {"type": "node", "id": 2918964887, "lat": 41.4036578, "lon": 2.2034945, "tags": {"name": "L' anxoveta", "shop": "seafood"}}, {"type": "node", "id": 2919000428, "lat": 41.4037406, "lon": 2.2032408, "tags": {"addr:housenumber": "221, 223", "addr:postcode": "08005", "addr:street": "Carrer de Pujades", "amenity": "bar", "name": "Tr\u00e9Bol"}}, {"type": "node", "id": 2919000429, "lat": 41.4037907, "lon": 2.2033082, "tags": {"addr:housenumber": "221, 223", "addr:postcode": "08005", "addr:street": "Carrer de Pujades", "amenity": "restaurant", "cuisine": "barbecue", "delivery": "yes", "name": "Menjarb\u00e9", "takeaway": "only"}}, {"type": "node", "id": 2919002462, "lat": 41.4038148, "lon": 2.2033407, "tags": {"addr:housenumber": "225", "addr:postcode": "08005", "addr:street": "Carrer de Pujades", "amenity": "restaurant", "name": "FOODIES"}}, {"type": "node", "id": 3362597637, "lat": 41.4027825, "lon": 2.2034307, "tags": {"brand": "Condis", "brand:wikidata": "Q57417581", "brand:wikipedia": "ca:Condis", "name": "Condis", "operator": "Condis", "shop": "supermarket"}}, {"type": "node", "id": 4967425632, "lat": 41.4025441, "lon": 2.2045819, "tags": {"addr:city": "Barcelona", "addr:housenumber": "230-234", "addr:postcode": "08005", "addr:street": "Carrer de Llull", "amenity": "restaurant", "cuisine": "international", "name": "Pronto"}}, {"type": "node", "id": 6532206186, "lat": 41.4026728, "lon": 2.2041328, "tags": {"amenity": "restaurant", "name": "Bilbao34"}}, {"type": "node", "id": 6532206187, "lat": 41.4032734, "lon": 2.2032208, "tags": {"addr:street": "Carrer de Bilbao", "amenity": "ice_cream", "name": "Granja"}}, {"type": "node", "id": 6532342085, "lat": 41.4022005, "lon": 2.204014, "tags": {"amenity": "fast_food", "name": "Ali Baba d\u00f6ner Kebab"}}, {"type": "node", "id": 8062015289, "lat": 41.4034478, "lon": 2.203253, "tags": {"shop": "convenience"}}, {"type": "node", "id": 8087274919, "lat": 41.403051, "lon": 2.2030518, "tags": {"name": "Cal Fruit\u00f3s", "shop": "greengrocer"}}, {"type": "node", "id": 8087302017, "lat": 41.4032379, "lon": 2.2032108, "tags": {"amenity": "cafe", "name": "La Gelateria"}}, {"type": "node", "id": 8839246117, "lat": 41.4038382, "lon": 2.2041602, "tags": {"addr:housenumber": "77", "addr:street": "Carrer Lope de Vega", "amenity": "restaurant", "internet_access": "wlan", "name": "Alan Tapa's Bar"}}]}