{"version": 0.6, "generator": "Overpass API 0.7.58.5 b0c4acbb", "osm3s": {"timestamp_osm_base": "2022-08-28T23:46:16Z", "copyright": "The data included in this document is from www.openstreetmap.org. The data is made available under ODbL."}, "elements": [{"type": "node", "id": 660100525, "lat": 41.4046529, "lon": 2.1962971, "tags": {"addr:country": "ES", "name": "Marco Aldany", "shop": "hairdresser"}}, {"type": "node", "id": 660778772, "lat": 41.4028034, "lon": 2.1987788, "tags": {"name": "Temptation", "shop": "clothes"}}, {"type": "node", "id": 1844121284, "lat": 41.4053507, "lon": 2.1758416, "tags": {"addr:country": "ES", "shop": "hairdresser"}}, {"type": "node", "id": 1844121286, "lat": 41.4055852, "lon": 2.1761135, "tags": {"name": "Molin\u00e9", "shop": "clothes"}}, {"type": "node", "id": 1845431573, "lat": 41.4060239, "lon": 2.1763822, "tags": {"name": "Chupi-Dolc", "name:en": "Nails & Friends", "shop": "beauty"}}, {"type": "node", "id": 1845431576, "lat": 41.4056668, "lon": 2.1759786, "tags": {"name": "La Perroqueria", "shop": "clothes"}}, {"type": "node", "id": 1845431580, "lat": 41.4054625, "lon": 2.1755543, "tags": {"name": "Olivella", "shop": "clothes"}}, {"type": "node", "id": 1845431582, "lat": 41.4059585, "lon": 2.1763055, "tags": {"name:en": "ABSALON", "shop": "beauty"}}, {"type": "node", "id": 1845455478, "lat": 41.4063328, "lon": 2.1766895, "tags": {"name": "Schlecker", "shop": "chemist"}}, {"type": "node", "id": 1845505626, "lat": 41.4064985, "lon": 2.1773261, "tags": {"name": "Humana", "second_hand": "only", "shop": "clothes"}}, {"type": "node", "id": 1934457525, "lat": 41.4055342, "lon": 2.2019129, "tags": {"addr:city": "Barcelona", "addr:full": "carrer Lope de Vega, 123", "addr:housenumber": "123", "addr:postcode": "08005", "addr:street": "carrer Lope de Vega", "amenity": "pharmacy", "contact:phone": "+34933071583", "dispensing": "yes", "name": "Farm\u00e0cia P\u00e9rez Fleitas, D\u00e0cil", "opening_hours": "Mo-Fr 08:30-20:30; Sa 09:00-14:00", "ref": "3624260", "shop": "chemist", "source": "Generalitat de Catalunya", "source:date": "03/11/2020 07:58:12 AM +0000"}}, {"type": "node", "id": 2193095353, "lat": 41.4033023, "lon": 2.1979634, "tags": {"addr:country": "ES", "name": "Pel No", "shop": "hairdresser"}}, {"type": "node", "id": 2193095369, "lat": 41.4036886, "lon": 2.1982691, "tags": {"name": "NuAnJu", "shop": "shoes"}}, {"type": "node", "id": 2194567283, "lat": 41.4074466, "lon": 2.1805634, "tags": {"addr:country": "ES", "shop": "hairdresser"}}, {"type": "node", "id": 2195903240, "lat": 41.4181845, "lon": 2.1888835, "tags": {"opening_hours:covid19": "off", "shop": "variety_store"}}, {"type": "node", "id": 2576974234, "lat": 41.399496, "lon": 2.183855, "tags": {"addr:country": "ES", "shop": "hairdresser"}}, {"type": "node", "id": 2576974263, "lat": 41.4003504, "lon": 2.1841547, "tags": {"addr:country": "ES", "shop": "hairdresser"}}, {"type": "node", "id": 2622086014, "lat": 41.4058214, "lon": 2.1761782, "tags": {"addr:country": "ES", "shop": "hairdresser"}}, {"type": "node", "id": 3011015936, "lat": 41.4122977, "lon": 2.1933087, "tags": {"addr:city": "Barcelona", "addr:full": "carrer Lope de Vega, 282", "addr:housenumber": "282", "addr:postcode": "08018", "addr:street": "carrer Lope de Vega", "amenity": "pharmacy", "contact:phone": "+34933083958", "dispensing": "yes", "name": "Farm\u00e0cia Plana Mendo, Joan Josep", "ref": "3624093", "shop": "chemist", "source": "Generalitat de Catalunya", "source:date": "03/11/2020 07:58:12 AM +0000", "website": "http://farmaciadelclotdelamel.com/"}}, {"type": "node", "id": 3049368237, "lat": 41.4088068, "lon": 2.1895824, "tags": {"addr:city": "Barcelona", "addr:country": "ES", "addr:housenumber": "29", "addr:postcode": "08018", "addr:street": "Carrer de Rossend Nobas", "brand": "Clarel", "contact:website": "https://www.clarel.es/", "name": "Clarel", "opening_hours": "Mo-Fr 09:00-13:45; Sa 09:15-14:00; Tu-Fr 17:00-20:30; Mo,Sa 17:00-20:00; PH closed", "payment:mastercard": "yes", "payment:visa": "yes", "shop": "chemist"}}, {"type": "node", "id": 3493195135, "lat": 41.3974534, "lon": 2.1810165, "tags": {"shop": "herbalist"}}, {"type": "node", "id": 3682781412, "lat": 41.4053524, "lon": 2.1774632, "tags": {"name": "Confecciones Padilla", "shop": "clothes"}}, {"type": "node", "id": 3913238726, "lat": 41.4181067, "lon": 2.1837966, "tags": {"addr:city": "Barcelona", "addr:postcode": "08027", "addr:street": "Carrer de Sant Antoni Maria Claret", "name": "Basar Orient", "opening_hours": "09:00-21:00", "shop": "variety_store"}}, {"type": "node", "id": 4126341344, "lat": 41.4061262, "lon": 2.1725269, "tags": {"name": "Denia", "shop": "shoes"}}, {"type": "node", "id": 4141014602, "lat": 41.4060552, "lon": 2.171867, "tags": {"name": "EquivalenZa", "shop": "perfumery"}}, {"type": "node", "id": 4242059090, "lat": 41.4114685, "lon": 2.1885166, "tags": {"name": "Burberry outlet", "opening_hours": "Mo-Sa 10:00-20:30", "shop": "clothes"}}, {"type": "node", "id": 4254662409, "lat": 41.3941611, "lon": 2.1872169, "tags": {"name": "Marco Aldany", "opening_hours": "Mo-Sa 08:00-22:00", "shop": "hairdresser"}}, {"type": "node", "id": 4334598706, "lat": 41.4082822, "lon": 2.1877505, "tags": {"addr:city": "Barcelona", "addr:housenumber": "4-6", "addr:postcode": "08018", "addr:street": "Carrer de la S\u00e8quia Comtal", "facebook": "https://www.facebook.com/mertxesites", "name": "Mertxesites", "shop": "fabric", "website": "http://mertxesites.com"}}, {"type": "node", "id": 4335096940, "lat": 41.4129948, "lon": 2.1929687, "tags": {"name": "Merceria i G\u00e9neres de Punt", "shop": "tailor", "wheelchair": "limited"}}, {"type": "node", "id": 4361915993, "lat": 41.3993722, "lon": 2.1919911, "tags": {"addr:housenumber": "121", "addr:postcode": "08018", "addr:street": "Carrer de \u00c1vila", "email": "hola@perfumeriassanremo.es", "name": "Perfumerias San Remo", "name:es": "Perfumerias San Remo", "phone": "+34 902102305", "shop": "beauty", "website": "https://www.perfumeriassanremo.es/"}}, {"type": "node", "id": 4713902465, "lat": 41.40812, "lon": 2.183136, "tags": {"name": "La Barberia", "shop": "hairdresser"}}, {"type": "node", "id": 4721921293, "lat": 41.4153555, "lon": 2.1804154, "tags": {"name": "David", "name:es": "David", "shop": "hairdresser"}}, {"type": "node", "id": 4727974689, "lat": 41.4150495, "lon": 2.1823592, "tags": {"name": "Alaya", "name:es": "Alaya", "shop": "hairdresser"}}, {"type": "node", "id": 4727974891, "lat": 41.4020303, "lon": 2.1844899, "tags": {"name": "cachito", "name:es": "cachito", "shop": "clothes"}}, {"type": "node", "id": 4727975193, "lat": 41.407176, "lon": 2.1836797, "tags": {"name": "Enamorats", "name:ca": "Enamorats", "shop": "hairdresser"}}, {"type": "node", "id": 4728103194, "lat": 41.4145087, "lon": 2.1810818, "tags": {"name": "Inusual", "name:es": "Inusual", "shop": "clothes"}}, {"type": "node", "id": 4770622247, "lat": 41.4110648, "lon": 2.1761727, "tags": {"name": "Tria", "shop": "shoes"}}, {"type": "node", "id": 4771270128, "lat": 41.4142475, "lon": 2.1807991, "tags": {"name": "Qu\u00e9 Pelos!", "name:es": "Qu\u00e9 Pelos!", "shop": "hairdresser"}}, {"type": "node", "id": 4776361634, "lat": 41.4122598, "lon": 2.1759988, "tags": {"name": "Solman\u00eda", "shop": "cosmetics"}}, {"type": "node", "id": 4776374525, "lat": 41.4116529, "lon": 2.1752009, "tags": {"name": "Dos", "shop": "hairdresser"}}, {"type": "node", "id": 4776903514, "lat": 41.4095529, "lon": 2.1746915, "tags": {"name": "Soriano", "shop": "shoes", "wheelchair": "limited"}}, {"type": "node", "id": 4777016725, "lat": 41.4090871, "lon": 2.1848335, "tags": {"name": "Marino", "shop": "clothes"}}, {"type": "node", "id": 4777026121, "lat": 41.4095777, "lon": 2.1837764, "tags": {"name": "Denia", "shop": "shoes"}}, {"type": "node", "id": 4779817138, "lat": 41.4130402, "lon": 2.1807108, "tags": {"name": "Conca", "name:ca": "Conca", "shop": "hairdresser"}}, {"type": "node", "id": 4779864529, "lat": 41.4128022, "lon": 2.1807034, "tags": {"name": "Depilat amb Gr\u00e0cia", "name:ca": "Depilat amb Gr\u00e0cia", "shop": "cosmetics"}}, {"type": "node", "id": 4782735422, "lat": 41.4154067, "lon": 2.1892796, "tags": {"name": "Olga Herrero", "shop": "hairdresser"}}, {"type": "node", "id": 4782747522, "lat": 41.4151503, "lon": 2.1890522, "tags": {"shop": "hairdresser"}}, {"type": "node", "id": 4878112294, "lat": 41.4078713, "lon": 2.1890912, "tags": {"name": "Maria Casas", "shop": "herbalist"}}, {"type": "node", "id": 4942732022, "lat": 41.4098359, "lon": 2.1938779, "tags": {"name": "La poesie", "shop": "hairdresser"}}, {"type": "node", "id": 5279622091, "lat": 41.3988258, "lon": 2.1795973, "tags": {"addr:housenumber": "226", "addr:street": "Carrer de Sardenya", "name": "Blessed Art Tattoo", "shop": "tattoo"}}, {"type": "node", "id": 5279622621, "lat": 41.3990893, "lon": 2.179224, "tags": {"addr:housenumber": "232", "addr:street": "Carrer de Sardenya", "name": "Basar Prosper 2", "opening_hours": "Mo-Sa 09:15-21:15", "shop": "variety_store"}}, {"type": "node", "id": 5499157230, "lat": 41.4095451, "lon": 2.1840204, "tags": {"name": "Lara", "shop": "watches"}}, {"type": "node", "id": 5536040836, "lat": 41.3993496, "lon": 2.1836323, "tags": {"name": "Herbolari Trini", "shop": "herbalist"}}, {"type": "node", "id": 5546040721, "lat": 41.4044304, "lon": 2.1988126, "tags": {"name": "Poblet. La Africana", "opening_hours": "Mo-Fr 09:00-13:30,16:00-20:00", "shop": "clothes"}}, {"type": "node", "id": 5890439185, "lat": 41.404998, "lon": 2.1826771, "tags": {"addr:city": "Barcelona", "addr:housenumber": "180", "addr:postcode": "08013", "addr:street": "Carrer de Cartagena", "name": "Bolsos Roca", "phone": "+34 932 45 75 85", "shop": "bag"}}, {"type": "node", "id": 6035750933, "lat": 41.4081797, "lon": 2.1891774, "tags": {"addr:city": "Barcelona", "addr:country": "ES", "addr:housenumber": "8", "addr:postcode": "08018", "addr:street": "Carrer de Rossend Nobas", "contact:email": "inksomniotattoo@gmail.com", "contact:phone": "+34 930233857;+34 625188024", "contact:website": "https://www.inksomniotattoo.com/", "name": "Inksomnio", "opening_hours": "Mo-Sa 11:00-20:00", "shop": "tattoo"}}, {"type": "node", "id": 6035758305, "lat": 41.4082761, "lon": 2.189036, "tags": {"addr:city": "Barcelona", "addr:country": "ES", "addr:street": "Carrer de Rossend Nobas", "name": "Olyan", "shop": "hairdresser"}}, {"type": "node", "id": 6035759033, "lat": 41.4080821, "lon": 2.1890617, "tags": {"addr:city": "Barcelona", "addr:country": "ES", "addr:street": "Carrer de Rossend Nobas", "name": "Alhambra", "opening_hours": "Mo-Sa 10:00-14:00, 16:30-21:00", "shop": "hairdresser"}}, {"type": "node", "id": 6121077746, "lat": 41.4020181, "lon": 2.1795792, "tags": {"addr:city": "Barcelona", "addr:country": "ES", "addr:street": "Carrer Enamorats", "contact:phone": "+34 935149968", "name": "Scissors N Razors", "shop": "hairdresser"}}, {"type": "node", "id": 6125430218, "lat": 41.4076796, "lon": 2.1830191, "tags": {"name": "D\u00fcca", "shop": "perfumery"}}, {"type": "node", "id": 6125430220, "lat": 41.4066384, "lon": 2.1816599, "tags": {"name": "JuAl", "opening_hours": "Mo-Fr 10:00-13:45, 17:00-20:30; Sa 10:00-14:00, 17:00-20:30", "shop": "leather"}}, {"type": "node", "id": 6125480966, "lat": 41.4060438, "lon": 2.1837258, "tags": {"name": "Brische", "shop": "perfumery"}}, {"type": "node", "id": 6138972128, "lat": 41.3986272, "lon": 2.1930161}, {"type": "node", "id": 6138972135, "lat": 41.398322, "lon": 2.1926353}, {"type": "node", "id": 6138972165, "lat": 41.3983289, "lon": 2.1926184}, {"type": "node", "id": 6138972171, "lat": 41.3983401, "lon": 2.1926333}, {"type": "node", "id": 6138972295, "lat": 41.3985806, "lon": 2.1930773, "tags": {"addr:city": "Barcelona", "addr:housenumber": "105", "addr:postcode": "08018", "addr:street": "Carrer \u00c1vila", "entrance": "yes"}}, {"type": "node", "id": 6138972301, "lat": 41.3984522, "lon": 2.192783}, {"type": "node", "id": 6138972303, "lat": 41.3983059, "lon": 2.1926749}, {"type": "node", "id": 6138972324, "lat": 41.3982758, "lon": 2.192749}, {"type": "node", "id": 6138972356, "lat": 41.3985503, "lon": 2.1931171}, {"type": "node", "id": 6157628942, "lat": 41.4087979, "lon": 2.1886997, "tags": {"name": "Basar Xines", "shop": "variety_store"}}, {"type": "node", "id": 6157629898, "lat": 41.4079727, "lon": 2.1887483, "tags": {"name": "Llabot Perruquers", "shop": "hairdresser", "wheelchair": "no"}}, {"type": "node", "id": 6164139387, "lat": 41.405663, "lon": 2.1910001, "tags": {"addr:city": "Barcelona", "addr:country": "ES", "addr:housenumber": "208", "addr:postcode": "08018", "addr:street": "Avinguda Diagonal", "branch": "Centro Comercial Glories", "contact:phone": "+34 687611817", "name": "Sephora", "opening_hours": "Mo-Sa 09:00-21:00", "shop": "cosmetics", "survey:date": "2022-01-19"}}, {"type": "node", "id": 6166498624, "lat": 41.4089996, "lon": 2.1808993, "tags": {"addr:city": "Barcelona", "addr:country": "ES", "addr:housenumber": "556", "addr:postcode": "08026", "addr:street": "Carrer de Proven\u00e7a", "addr:unit": "2", "name": "Zaib", "shop": "hairdresser"}}, {"type": "node", "id": 6167240128, "lat": 41.4080887, "lon": 2.1882085, "tags": {"addr:city": "Barcelona", "addr:country": "ES", "addr:housenumber": "59", "addr:postcode": "08018", "addr:street": "Carrer del Clot", "contact:email": "info@gruppaloma.com", "contact:phone": "+34 932465723", "contact:website": "http://palomaprimerainfancia.com/", "name": "Paloma", "payment:mastercard": "yes", "payment:visa": "yes", "shop": "baby_goods"}}, {"type": "node", "id": 6181753804, "lat": 41.4037975, "lon": 2.1800454, "tags": {"addr:city": "Barcelona", "addr:country": "ES", "name": "Gaudi Styles", "shop": "hairdresser"}}, {"type": "node", "id": 6216725701, "lat": 41.4093188, "lon": 2.1738787, "tags": {"name": "Basar Moda", "shop": "variety_store"}}, {"type": "node", "id": 6296657085, "lat": 41.4080636, "lon": 2.1888372, "tags": {"addr:city": "Barcelona", "addr:housenumber": "3", "addr:postcode": "08018", "addr:street": "Carrer de Rossend Nobas", "name": "Gota Natural", "phone": "+34 931155059", "shop": "chemist"}}, {"type": "node", "id": 6316179568, "lat": 41.4095075, "lon": 2.1724535, "tags": {"addr:city": "Barcelona", "addr:housenumber": "178", "addr:postcode": "08025", "addr:street": "Carrer de Sant Antoni Maria Claret", "name": "Sol\u00e9 Perruquers", "opening_hours": "Mo-Fr 9:00-14:00,16:00-20:00; Sa 9:00-14:00", "payment:cash": "yes", "payment:maestro": "yes", "payment:mastercard": "yes", "payment:visa": "yes", "payment:visa_debit": "yes", "shop": "hairdresser"}}, {"type": "node", "id": 6501527867, "lat": 41.4050046, "lon": 2.1908037, "tags": {"name": "Kiehl's", "shop": "cosmetics", "survey:date": "2022-01-19"}}, {"type": "node", "id": 6501527978, "lat": 41.4051338, "lon": 2.1905857, "tags": {"name": "H&M", "shop": "clothes"}}, {"type": "node", "id": 6588176185, "lat": 41.40478, "lon": 2.1900261, "tags": {"name": "C&A", "opening_hours": "Mo-Sa 09:00-21:00", "shop": "clothes"}}, {"type": "node", "id": 6594314285, "lat": 41.4031429, "lon": 2.1769215, "tags": {"addr:housenumber": "443", "addr:street": "Carrer de Val\u00e8ncia", "name": "Cal\u00e7ats Llorens", "shop": "shoes"}}, {"type": "node", "id": 7107839712, "lat": 41.4079724, "lon": 2.1881843, "tags": {"name": "La Balear", "shop": "chemist"}}, {"type": "node", "id": 7107839715, "lat": 41.4080981, "lon": 2.1879309, "tags": {"name": "Mora Hogar", "shop": "clothes", "wheelchair": "limited"}}, {"type": "node", "id": 7525239485, "lat": 41.4126396, "lon": 2.1830735, "tags": {"name": "Perruqueria Muntanya", "shop": "hairdresser"}}, {"type": "node", "id": 7525422985, "lat": 41.4173916, "lon": 2.1861542, "tags": {"name": "Vicen\u00e7 i Luna", "shop": "hairdresser"}}, {"type": "node", "id": 7525556485, "lat": 41.4157873, "lon": 2.1905204, "tags": {"name": "Beig\u00e9", "shop": "hairdresser"}}, {"type": "node", "id": 7525556486, "lat": 41.4115058, "lon": 2.1898132, "tags": {"name": "Alternative", "shop": "hairdresser"}}, {"type": "node", "id": 7528323087, "lat": 41.4026119, "lon": 2.176334, "tags": {"name": "Casa Nepal", "shop": "clothes"}}, {"type": "node", "id": 7528323286, "lat": 41.4020671, "lon": 2.175345, "tags": {"name": "Quetglas", "shop": "shoes"}}, {"type": "node", "id": 7555814340, "lat": 41.4069286, "lon": 2.1932817, "tags": {"name": "Euro100 Sant Mart\u00ed", "shop": "variety_store"}}, {"type": "node", "id": 7556637990, "lat": 41.403021, "lon": 2.1984405, "tags": {"name": "Aloha", "shop": "beauty"}}, {"type": "node", "id": 7556742391, "lat": 41.4026637, "lon": 2.19726, "tags": {"name": "Jean Louis David", "shop": "hairdresser"}}, {"type": "node", "id": 7557038714, "lat": 41.4037917, "lon": 2.1974117, "tags": {"name": "barberia Carlos Conde", "shop": "hairdresser"}}, {"type": "node", "id": 7559103785, "lat": 41.4072762, "lon": 2.1947953, "tags": {"shop": "hairdresser"}}, {"type": "node", "id": 7559103986, "lat": 41.4074493, "lon": 2.1935732, "tags": {"shop": "hairdresser"}}, {"type": "node", "id": 7559103987, "lat": 41.4074197, "lon": 2.1935329, "tags": {"name": "AcuMedic", "shop": "beauty"}}, {"type": "node", "id": 7559103988, "lat": 41.4073289, "lon": 2.1934071, "tags": {"name": "Slawa", "shop": "hairdresser"}}, {"type": "node", "id": 7559166784, "lat": 41.4076412, "lon": 2.1934115, "tags": {"shop": "hairdresser"}}, {"type": "node", "id": 7563843047, "lat": 41.4036779, "lon": 2.1986056, "tags": {"name": "incorpora", "shop": "beauty"}}, {"type": "node", "id": 7702547685, "lat": 41.4087253, "lon": 2.1852744, "tags": {"name": "Depiline", "shop": "cosmetics"}}, {"type": "node", "id": 7778052585, "lat": 41.4052837, "lon": 2.1907956, "tags": {"name": "Hollister", "name:en": "Hollister", "shop": "clothes"}}, {"type": "node", "id": 8035019186, "lat": 41.4002413, "lon": 2.1957979, "tags": {"name": "Systemaction outlet", "shop": "clothes"}}, {"type": "node", "id": 8049731609, "lat": 41.4071197, "lon": 2.1947997, "tags": {"name": "Backstage", "shop": "hairdresser"}}, {"type": "node", "id": 8049732294, "lat": 41.4030638, "lon": 2.2001151, "tags": {"name": "M&Y", "shop": "hairdresser"}}, {"type": "node", "id": 8049732295, "lat": 41.4033782, "lon": 2.1997801, "tags": {"name": "A1 tattoo", "shop": "tattoo"}}, {"type": "node", "id": 8090404618, "lat": 41.4062367, "lon": 2.1902063, "tags": {"name": "Moda Amiga. Fundaci\u00f2 Engrunes", "shop": "charity"}}, {"type": "node", "id": 8489754260, "lat": 41.404883, "lon": 2.1902253, "tags": {"name": "Primor", "shop": "clothes", "survey:date": "2022-01-19"}}, {"type": "node", "id": 8489754261, "lat": 41.4048848, "lon": 2.190645, "tags": {"name": "Pandora", "shop": "jewelry"}}, {"type": "node", "id": 8489754262, "lat": 41.4045882, "lon": 2.1903262, "tags": {"name": "Massimo Dutti", "shop": "clothes"}}, {"type": "node", "id": 8489754263, "lat": 41.40499, "lon": 2.1912247, "tags": {"name": "Uniqlo", "shop": "clothes", "survey:date": "2022-01-19"}}, {"type": "node", "id": 8489792523, "lat": 41.4047703, "lon": 2.1904961, "tags": {"brand": "Zara", "brand:wikidata": "Q147662", "brand:wikipedia": "en:Zara (retailer)", "name": "Zara", "shop": "clothes"}}, {"type": "node", "id": 8489792524, "lat": 41.4049742, "lon": 2.1903403, "tags": {"brand": "Oysho", "brand:wikidata": "Q3327046", "brand:wikipedia": "en:Oysho", "name": "Oysho", "shop": "clothes", "survey:date": "2022-01-19"}}, {"type": "node", "id": 9003468046, "lat": 41.413953, "lon": 2.1888988, "tags": {"name": "Wild Spirit Tattoo", "shop": "tattoo", "website": "http://www.tattoobcn.com/"}}, {"type": "node", "id": 9212822489, "lat": 41.4071635, "lon": 2.1801511, "tags": {"name": "Fundaci\u00f3 Engrunes", "shop": "charity"}}, {"type": "node", "id": 9225916902, "lat": 41.4059421, "lon": 2.1721882, "tags": {"beauty": "nails", "name": "Nails Factory", "shop": "beauty"}}, {"type": "node", "id": 9431243718, "lat": 41.4051129, "lon": 2.1909634, "tags": {"brand": "L'Occitane", "brand:wikidata": "Q1880676", "brand:wikipedia": "en:L'Occitane en Provence", "name": "L'Occitane", "shop": "cosmetics", "survey:date": "2022-01-19"}}, {"type": "node", "id": 9431243719, "lat": 41.4050659, "lon": 2.1911432, "tags": {"name": "Nyx", "shop": "beauty", "survey:date": "2022-01-19"}}, {"type": "node", "id": 9431243720, "lat": 41.4051665, "lon": 2.1907309, "tags": {"level": "-1", "name": "Sfera", "shop": "clothes", "survey:date": "2022-01-19"}}, {"type": "node", "id": 9431243721, "lat": 41.4050609, "lon": 2.1905941, "tags": {"level": "-1", "name": "Scalpers", "shop": "clothes", "survey:date": "2022-01-19"}}, {"type": "node", "id": 9431243722, "lat": 41.4045861, "lon": 2.1904229, "tags": {"level": "-1", "name": "u-casas", "shop": "shoes", "survey:date": "2022-01-19"}}, {"type": "node", "id": 9431243723, "lat": 41.4052249, "lon": 2.1910089, "tags": {"level": "-1", "name": "Rituals...", "shop": "cosmetics", "survey:date": "2022-01-19"}}, {"type": "node", "id": 9431243818, "lat": 41.40506, "lon": 2.1908903, "tags": {"brand": "Bimba y Lola", "brand:wikidata": "Q54869493", "brand:wikipedia": "es:Bimba y Lola", "name": "Bimba y Lola", "shop": "clothes", "survey:date": "2022-01-19"}}, {"type": "node", "id": 9431243819, "lat": 41.405372, "lon": 2.1907099, "tags": {"name": "Tous", "shop": "bag", "survey:date": "2022-01-19"}}, {"type": "node", "id": 9431243820, "lat": 41.4052543, "lon": 2.1908356, "tags": {"brand": "Pull & Bear", "brand:wikidata": "Q691029", "brand:wikipedia": "en:Pull&Bear", "level": "-1", "name": "Pull & Bear", "shop": "clothes", "survey:date": "2022-01-19"}}, {"type": "node", "id": 9431243822, "lat": 41.4048712, "lon": 2.1900556, "tags": {"brand": "Jack & Jones", "brand:wikidata": "Q6077665", "brand:wikipedia": "en:Jack & Jones", "level": "-1", "name": "Jack & Jones", "shop": "clothes", "survey:date": "2022-01-19"}}, {"type": "node", "id": 9431243823, "lat": 41.4048482, "lon": 2.1904892, "tags": {"clothes": "underwear", "level": "-1", "name": "Women'secret", "shop": "clothes", "survey:date": "2022-01-19"}}, {"type": "node", "id": 9431243825, "lat": 41.4050659, "lon": 2.1907954, "tags": {"brand": "Celio", "brand:wikidata": "Q2672003", "brand:wikipedia": "en:Celio (retailer)", "level": "-1", "name": "Celio", "shop": "clothes", "survey:date": "2022-01-19"}}, {"type": "node", "id": 9431243917, "lat": 41.4051214, "lon": 2.1910556, "tags": {"name": "Munich", "shop": "shoes", "survey:date": "2022-01-19"}}, {"type": "node", "id": 9431243918, "lat": 41.4051255, "lon": 2.1908753, "tags": {"clothes": "underwear", "level": "-1", "name": "intimissi uomo", "shop": "clothes", "survey:date": "2022-01-19"}}, {"type": "node", "id": 9431243919, "lat": 41.4051727, "lon": 2.1909422, "tags": {"clothes": "underwear", "level": "-1", "name": "intimissi italian lingerie", "shop": "clothes", "survey:date": "2022-01-19"}}, {"type": "node", "id": 9431244118, "lat": 41.4049413, "lon": 2.1904467, "tags": {"level": "-1", "name": "JD", "shop": "clothes", "survey:date": "2022-01-19"}}, {"type": "node", "id": 9431244317, "lat": 41.4049061, "lon": 2.1901654, "tags": {"level": "-1", "name": "lefties", "shop": "clothes", "survey:date": "2022-01-19"}}, {"type": "node", "id": 9431244318, "lat": 41.4046463, "lon": 2.1904869, "tags": {"level": "-1", "name": "Cortefiel", "shop": "clothes", "survey:date": "2022-01-19"}}, {"type": "node", "id": 9431244319, "lat": 41.404933, "lon": 2.1906289, "tags": {"brand": "United Colors of Benetton", "brand:wikidata": "Q817139", "brand:wikipedia": "en:Benetton Group", "level": "-1", "name": "United Colors of Benetton", "shop": "clothes", "short_name": "Benetton", "survey:date": "2022-01-19"}}, {"type": "node", "id": 9823532217, "lat": 41.4075191, "lon": 2.1764646, "tags": {"shop": "beauty"}}, {"type": "node", "id": 9823532417, "lat": 41.4067298, "lon": 2.175569, "tags": {"name:en": "Colory nails & spa", "shop": "beauty"}}, {"type": "node", "id": 9823532617, "lat": 41.4062776, "lon": 2.1748, "tags": {"name": "Tasso moda", "shop": "clothes"}}, {"type": "node", "id": 9823542617, "lat": 41.4054964, "lon": 2.1737334, "tags": {"name:en": "Pretty nails", "shop": "beauty"}}, {"type": "node", "id": 9823542717, "lat": 41.4050337, "lon": 2.1731326, "tags": {"name": "Estil i moda", "shop": "clothes"}}, {"type": "way", "id": 655191292, "nodes": [6138972171, 6138972301, 6138972128, 6138972295, 6138972356, 6138972324, 6138972303, 6138972135, 6138972165, 6138972171], "tags": {"building": "industrial", "building:levels": "1", "name": "Outlet Leather Factory", "note": "The best leather factory-shop in Spain! Thousands of leather jackets for men and women. Real factory prices.", "opening_hours": "Mo-Sa 10:00-20:00", "phone": "+34 934855690", "shop": "clothes", "website": "https://www.olf.es/", "wheelchair": "yes"}}]}