{"version": 0.6, "generator": "Overpass API 0.7.58.5 b0c4acbb", "osm3s": {"timestamp_osm_base": "2022-09-05T11:36:29Z", "copyright": "The data included in this document is from www.openstreetmap.org. The data is made available under ODbL."}, "elements": [{"type": "node", "id": 287008917, "lat": 40.4249119, "lon": -3.6829121, "tags": {"addr:city": "Madrid", "addr:country": "ES", "addr:housenumber": "24", "addr:postcode": "28001", "addr:street": "Calle de Goya", "amenity": "fuel", "branch": "Shell", "branch:website": "https://www.shell.es", "branch:wikidata": "Q154950", "branch:wikipedia": "es:Royal Dutch Shell", "brand": "Disa", "brand:website": "https://www.disagrupo.es", "brand:wikidata": "Q5797102", "brand:wikipedia": "es:DISA (empresa)", "fuel:GTL_diesel": "yes", "fuel:diesel": "yes", "fuel:octane_95": "yes", "fuel:octane_98": "yes", "name": "Shell", "opening_hours": "24/7", "source": "Ministerio de Industria, Turismo y Comercio", "source:date": "2010-07-29"}}, {"type": "node", "id": 300750920, "lat": 40.4254701, "lon": -3.6890623, "tags": {"amenity": "parking", "layer": "-1", "name": "Plaza de Col\u00f3n", "parking": "underground"}}, {"type": "node", "id": 300751456, "lat": 40.429999, "lon": -3.6885639, "tags": {"access": "yes", "alt_name": "El Corte Ingl\u00e9s", "amenity": "parking", "capacity:charging": "15", "fee": "yes", "layer": "-1", "lit": "yes", "name": "Serranopark II", "opening_hours": "24/7", "operator": "Serrano Park", "parking": "underground", "supervised": "yes"}}, {"type": "node", "id": 300752138, "lat": 40.4369215, "lon": -3.6893064, "tags": {"amenity": "parking"}}, {"type": "node", "id": 315280726, "lat": 40.4240627, "lon": -3.6766281, "tags": {"amenity": "bus_station", "bus": "yes", "name": "Felipe II", "public_transport": "station"}}, {"type": "node", "id": 942080456, "lat": 40.424334, "lon": -3.6893101, "tags": {"access": "yes", "addr:city": "Madrid", "addr:postcode": "28001", "addr:street": "Calle de la Armada Espa\u00f1ola", "amenity": "parking", "capacity:charging": "15", "layer": "-1", "name": "Plaza de Col\u00f3n", "operator": "Serrano Park III", "parking": "underground"}}, {"type": "node", "id": 1461639846, "lat": 40.4339787, "lon": -3.6864169, "tags": {"amenity": "bicycle_parking", "capacity": "3", "covered": "no"}}, {"type": "node", "id": 1490070885, "lat": 40.4354542, "lon": -3.6867638, "tags": {"access": "private", "amenity": "parking", "parking": "underground"}}, {"type": "node", "id": 1740057913, "lat": 40.4226229, "lon": -3.6842342, "tags": {"amenity": "parking"}}, {"type": "node", "id": 1740058560, "lat": 40.4223503, "lon": -3.6840566, "tags": {"addr:street": "Calle de Villanueva", "amenity": "taxi", "capacity": "5", "operator": "Ayuntamiento de Madrid", "source:addr": "Ayuntamiento de Madrid", "source:addr:date": "2016-10-27", "source:capacity": "Ayuntamiento de Madrid", "source:capacity:date": "2016-10-27"}}, {"type": "node", "id": 1950481092, "lat": 40.4256169, "lon": -3.678704, "tags": {"access": "yes", "addr:city": "Madrid", "addr:country": "ES", "addr:street": "Calle del General Pardi\u00f1as", "amenity": "parking", "fee": "yes", "layer": "-1", "maxheight": "2", "name": "Regina", "parking": "underground"}}, {"type": "node", "id": 2184560855, "lat": 40.4279957, "lon": -3.669339, "tags": {"addr:street": "Plaza de Manuel Becerra", "amenity": "taxi", "capacity": "4", "operator": "Ayuntamiento de Madrid", "source:addr": "Ayuntamiento de Madrid", "source:addr:date": "2016-10-27", "source:capacity": "Ayuntamiento de Madrid", "source:capacity:date": "2016-10-27"}}, {"type": "node", "id": 2378935535, "lat": 40.4284717, "lon": -3.6737524, "tags": {"amenity": "bicycle_parking", "bicycle_parking": "stands", "capacity": "11", "covered": "no", "fixme": "El aparcabicis como tal, no existe aqu\u00ed. Puede ser que se refiera a los bolardos en U que hay en el aparcamotos. Entiendo que habr\u00eda que eliminarlo.", "name": "Parking bicis Alc\u00e1ntara - Don Ram\u00f3n de la Cruz"}}, {"type": "node", "id": 2508927634, "lat": 40.4199462, "lon": -3.6924652, "tags": {"amenity": "parking_entrance", "name": "Aparcamiento Recoletos"}}, {"type": "node", "id": 2620304882, "lat": 40.4252127, "lon": -3.6825281, "tags": {"addr:city": "Madrid", "addr:country": "ES", "addr:postcode": "28001", "addr:street": "Calle de Goya", "amenity": "taxi", "capacity": "5", "operator": "Ayuntamiento de Madrid", "source": "survey", "source:addr": "Ayuntamiento de Madrid", "source:addr:date": "2016-10-27", "source:capacity": "Ayuntamiento de Madrid", "source:capacity:date": "2016-10-27"}}, {"type": "node", "id": 2679640388, "lat": 40.4357478, "lon": -3.6870285, "tags": {"access": "yes", "addr:city": "Madrid", "addr:housenumber": "3", "addr:postcode": "28006", "addr:street": "Calle de los Hermanos B\u00e9cquer", "amenity": "parking", "capacity:charging": "15", "fee": "yes", "operator": "Serrano Park I", "parking": "underground"}}, {"type": "node", "id": 2937808209, "lat": 40.4351363, "lon": -3.6766073, "tags": {"access": "yes", "amenity": "parking", "fee": "yes", "layer": "-1", "parking": "underground", "source": "survey"}}, {"type": "node", "id": 3192227082, "lat": 40.4319183, "lon": -3.6834365, "tags": {"amenity": "parking", "capacity": "371", "fee": "yes", "layer": "-1", "name": "Aparcamiento p\u00fablico. Vel\u00e1zquez - Juan Bravo", "opening_hours": "24/7", "operator": "Ayuntamiento de Madrid", "operator:type": "public", "parking": "underground"}}, {"type": "node", "id": 3428425009, "lat": 40.4213629, "lon": -3.6918089, "tags": {"amenity": "parking_entrance", "name": "Aparcamiento Recoletos"}}, {"type": "node", "id": 3430976781, "lat": 40.420602, "lon": -3.6885623, "tags": {"addr:street": "Calle de Serrano", "amenity": "taxi", "capacity": "5", "operator": "Ayuntamiento de Madrid", "source:addr": "Ayuntamiento de Madrid", "source:addr:date": "2016-10-27", "source:capacity": "Ayuntamiento de Madrid", "source:capacity:date": "2016-10-27"}}, {"type": "node", "id": 3577589934, "lat": 40.4312746, "lon": -3.6762359}, {"type": "node", "id": 3577589935, "lat": 40.4313685, "lon": -3.6762296}, {"type": "node", "id": 3577589938, "lat": 40.4314296, "lon": -3.6762278}, {"type": "node", "id": 3577589939, "lat": 40.4315214, "lon": -3.6762216}, {"type": "node", "id": 3577589940, "lat": 40.4315074, "lon": -3.6758652}, {"type": "node", "id": 3577589949, "lat": 40.4313236, "lon": -3.6766038}, {"type": "node", "id": 3577589950, "lat": 40.4312909, "lon": -3.6765609}, {"type": "node", "id": 3627507768, "lat": 40.437073, "lon": -3.6806257, "tags": {"amenity": "parking_entrance", "parking": "underground"}}, {"type": "node", "id": 3627507776, "lat": 40.4372177, "lon": -3.68171, "tags": {"amenity": "parking_entrance", "parking": "underground"}}, {"type": "node", "id": 4081097208, "lat": 40.4293318, "lon": -3.6722959, "tags": {"access": "yes", "amenity": "parking", "fee": "yes", "layer": "-1", "parking": "underground"}}, {"type": "node", "id": 4099758775, "lat": 40.4374641, "lon": -3.6816344, "tags": {"amenity": "bicycle_parking", "bicycle_parking": "stands", "capacity": "6", "image": "http://www.infobicimadrid.es/fotos/aparcabicis/small/PBI_04001.jpg", "name": "Aparcabicis Agencia Estatal de Administraci\u00f3n Tributaria", "operator": "Ayuntamiento de Madrid", "source": "Ayuntamiento de Madrid / INFORMOMADRID", "source:image": "Central de Movilidad"}}, {"type": "node", "id": 4099763594, "lat": 40.4236674, "lon": -3.6867606, "tags": {"amenity": "bicycle_parking", "bicycle_parking": "bollard", "capacity": "6", "image": "http://www.infobicimadrid.es/fotos/aparcabicis/small/PBI_04036.jpg", "name": "Aparcabicis Claudio Coello", "operator": "Ayuntamiento de Madrid", "source": "Ayuntamiento de Madrid / PEDALIBRE", "source:image": "Central de Movilidad"}}, {"type": "node", "id": 4099763611, "lat": 40.4234941, "lon": -3.6855394, "tags": {"amenity": "bicycle_parking", "bicycle_parking": "bollard", "capacity": "2", "description": "Falta 1 arco y los otros 2 est\u00e1n doblados", "image": "http://www.infobicimadrid.es/fotos/aparcabicis/small/PBI_04035.jpg", "name": "Aparcabicis Lagasca", "operator": "Ayuntamiento de Madrid", "source": "Ayuntamiento de Madrid / PEDALIBRE", "source:image": "Central de Movilidad"}}, {"type": "node", "id": 4100810226, "lat": 40.4373098, "lon": -3.6784943, "tags": {"amenity": "bicycle_parking", "bicycle_parking": "stands", "capacity": "10", "image": "http://www.infobicimadrid.es/fotos/aparcabicis/small/PBI_04003.jpg", "name": "Aparcabicis Mar\u00eda de Molina", "operator": "Ayuntamiento de Madrid", "source": "Ayuntamiento de Madrid / INFORMOMADRID", "source:image": "Central de Movilidad"}}, {"type": "node", "id": 4100810238, "lat": 40.4287353, "lon": -3.6687963, "tags": {"amenity": "bicycle_parking", "bicycle_parking": "stands", "capacity": "10", "image": "http://www.infobicimadrid.es/fotos/aparcabicis/small/PBI_04006.jpg", "name": "Aparcabicis Parque Eva Duarte de Per\u00f3n", "operator": "Ayuntamiento de Madrid", "source": "Ayuntamiento de Madrid / INFORMOMADRID", "source:image": "Central de Movilidad"}}, {"type": "node", "id": 4100810244, "lat": 40.4278882, "lon": -3.6681706, "tags": {"amenity": "bicycle_parking", "bicycle_parking": "stands", "capacity": "10", "image": "http://www.infobicimadrid.es/fotos/aparcabicis/small/PBI_04005.jpg", "name": "Aparcabicis Universidad Rey Juan Carlos", "operator": "Ayuntamiento de Madrid", "source": "Ayuntamiento de Madrid / INFORMOMADRID", "source:image": "Central de Movilidad"}}, {"type": "node", "id": 4100810245, "lat": 40.4294908, "lon": -3.6706262, "tags": {"amenity": "bicycle_parking", "bicycle_parking": "stands", "capacity": "8", "image": "http://www.infobicimadrid.es/fotos/aparcabicis/small/PBI_04004.jpg", "name": "Aparcabicis \u00c1rea de Familia y Servicios Sociales", "operator": "Ayuntamiento de Madrid", "source": "Ayuntamiento de Madrid / INFORMOMADRID", "source:image": "Central de Movilidad"}}, {"type": "node", "id": 4102457775, "lat": 40.4355105, "lon": -3.6752322, "tags": {"amenity": "bicycle_parking", "bicycle_parking": "stands", "capacity": "10", "covered": "no", "image": "http://www.infobicimadrid.es/fotos/aparcabicis/small/PBI_04008.jpg", "name": "Aparcabicis Francisco Silvela", "operator": "Ayuntamiento de Madrid", "source": "Ayuntamiento de Madrid / INFORMOMADRID", "source:image": "Central de Movilidad"}}, {"type": "node", "id": 4102938011, "lat": 40.4241475, "lon": -3.6866845, "tags": {"amenity": "bicycle_parking", "bicycle_parking": "bollard", "capacity": "6", "description": "Falta 1 arco", "image": "http://www.infobicimadrid.es/fotos/aparcabicis/small/PBI_04015.jpg", "name": "Aparcabicis Claudio Coello", "operator": "Ayuntamiento de Madrid", "source": "Ayuntamiento de Madrid / INFORMOMADRID", "source:image": "Central de Movilidad"}}, {"type": "node", "id": 4108279160, "lat": 40.4197746, "lon": -3.6913012, "tags": {"amenity": "bicycle_parking", "bicycle_parking": "stands", "capacity": "8", "covered": "no", "image": "http://www.infobicimadrid.es/fotos/aparcabicis/small/PBI_04017.jpg", "name": "Aparcabicis Consejer\u00eda de Familia y Asuntos Sociales", "operator": "Ayuntamiento de Madrid", "source": "Ayuntamiento de Madrid / INFORMOMADRID", "source:image": "Central de Movilidad"}}, {"type": "node", "id": 4108279173, "lat": 40.4275732, "lon": -3.683812, "tags": {"amenity": "bicycle_parking", "bicycle_parking": "stands", "capacity": "8", "image": "http://www.infobicimadrid.es/fotos/aparcabicis/small/PBI_04011.jpg", "name": "Aparcabicis JMD Salamanca", "operator": "Ayuntamiento de Madrid", "source": "Ayuntamiento de Madrid / INFORMOMADRID", "source:image": "Central de Movilidad"}}, {"type": "node", "id": 4111680642, "lat": 40.4218335, "lon": -3.6882136, "tags": {"amenity": "bicycle_parking", "bicycle_parking": "stands", "capacity": "6", "image": "http://www.infobicimadrid.es/fotos/aparcabicis/small/PBI_04041.jpg", "name": "Aparcabicis Conde de Aranda", "operator": "Ayuntamiento de Madrid", "source": "Ayuntamiento de Madrid / DG SOSTENIBILIDAD", "source:image": "Central de Movilidad"}}, {"type": "node", "id": 4111747768, "lat": 40.433143, "lon": -3.6878823, "tags": {"amenity": "bicycle_parking", "bicycle_parking": "stands", "capacity": "10", "covered": "yes", "image": "http://www.infobicimadrid.es/fotos/aparcabicis/small/PBI_04025.jpg", "name": "Aparcabicis Centro Cultural ABC Serrano", "operator": "Ayuntamiento de Madrid", "source": "Ayuntamiento de Madrid / DG PLANIFICACION", "source:image": "Central de Movilidad"}}, {"type": "node", "id": 4112184927, "lat": 40.4239504, "lon": -3.6816533, "tags": {"amenity": "bicycle_parking", "bicycle_parking": "bollard", "capacity": "6", "description": "1 arco doblado", "image": "http://www.infobicimadrid.es/fotos/aparcabicis/small/PBI_04037.jpg", "name": "Aparcabicis Castell\u00f3", "operator": "Ayuntamiento de Madrid", "source": "Ayuntamiento de Madrid / CENTRAL DE MOVILIDAD", "source:image": "Central de Movilidad"}}, {"type": "node", "id": 4112184941, "lat": 40.4251854, "lon": -3.6861784, "tags": {"amenity": "bicycle_parking", "bicycle_parking": "stands", "capacity": "4", "covered": "no", "image": "http://www.infobicimadrid.es/fotos/aparcabicis/small/PBI_04040.jpg", "name": "Aparcabicis Instituto Beatriz Galindo", "operator": "Ayuntamiento de Madrid", "source": "Ayuntamiento de Madrid / CENTRAL DE MOVILIDAD", "source:image": "Central de Movilidad"}}, {"type": "node", "id": 4112184955, "lat": 40.4234251, "lon": -3.6829885, "tags": {"amenity": "bicycle_parking", "bicycle_parking": "bollard", "capacity": "6", "covered": "no", "image": "http://www.infobicimadrid.es/fotos/aparcabicis/small/PBI_04039.jpg", "name": "Aparcabicis N\u00fa\u00f1ez de Balboa", "operator": "Ayuntamiento de Madrid", "source": "Ayuntamiento de Madrid / CENTRAL DE MOVILIDAD", "source:image": "Central de Movilidad"}}, {"type": "node", "id": 4112184956, "lat": 40.4240439, "lon": -3.682915, "tags": {"amenity": "bicycle_parking", "bicycle_parking": "bollard", "capacity": "4", "covered": "no", "image": "http://www.infobicimadrid.es/fotos/aparcabicis/small/PBI_04038.jpg", "name": "Aparcabicis N\u00fa\u00f1ez de Balboa", "operator": "Ayuntamiento de Madrid", "source": "Ayuntamiento de Madrid / CENTRAL DE MOVILIDAD", "source:image": "Central de Movilidad"}}, {"type": "node", "id": 4112206951, "lat": 40.4336493, "lon": -3.6887529, "tags": {"amenity": "bicycle_parking", "bicycle_parking": "stands", "capacity": "10", "image": "http://www.infobicimadrid.es/fotos/aparcabicis/small/CASTELLANA_35A.jpg", "name": "Aparcabicis Oficinas Castellana 35 A", "operator": "Ayuntamiento de Madrid", "source": "Ayuntamiento de Madrid / DG SOSTENIBILIDAD", "source:image": "DG SOSTENIBILIDAD"}}, {"type": "node", "id": 4203414825, "lat": 40.4256681, "lon": -3.6896465, "tags": {"addr:city": "Madrid", "addr:country": "ES", "addr:postcode": "28001", "addr:street": "Calle de Goya", "amenity": "taxi", "capacity": "4", "operator": "Ayuntamiento de Madrid", "source:addr": "Ayuntamiento de Madrid", "source:addr:date": "2016-10-27", "source:capacity": "Ayuntamiento de Madrid", "source:capacity:date": "2016-10-27"}}, {"type": "node", "id": 4203414826, "lat": 40.426508, "lon": -3.6896613, "tags": {"addr:street": "Paseo de la Castellana", "amenity": "taxi", "capacity": "7", "operator": "Ayuntamiento de Madrid", "source:addr": "Ayuntamiento de Madrid", "source:addr:date": "2016-10-27", "source:capacity": "Ayuntamiento de Madrid", "source:capacity:date": "2016-10-27"}}, {"type": "node", "id": 4267636064, "lat": 40.4202895, "lon": -3.6878407, "tags": {"access": "permissive;private", "amenity": "parking_entrance", "name": "Serrano Park", "supervised": "yes"}}, {"type": "node", "id": 4302868007, "lat": 40.4249372, "lon": -3.6770302, "tags": {"addr:city": "Madrid", "addr:country": "ES", "addr:postcode": "28001", "addr:street": "Calle de Goya", "amenity": "taxi", "capacity": "8", "operator": "Ayuntamiento de Madrid", "source:addr": "Ayuntamiento de Madrid", "source:addr:date": "2016-10-27", "source:capacity": "Ayuntamiento de Madrid", "source:capacity:date": "2016-10-27"}}, {"type": "node", "id": 4349725679, "lat": 40.4303339, "lon": -3.6884326, "tags": {"access": "yes", "amenity": "parking_entrance", "covered": "yes", "fee": "yes", "lit": "yes", "name": "Serranopark II", "opening_hours": "24/7", "parking": "underground", "supervised": "yes"}}, {"type": "node", "id": 4349725680, "lat": 40.4303686, "lon": -3.6884326, "tags": {"access": "yes", "amenity": "parking_entrance", "covered": "yes", "fee": "yes", "lit": "yes", "name": "Serranopark II", "opening_hours": "24/7", "parking": "underground", "smoothness": "excellent", "supervised": "yes", "surface": "concrete"}}, {"type": "node", "id": 4349802632, "lat": 40.4294442, "lon": -3.6886402, "tags": {"access": "yes", "amenity": "parking_entrance", "covered": "yes", "fee": "yes", "lit": "yes", "name": "Serranopark II exit", "opening_hours": "24/7", "parking": "underground", "supervised": "yes"}}, {"type": "node", "id": 4349802633, "lat": 40.4294871, "lon": -3.6886322, "tags": {"access": "yes", "amenity": "parking_entrance", "covered": "yes", "fee": "yes", "lit": "yes", "name": "Serranopark II exit", "opening_hours": "24/7", "parking": "underground", "supervised": "yes"}}, {"type": "node", "id": 4349802634, "lat": 40.4305082, "lon": -3.68789, "tags": {"access": "yes", "amenity": "parking_entrance", "fee": "yes", "lit": "yes", "name": "Serranopark II exit", "opening_hours": "24/7", "smoothness": "excellent", "supervised": "yes", "surface": "concrete"}}, {"type": "node", "id": 4349802635, "lat": 40.4304873, "lon": -3.6874491, "tags": {"access": "yes", "amenity": "parking_entrance", "fee": "yes", "lit": "yes", "name": "Serranopark II", "opening_hours": "24/7", "smoothness": "excellent", "supervised": "yes", "surface": "concrete"}}, {"type": "node", "id": 4476544215, "lat": 40.424994, "lon": -3.6781213, "tags": {"addr:city": "Madrid", "addr:country": "ES", "addr:postcode": "28001", "addr:street": "Calle de Goya", "amenity": "taxi", "capacity": "4", "operator": "Ayuntamiento de Madrid", "source": "Ayuntamiento de Madrid", "source:date": "2016-10-27"}}, {"type": "node", "id": 4476544216, "lat": 40.4250059, "lon": -3.6784199, "tags": {"addr:city": "Madrid", "addr:country": "ES", "addr:postcode": "28001", "addr:street": "Calle de Goya", "amenity": "taxi", "capacity": "4", "operator": "Ayuntamiento de Madrid", "source": "Ayuntamiento de Madrid", "source:date": "2016-10-27"}}, {"type": "node", "id": 4476544217, "lat": 40.425077, "lon": -3.6796768, "tags": {"addr:city": "Madrid", "addr:country": "ES", "addr:postcode": "28001", "addr:street": "Calle de Goya", "amenity": "taxi", "capacity": "4", "operator": "Ayuntamiento de Madrid", "source": "Ayuntamiento de Madrid", "source:date": "2016-10-27"}}, {"type": "node", "id": 4476544218, "lat": 40.4251434, "lon": -3.6812195, "tags": {"addr:city": "Madrid", "addr:country": "ES", "addr:postcode": "28001", "addr:street": "Calle de Goya", "amenity": "taxi", "capacity": "5", "operator": "Ayuntamiento de Madrid", "source": "Ayuntamiento de Madrid", "source:date": "2016-10-27"}}, {"type": "node", "id": 4476544219, "lat": 40.4252664, "lon": -3.6837814, "tags": {"addr:city": "Madrid", "addr:country": "ES", "addr:postcode": "28001", "addr:street": "Calle de Goya", "amenity": "taxi", "capacity": "7", "operator": "Ayuntamiento de Madrid", "source": "Ayuntamiento de Madrid", "source:date": "2016-10-27"}}, {"type": "node", "id": 4476544220, "lat": 40.4253674, "lon": -3.6857802, "tags": {"addr:city": "Madrid", "addr:country": "ES", "addr:postcode": "28001", "addr:street": "Calle de Goya", "amenity": "taxi", "capacity": "5", "operator": "Ayuntamiento de Madrid", "source": "Ayuntamiento de Madrid", "source:date": "2016-10-27"}}, {"type": "node", "id": 4476544222, "lat": 40.4258889, "lon": -3.6876777, "tags": {"addr:street": "Calle de Serrano", "amenity": "taxi", "capacity": "7", "operator": "Ayuntamiento de Madrid", "source": "Ayuntamiento de Madrid", "source:date": "2016-10-27"}}, {"type": "node", "id": 4476544223, "lat": 40.4265566, "lon": -3.6893764, "tags": {"addr:street": "Calle de Hermosilla", "amenity": "taxi", "capacity": "1", "operator": "Ayuntamiento de Madrid", "source": "Ayuntamiento de Madrid", "source:date": "2016-10-27"}}, {"type": "node", "id": 4476544224, "lat": 40.4267266, "lon": -3.6875075, "tags": {"addr:street": "Calle de Serrano", "amenity": "taxi", "capacity": "8", "operator": "Ayuntamiento de Madrid", "source": "Ayuntamiento de Madrid", "source:date": "2016-10-27"}}, {"type": "node", "id": 4476544225, "lat": 40.4279889, "lon": -3.6837769, "tags": {"addr:street": "Calle de Vel\u00e1zquez", "amenity": "taxi", "capacity": "8", "operator": "Ayuntamiento de Madrid", "source": "Ayuntamiento de Madrid", "source:date": "2016-10-27"}}, {"type": "node", "id": 4476544226, "lat": 40.4282129, "lon": -3.6872566, "tags": {"addr:street": "Calle de Serrano", "amenity": "taxi", "capacity": "7", "operator": "Ayuntamiento de Madrid", "source": "Ayuntamiento de Madrid", "source:date": "2016-10-27"}}, {"type": "node", "id": 4476544227, "lat": 40.4297837, "lon": -3.688789, "tags": {"addr:street": "Paseo de la Castellana", "amenity": "taxi", "capacity": "8", "operator": "Ayuntamiento de Madrid", "source": "Ayuntamiento de Madrid", "source:date": "2016-10-27"}}, {"type": "node", "id": 4476544228, "lat": 40.4299638, "lon": -3.6869207, "tags": {"addr:street": "Calle de Serrano", "amenity": "taxi", "capacity": "11", "operator": "Ayuntamiento de Madrid", "source": "Ayuntamiento de Madrid", "source:date": "2016-10-27"}}, {"type": "node", "id": 4500534891, "lat": 40.4366725, "lon": -3.6902969, "tags": {"addr:street": "Paseo de la Castellana", "amenity": "taxi", "capacity": "8", "operator": "Ayuntamiento de Madrid", "source": "Ayuntamiento de Madrid", "source:date": "2016-10-27"}}, {"type": "node", "id": 4500534892, "lat": 40.4353722, "lon": -3.6854362, "tags": {"addr:street": "Calle de Claudio Coello", "amenity": "taxi", "capacity": "5", "operator": "Ayuntamiento de Madrid", "source": "Ayuntamiento de Madrid", "source:date": "2016-10-27"}}, {"type": "node", "id": 4500534893, "lat": 40.4344769, "lon": -3.6752111, "tags": {"addr:street": "Calle de Diego de Le\u00f3n", "amenity": "taxi", "capacity": "4", "operator": "Ayuntamiento de Madrid", "source": "Ayuntamiento de Madrid", "source:date": "2016-10-27"}}, {"type": "node", "id": 4500534896, "lat": 40.4330841, "lon": -3.6879751, "tags": {"addr:street": "Paseo de la Castellana", "amenity": "taxi", "capacity": "6", "operator": "Ayuntamiento de Madrid", "source": "Ayuntamiento de Madrid", "source:date": "2016-10-27"}}, {"type": "node", "id": 4500534897, "lat": 40.4303458, "lon": -3.6833203, "tags": {"addr:street": "Calle de Jos\u00e9 Ortega y Gasset", "amenity": "taxi", "capacity": "9", "operator": "Ayuntamiento de Madrid", "source": "Ayuntamiento de Madrid", "source:date": "2016-10-27"}}, {"type": "node", "id": 4500534899, "lat": 40.4325428, "lon": -3.6889718, "tags": {"addr:street": "Paseo de la Castellana", "amenity": "taxi", "capacity": "2", "operator": "Ayuntamiento de Madrid", "source": "Ayuntamiento de Madrid", "source:date": "2016-10-27"}}, {"type": "node", "id": 4500534901, "lat": 40.4327624, "lon": -3.6880269, "tags": {"addr:street": "Paseo de la Castellana", "amenity": "taxi", "capacity": "5", "operator": "Ayuntamiento de Madrid", "source": "Ayuntamiento de Madrid", "source:date": "2016-10-27"}}, {"type": "node", "id": 4500534903, "lat": 40.4321267, "lon": -3.6866679, "tags": {"addr:street": "Calle de Serrano", "amenity": "taxi", "capacity": "4", "operator": "Ayuntamiento de Madrid", "source": "Ayuntamiento de Madrid", "source:date": "2016-10-27"}}, {"type": "node", "id": 4500534905, "lat": 40.4326531, "lon": -3.6776567, "tags": {"addr:street": "Calle de Juan Bravo", "amenity": "taxi", "capacity": "9", "operator": "Ayuntamiento de Madrid", "source": "Ayuntamiento de Madrid", "source:date": "2016-10-27"}}, {"type": "node", "id": 4500534906, "lat": 40.4325678, "lon": -3.6762438, "tags": {"addr:street": "Calle de Juan Bravo", "amenity": "taxi", "capacity": "4", "operator": "Ayuntamiento de Madrid", "source": "Ayuntamiento de Madrid", "source:date": "2016-10-27"}}, {"type": "node", "id": 4500534908, "lat": 40.4334677, "lon": -3.6756827, "tags": {"addr:street": "Calle de Maldonado", "amenity": "taxi", "capacity": "3", "operator": "Ayuntamiento de Madrid", "source": "Ayuntamiento de Madrid", "source:date": "2016-10-27"}}, {"type": "node", "id": 4567503709, "lat": 40.4265474, "lon": -3.6879804, "tags": {"amenity": "parking", "layer": "-1", "parking": "underground"}}, {"type": "node", "id": 4575801332, "lat": 40.432954, "lon": -3.6863475, "tags": {"access": "yes", "addr:city": "Madrid", "addr:housenumber": "4b", "addr:postcode": "28006", "addr:street": "Calle de Juan Bravo", "amenity": "parking", "capacity:charging": "15", "fee": "yes", "layer": "-1", "name": "Serranopark Juan Bravo", "operator": "Serrano Park I", "parking": "underground"}}, {"type": "node", "id": 4576234315, "lat": 40.4272743, "lon": -3.6840818, "tags": {"amenity": "parking_entrance", "fee": "yes", "maxheight": "1.9", "name": "Vel\u00e1zquez - Ayala", "parking": "underground"}}, {"type": "node", "id": 4818306257, "lat": 40.4292455, "lon": -3.683721, "tags": {"addr:city": "Madrid", "addr:housenumber": "74", "addr:postcode": "28001", "addr:street": "Calle de Vel\u00e1zquez", "amenity": "charging_station", "authentication:membership_card": "yes", "capacity": "4", "fee": "yes", "motorcar": "no", "opening_hours": "24/7", "operator": "IBIL", "parking:fee": "no", "scooter": "only", "socket:schuko": "4"}}, {"type": "node", "id": 4885020991, "lat": 40.4211814, "lon": -3.6840355, "tags": {"amenity": "bicycle_parking", "source": "survey"}}, {"type": "node", "id": 5272701284, "lat": 40.4319567, "lon": -3.689157, "tags": {"addr:city": "Madrid", "addr:housenumber": "33", "addr:postcode": "28046", "addr:street": "Paseo de la Castellana", "amenity": "charging_station", "capacity": "1", "operator": "GIC", "socket:schuko": "1", "socket:type2": "1"}}, {"type": "node", "id": 5272722427, "lat": 40.4354833, "lon": -3.6879729, "tags": {"addr:city": "Madrid", "addr:housenumber": "52", "addr:postcode": "28046", "addr:street": "Paseo de la Castellana", "amenity": "charging_station", "capacity": "1", "operator": "IBIL", "socket:type2": "1"}}, {"type": "node", "id": 5272752785, "lat": 40.4350772, "lon": -3.6807422, "tags": {"addr:city": "Madrid", "addr:housenumber": "105", "addr:postcode": "28006", "addr:street": "Calle de Castell\u00f3", "amenity": "charging_station", "capacity": "1", "operator": "GIC", "socket:schuko": "1", "socket:type2": "1"}}, {"type": "node", "id": 5272788795, "lat": 40.4249657, "lon": -3.6810768, "tags": {"addr:city": "Madrid", "addr:country": "ES", "addr:housenumber": "36", "addr:postcode": "28001", "addr:street": "Calle de Goya", "amenity": "charging_station", "capacity": "1", "operator": "GIC", "socket:schuko": "1", "socket:type2": "1"}}, {"type": "node", "id": 5275394672, "lat": 40.43294, "lon": -3.685803, "tags": {"addr:city": "Madrid", "addr:housenumber": "4b", "addr:postcode": "28006", "addr:street": "Calle de Juan Bravo", "amenity": "charging_station", "capacity": "15", "covered": "yes", "motorcar": "yes", "operator": "Serrano Park I", "scooter": "yes", "socket:schuko": "15"}}, {"type": "node", "id": 5275433698, "lat": 40.4357084, "lon": -3.6869859, "tags": {"addr:city": "Madrid", "addr:housenumber": "3", "addr:postcode": "28006", "addr:street": "Calle de los Hermanos B\u00e9cquer", "amenity": "charging_station", "capacity": "15", "covered": "yes", "motorcar": "yes", "operator": "Serrano Park I", "scooter": "yes", "socket:schuko": "15"}}, {"type": "node", "id": 5275443364, "lat": 40.4304848, "lon": -3.6878445, "tags": {"addr:city": "Madrid", "addr:housenumber": "2", "addr:postcode": "28001", "addr:street": "Calle de Jos\u00e9 Ortega y Gasset", "amenity": "charging_station", "capacity": "15", "covered": "yes", "motorcar": "yes", "operator": "Serrano Park II", "scooter": "yes", "socket:schuko": "15"}}, {"type": "node", "id": 5275476145, "lat": 40.4243351, "lon": -3.6893834, "tags": {"addr:city": "Madrid", "addr:postcode": "28001", "addr:street": "Calle de la Armada Espa\u00f1ola", "amenity": "charging_station", "capacity": "15", "covered": "yes", "motorcar": "yes", "operator": "Serrano Park III", "scooter": "yes", "socket:schuko": "15"}}, {"type": "node", "id": 5275627871, "lat": 40.430327, "lon": -3.6794221, "tags": {"access": "yes", "addr:city": "Madrid", "addr:postcode": "28006", "addr:street": "Plaza del Marqu\u00e9s de Salamanca", "amenity": "parking", "capacity:charging": "5", "fee": "yes", "fixme": "\u00bfEst\u00e1 duplicado con el nodo de charging_station?", "layer": "-1", "parking": "underground"}}, {"type": "node", "id": 5275655961, "lat": 40.4302766, "lon": -3.67936, "tags": {"addr:city": "Madrid", "addr:postcode": "28006", "addr:street": "Plaza del Marqu\u00e9s de Salamanca", "amenity": "charging_station", "capacity": "5", "covered": "yes", "fixme": "\u00bfEs esta la ubicaci\u00f3n correcta?", "motorcar": "yes", "operator": "EMT", "scooter": "yes", "socket:chademo": "1", "socket:schuko": "1", "socket:type2": "2", "socket:type2_combo": "1"}}, {"type": "node", "id": 5282685096, "lat": 40.4203142, "lon": -3.6877202, "tags": {"addr:city": "Madrid", "addr:housenumber": "77", "addr:postcode": "28009", "addr:street": "Calle de Alcal\u00e1", "amenity": "charging_station", "capacity": "15", "covered": "yes", "operator": "Serrano Park III"}}, {"type": "node", "id": 5310390437, "lat": 40.4280878, "lon": -3.6824481, "tags": {"access": "customers", "amenity": "parking", "fee": "yes", "layer": "-1", "parking": "underground"}}, {"type": "node", "id": 5830731721, "lat": 40.4344763, "lon": -3.6754029, "tags": {"access": "yes", "amenity": "parking_entrance", "fee": "yes", "name": "Diego de Le\u00f3n", "opening_hours": "24/7", "operator": "Interparking", "parking": "underground", "smoothness": "excellent", "supervised": "yes", "surface": "concrete"}}, {"type": "node", "id": 5830741509, "lat": 40.4346596, "lon": -3.6757737, "tags": {"access": "yes", "amenity": "parking_entrance", "fee": "yes", "operator": "Interparking", "parking": "underground", "smoothness": "excellent", "supervised": "yes", "surface": "concrete"}}, {"type": "node", "id": 5830741511, "lat": 40.4346412, "lon": -3.6753814, "tags": {"access": "yes", "amenity": "parking_entrance", "fee": "yes", "name": "Diego de Le\u00f3n", "opening_hours": "24/7", "operator": "Interparking", "parking": "underground", "smoothness": "excellent", "supervised": "yes", "surface": "concrete"}}, {"type": "node", "id": 6198425425, "lat": 40.4265565, "lon": -3.6895501, "tags": {"amenity": "bicycle_parking", "bicycle_parking": "wall_loops", "covered": "no", "operator": "Ayuntamiento de Madrid"}}, {"type": "node", "id": 6437074038, "lat": 40.4317607, "lon": -3.6893657, "tags": {"amenity": "motorcycle_parking", "capacity": "9", "covered": "no"}}, {"type": "node", "id": 6437074047, "lat": 40.4328978, "lon": -3.6892493, "tags": {"amenity": "motorcycle_parking", "capacity": "23"}}, {"type": "node", "id": 6437074048, "lat": 40.4354905, "lon": -3.6895013, "tags": {"amenity": "motorcycle_parking", "capacity": "14", "covered": "no"}}, {"type": "node", "id": 6437074049, "lat": 40.433837, "lon": -3.6889903, "tags": {"amenity": "motorcycle_parking", "capacity": "14"}}, {"type": "node", "id": 6437074050, "lat": 40.4291367, "lon": -3.6898746, "tags": {"amenity": "motorcycle_parking", "capacity": "10"}}, {"type": "node", "id": 6437074051, "lat": 40.4278601, "lon": -3.6902076, "tags": {"amenity": "motorcycle_parking", "capacity": "9"}}, {"type": "node", "id": 6437074687, "lat": 40.4377621, "lon": -3.6804177, "tags": {"amenity": "motorcycle_parking", "capacity": "13"}}, {"type": "node", "id": 6437074695, "lat": 40.4358788, "lon": -3.6831238, "tags": {"amenity": "motorcycle_parking", "capacity": "9", "covered": "no"}}, {"type": "node", "id": 6437074696, "lat": 40.4292682, "lon": -3.6836716, "tags": {"amenity": "motorcycle_parking", "capacity": "8"}}, {"type": "node", "id": 6437074697, "lat": 40.4308747, "lon": -3.6837667, "tags": {"amenity": "motorcycle_parking", "capacity": "14"}}, {"type": "node", "id": 6437074698, "lat": 40.4293618, "lon": -3.6839057, "tags": {"amenity": "motorcycle_parking", "capacity": "12"}}, {"type": "node", "id": 6437074699, "lat": 40.4377191, "lon": -3.6895195, "tags": {"amenity": "motorcycle_parking", "capacity": "21", "covered": "no"}}, {"type": "node", "id": 6437074700, "lat": 40.4314614, "lon": -3.6824611, "tags": {"amenity": "motorcycle_parking", "capacity": "8"}}, {"type": "node", "id": 6437074701, "lat": 40.4316391, "lon": -3.6859946, "tags": {"amenity": "motorcycle_parking", "capacity": "5", "covered": "no"}}, {"type": "node", "id": 6437074702, "lat": 40.4371291, "lon": -3.681752, "tags": {"amenity": "motorcycle_parking", "capacity": "8", "covered": "no"}}, {"type": "node", "id": 6437074703, "lat": 40.4325288, "lon": -3.6821145, "tags": {"amenity": "motorcycle_parking", "capacity": "8", "covered": "no"}}, {"type": "node", "id": 6437074704, "lat": 40.4311957, "lon": -3.687262, "tags": {"amenity": "motorcycle_parking", "capacity": "20"}}, {"type": "node", "id": 6437074705, "lat": 40.4293607, "lon": -3.6881222, "tags": {"amenity": "motorcycle_parking", "capacity": "11"}}, {"type": "node", "id": 6437074706, "lat": 40.4298877, "lon": -3.680264, "tags": {"amenity": "motorcycle_parking", "capacity": "60"}}, {"type": "node", "id": 6437074707, "lat": 40.4339823, "lon": -3.686216, "tags": {"amenity": "motorcycle_parking", "capacity": "12"}}, {"type": "node", "id": 6437074708, "lat": 40.4372085, "lon": -3.6868034, "tags": {"amenity": "motorcycle_parking", "capacity": "12", "covered": "no"}}, {"type": "node", "id": 6437074709, "lat": 40.4326896, "lon": -3.6830462, "tags": {"amenity": "motorcycle_parking", "capacity": "13", "covered": "no"}}, {"type": "node", "id": 6437074710, "lat": 40.432777, "lon": -3.6848013, "tags": {"amenity": "motorcycle_parking", "capacity": "9", "covered": "no"}}, {"type": "node", "id": 6437074711, "lat": 40.430181, "lon": -3.6826585, "tags": {"amenity": "motorcycle_parking", "capacity": "12"}}, {"type": "node", "id": 6437074712, "lat": 40.4303217, "lon": -3.6826779, "tags": {"amenity": "motorcycle_parking", "capacity": "17"}}, {"type": "node", "id": 6437074713, "lat": 40.4302044, "lon": -3.6831056, "tags": {"amenity": "motorcycle_parking", "capacity": "12", "covered": "no"}}, {"type": "node", "id": 6437074714, "lat": 40.4302783, "lon": -3.6845726, "tags": {"amenity": "motorcycle_parking", "capacity": "8"}}, {"type": "node", "id": 6437074715, "lat": 40.4302974, "lon": -3.6850144, "tags": {"amenity": "motorcycle_parking", "capacity": "8", "covered": "no"}}, {"type": "node", "id": 6437074716, "lat": 40.4362935, "lon": -3.6869102, "tags": {"amenity": "motorcycle_parking", "capacity": "12", "covered": "no"}}, {"type": "node", "id": 6437074717, "lat": 40.4356093, "lon": -3.6879078, "tags": {"amenity": "motorcycle_parking", "capacity": "6", "covered": "no"}}, {"type": "node", "id": 6437074718, "lat": 40.4292772, "lon": -3.6863532, "tags": {"amenity": "motorcycle_parking", "capacity": "10"}}, {"type": "node", "id": 6437074719, "lat": 40.4292966, "lon": -3.686825, "tags": {"amenity": "motorcycle_parking", "capacity": "4"}}, {"type": "node", "id": 6437074720, "lat": 40.4369001, "lon": -3.6853196, "tags": {"amenity": "motorcycle_parking", "capacity": "8", "covered": "no"}}, {"type": "node", "id": 6437074721, "lat": 40.4358347, "lon": -3.6854078, "tags": {"amenity": "motorcycle_parking", "capacity": "8"}}, {"type": "node", "id": 6437074722, "lat": 40.436212, "lon": -3.6806651, "tags": {"amenity": "motorcycle_parking", "capacity": "8"}}, {"type": "node", "id": 6437074723, "lat": 40.4324322, "lon": -3.6777429, "tags": {"amenity": "motorcycle_parking", "capacity": "24", "covered": "no"}}, {"type": "node", "id": 6437074724, "lat": 40.4322101, "lon": -3.6727467, "tags": {"amenity": "motorcycle_parking", "capacity": "13", "covered": "no"}}, {"type": "node", "id": 6437074725, "lat": 40.4324677, "lon": -3.6736895, "tags": {"amenity": "motorcycle_parking", "capacity": "13"}}, {"type": "node", "id": 6437074726, "lat": 40.4326212, "lon": -3.6768538, "tags": {"amenity": "motorcycle_parking", "capacity": "14", "covered": "no"}}, {"type": "node", "id": 6437074727, "lat": 40.4298832, "lon": -3.6765151, "tags": {"amenity": "motorcycle_parking", "capacity": "13"}}, {"type": "node", "id": 6437074728, "lat": 40.4299945, "lon": -3.6789404, "tags": {"amenity": "motorcycle_parking", "capacity": "12"}}, {"type": "node", "id": 6437074729, "lat": 40.4339739, "lon": -3.6778476, "tags": {"amenity": "motorcycle_parking", "capacity": "8", "covered": "no"}}, {"type": "node", "id": 6437074730, "lat": 40.4334226, "lon": -3.6778997, "tags": {"amenity": "motorcycle_parking", "capacity": "16", "covered": "no"}}, {"type": "node", "id": 6437074731, "lat": 40.4344572, "lon": -3.6778066, "tags": {"amenity": "motorcycle_parking", "capacity": "8"}}, {"type": "node", "id": 6437074732, "lat": 40.4359212, "lon": -3.6779394, "tags": {"amenity": "motorcycle_parking", "capacity": "4", "covered": "no"}}, {"type": "node", "id": 6437074733, "lat": 40.433727, "lon": -3.6765575, "tags": {"amenity": "motorcycle_parking", "capacity": "5", "covered": "no"}}, {"type": "node", "id": 6437074748, "lat": 40.4250426, "lon": -3.6771726, "tags": {"amenity": "motorcycle_parking", "capacity": "9", "covered": "no"}}, {"type": "node", "id": 6437074751, "lat": 40.4283632, "lon": -3.6737632, "tags": {"amenity": "motorcycle_parking", "capacity": "23"}}, {"type": "node", "id": 6437074752, "lat": 40.4223823, "lon": -3.6859695, "tags": {"amenity": "motorcycle_parking", "capacity": "14"}}, {"type": "node", "id": 6437074753, "lat": 40.4224588, "lon": -3.6875991, "tags": {"amenity": "motorcycle_parking", "capacity": "10"}}, {"type": "node", "id": 6437074754, "lat": 40.4227465, "lon": -3.6894476, "tags": {"amenity": "motorcycle_parking", "capacity": "9"}}, {"type": "node", "id": 6437074755, "lat": 40.4282431, "lon": -3.6839979, "tags": {"amenity": "motorcycle_parking", "capacity": "9"}}, {"type": "node", "id": 6437074756, "lat": 40.4280643, "lon": -3.6840104, "tags": {"amenity": "motorcycle_parking", "capacity": "14"}}, {"type": "node", "id": 6437074757, "lat": 40.427522, "lon": -3.6840552, "tags": {"amenity": "motorcycle_parking", "capacity": "9", "covered": "no"}}, {"type": "node", "id": 6437074758, "lat": 40.4267335, "lon": -3.6838888, "tags": {"amenity": "motorcycle_parking", "capacity": "9", "covered": "no"}}, {"type": "node", "id": 6437074759, "lat": 40.4256352, "lon": -3.6839809, "tags": {"amenity": "motorcycle_parking", "capacity": "14"}}, {"type": "node", "id": 6437074760, "lat": 40.4240091, "lon": -3.6843457, "tags": {"amenity": "motorcycle_parking", "capacity": "9"}}, {"type": "node", "id": 6437074761, "lat": 40.4231947, "lon": -3.6844102, "tags": {"amenity": "motorcycle_parking", "capacity": "10"}}, {"type": "node", "id": 6437074762, "lat": 40.422772, "lon": -3.6842189, "tags": {"amenity": "motorcycle_parking", "capacity": "14"}}, {"type": "node", "id": 6437074763, "lat": 40.4215162, "lon": -3.6891963, "tags": {"amenity": "motorcycle_parking", "capacity": "14", "covered": "no"}}, {"type": "node", "id": 6437074764, "lat": 40.420092, "lon": -3.6909023, "tags": {"amenity": "motorcycle_parking", "capacity": "9"}}, {"type": "node", "id": 6437074765, "lat": 40.4239671, "lon": -3.6828417, "tags": {"amenity": "motorcycle_parking", "capacity": "11"}}, {"type": "node", "id": 6437074766, "lat": 40.4238707, "lon": -3.6828473, "tags": {"amenity": "motorcycle_parking", "capacity": "5"}}, {"type": "node", "id": 6437074767, "lat": 40.4234727, "lon": -3.6828634, "tags": {"amenity": "motorcycle_parking", "capacity": "9", "covered": "no"}}, {"type": "node", "id": 6437074768, "lat": 40.4259909, "lon": -3.6891292, "tags": {"amenity": "motorcycle_parking", "capacity": "9", "covered": "no"}}, {"type": "node", "id": 6437074769, "lat": 40.4241105, "lon": -3.6855598, "tags": {"amenity": "motorcycle_parking", "capacity": "6"}}, {"type": "node", "id": 6437074770, "lat": 40.4235574, "lon": -3.6856196, "tags": {"amenity": "motorcycle_parking", "capacity": "9"}}, {"type": "node", "id": 6437074771, "lat": 40.4263867, "lon": -3.6843928, "tags": {"amenity": "motorcycle_parking", "capacity": "9"}}, {"type": "node", "id": 6437074772, "lat": 40.4265278, "lon": -3.6872391, "tags": {"amenity": "motorcycle_parking", "capacity": "12"}}, {"type": "node", "id": 6437074773, "lat": 40.4264938, "lon": -3.6883263, "tags": {"amenity": "motorcycle_parking", "capacity": "9"}}, {"type": "node", "id": 6437074774, "lat": 40.4250231, "lon": -3.6824368, "tags": {"amenity": "motorcycle_parking", "capacity": "9", "covered": "no"}}, {"type": "node", "id": 6437074775, "lat": 40.4251776, "lon": -3.6856096, "tags": {"amenity": "motorcycle_parking", "capacity": "11", "covered": "no"}}, {"type": "node", "id": 6437074776, "lat": 40.4250484, "lon": -3.6831629, "tags": {"amenity": "motorcycle_parking", "capacity": "18", "covered": "no"}}, {"type": "node", "id": 6437074777, "lat": 40.4216905, "lon": -3.6847589, "tags": {"amenity": "motorcycle_parking", "capacity": "14"}}, {"type": "node", "id": 6437074778, "lat": 40.4218308, "lon": -3.6879241, "tags": {"amenity": "motorcycle_parking", "capacity": "13"}}, {"type": "node", "id": 6437074779, "lat": 40.421221, "lon": -3.6880881, "tags": {"amenity": "motorcycle_parking", "capacity": "13"}}, {"type": "node", "id": 6437074780, "lat": 40.4276482, "lon": -3.6862784, "tags": {"amenity": "motorcycle_parking", "capacity": "9", "covered": "no"}}, {"type": "node", "id": 6437074781, "lat": 40.4276399, "lon": -3.6861736, "tags": {"amenity": "motorcycle_parking", "capacity": "8", "covered": "no"}}, {"type": "node", "id": 6437074782, "lat": 40.4267108, "lon": -3.6864169, "tags": {"amenity": "motorcycle_parking", "capacity": "9", "covered": "no"}}, {"type": "node", "id": 6437074783, "lat": 40.42511, "lon": -3.6866558, "tags": {"amenity": "motorcycle_parking", "capacity": "9", "covered": "no"}}, {"type": "node", "id": 6437074784, "lat": 40.4241576, "lon": -3.6866912, "tags": {"amenity": "motorcycle_parking", "capacity": "6"}}, {"type": "node", "id": 6437074785, "lat": 40.4236867, "lon": -3.686757, "tags": {"amenity": "motorcycle_parking", "capacity": "6"}}, {"type": "node", "id": 6437074786, "lat": 40.4213023, "lon": -3.6871901, "tags": {"amenity": "motorcycle_parking", "capacity": "9"}}, {"type": "node", "id": 6437074787, "lat": 40.4242577, "lon": -3.681627, "tags": {"amenity": "motorcycle_parking", "capacity": "9"}}, {"type": "node", "id": 6437074788, "lat": 40.423935, "lon": -3.6815693, "tags": {"amenity": "motorcycle_parking", "capacity": "6"}}, {"type": "node", "id": 6437074789, "lat": 40.4234492, "lon": -3.6816147, "tags": {"amenity": "motorcycle_parking", "capacity": "5"}}, {"type": "node", "id": 6437074790, "lat": 40.4270043, "lon": -3.6895168, "tags": {"amenity": "motorcycle_parking", "capacity": "9", "covered": "no"}}, {"type": "node", "id": 6437074791, "lat": 40.4288626, "lon": -3.689032, "tags": {"amenity": "motorcycle_parking", "capacity": "14"}}, {"type": "node", "id": 6437074792, "lat": 40.4275741, "lon": -3.6817376, "tags": {"amenity": "motorcycle_parking", "capacity": "9", "covered": "no"}}, {"type": "node", "id": 6437074793, "lat": 40.4278041, "lon": -3.6865251, "tags": {"amenity": "motorcycle_parking", "capacity": "11"}}, {"type": "node", "id": 6437074794, "lat": 40.4278139, "lon": -3.6867437, "tags": {"amenity": "motorcycle_parking", "capacity": "9"}}, {"type": "node", "id": 6437074795, "lat": 40.427879, "lon": -3.6882599, "tags": {"amenity": "motorcycle_parking", "capacity": "14"}}, {"type": "node", "id": 6437074796, "lat": 40.421241, "lon": -3.6838948, "tags": {"amenity": "motorcycle_parking", "capacity": "9"}}, {"type": "node", "id": 6437074797, "lat": 40.4207823, "lon": -3.6856275, "tags": {"amenity": "motorcycle_parking", "capacity": "9"}}, {"type": "node", "id": 6437074814, "lat": 40.4194667, "lon": -3.6905753, "tags": {"amenity": "motorcycle_parking", "capacity": "9", "covered": "no"}}, {"type": "node", "id": 6770547776, "lat": 40.4334776, "lon": -3.6744899, "tags": {"access": "yes", "amenity": "bicycle_parking", "bicycle_parking": "stands", "capacity": "10", "fee": "no", "operator": "Ayuntamiento de Madrid", "smoothness": "excellent", "surface": "asphalt"}}, {"type": "node", "id": 6912403230, "lat": 40.4283983, "lon": -3.6875653, "tags": {"amenity": "parking_entrance", "name": "Parking Serranopark Marqu\u00e9s de Villamagna", "parking": "underground", "phone": "+34914362085"}}, {"type": "node", "id": 6912403231, "lat": 40.4292302, "lon": -3.6878551, "tags": {"amenity": "parking_entrance", "name": "Parking Serranopark Marqu\u00e9s de Villamagna", "parking": "underground", "phone": "+34914362085"}}, {"type": "node", "id": 7098087931, "lat": 40.4318428, "lon": -3.6807161, "tags": {"access": "no", "amenity": "parking_entrance", "entrance": "yes", "foot": "designated"}}, {"type": "node", "id": 7098087933, "lat": 40.4317969, "lon": -3.6806935, "tags": {"access": "customers", "amenity": "parking_entrance", "fee": "yes", "parking": "underground"}}, {"type": "node", "id": 7124769359, "lat": 40.4317326, "lon": -3.6765699}, {"type": "node", "id": 7124769360, "lat": 40.4316865, "lon": -3.6758535}, {"type": "node", "id": 7124769367, "lat": 40.4304972, "lon": -3.679343, "tags": {"amenity": "parking_entrance", "parking": "underground"}}, {"type": "node", "id": 7429204396, "lat": 40.428078, "lon": -3.6709517, "tags": {"amenity": "parking"}}, {"type": "node", "id": 8079068005, "lat": 40.4336765, "lon": -3.6796997, "tags": {"amenity": "bicycle_parking", "bicycle_parking": "stands", "capacity": "10", "covered": "no"}}, {"type": "node", "id": 8294838435, "lat": 40.4244494, "lon": -3.6843167, "tags": {"amenity": "parking_entrance"}}, {"type": "node", "id": 8301341786, "lat": 40.4211164, "lon": -3.6919151, "tags": {"amenity": "parking", "name": "Aparcamiento Recoletos"}}, {"type": "node", "id": 8307252470, "lat": 40.432949, "lon": -3.6861701, "tags": {"amenity": "parking_entrance", "name": "Serranopark Juan Bravo", "parking": "underground"}}, {"type": "node", "id": 8408601391, "lat": 40.4331518, "lon": -3.6755801, "tags": {"amenity": "parking_entrance"}}, {"type": "node", "id": 8408601395, "lat": 40.4329449, "lon": -3.6758434, "tags": {"amenity": "parking", "layer": "-1", "level": "-1", "name": "Cl\u00ednica Ruber Juan Bravo", "parking": "underground"}}, {"type": "node", "id": 8479324944, "lat": 40.4302335, "lon": -3.6807302, "tags": {"amenity": "parking_entrance", "parking": "underground"}}, {"type": "node", "id": 8479324945, "lat": 40.4302934, "lon": -3.6819453, "tags": {"amenity": "parking_entrance", "parking": "underground"}}, {"type": "node", "id": 8530429386, "lat": 40.4248343, "lon": -3.674958, "tags": {"amenity": "taxi"}}, {"type": "node", "id": 8721651528, "lat": 40.429874, "lon": -3.6802961, "tags": {"amenity": "parking_entrance"}}, {"type": "node", "id": 8787245618, "lat": 40.4336811, "lon": -3.6850333, "tags": {"amenity": "parking_entrance"}}, {"type": "node", "id": 8963971911, "lat": 40.4305846, "lon": -3.6722055, "tags": {"addr:housenumber": "41", "addr:street": "Calle de Montesa", "amenity": "parking", "fee": "yes", "name": "Montesa", "phone": "+34914022736", "website": "https://elparking.com/madrid/parking-montesa-41/6423"}}, {"type": "node", "id": 9054511962, "lat": 40.4242719, "lon": -3.690091}, {"type": "node", "id": 9054511971, "lat": 40.4365837, "lon": -3.6860896}, {"type": "node", "id": 9054511972, "lat": 40.4233088, "lon": -3.6905551}, {"type": "node", "id": 9054511978, "lat": 40.4362064, "lon": -3.685757, "tags": {"amenity": "parking_entrance", "parking": "multi-storey"}}, {"type": "node", "id": 9054511985, "lat": 40.4366066, "lon": -3.6854751}, {"type": "node", "id": 9054511998, "lat": 40.4239815, "lon": -3.6902625}, {"type": "node", "id": 9054512010, "lat": 40.4365552, "lon": -3.6854792}, {"type": "node", "id": 9054521321, "lat": 40.4243201, "lon": -3.6902222}, {"type": "node", "id": 9054521335, "lat": 40.4366351, "lon": -3.6860855}, {"type": "node", "id": 9054521337, "lat": 40.4236117, "lon": -3.6904525}, {"type": "node", "id": 9054521346, "lat": 40.4233386, "lon": -3.6906721}, {"type": "node", "id": 9684595514, "lat": 40.4203393, "lon": -3.6895522, "tags": {"amenity": "parking_entrance"}}, {"type": "node", "id": 9684850519, "lat": 40.4213507, "lon": -3.6896697, "tags": {"amenity": "parking_entrance"}}, {"type": "node", "id": 9862038728, "lat": 40.4292437, "lon": -3.6868318, "tags": {"access": "yes", "amenity": "bicycle_parking", "bicycle_parking": "stands", "capacity": "6", "covered": "no", "fee": "no", "operator": "Ayuntamiento de Madrid", "operator:type": "public"}}, {"type": "node", "id": 9963669573, "lat": 40.4304182, "lon": -3.6764669, "tags": {"amenity": "parking", "layer": "-1", "parking": "underground"}}, {"type": "node", "id": 9963669581, "lat": 40.4306002, "lon": -3.6754146, "tags": {"amenity": "parking", "layer": "-1", "parking": "underground"}}, {"type": "node", "id": 9963669590, "lat": 40.4330187, "lon": -3.6739384, "tags": {"amenity": "parking", "layer": "-1", "parking": "underground"}}, {"type": "node", "id": 9963734530, "lat": 40.4274984, "lon": -3.6807742, "tags": {"amenity": "parking", "layer": "-1", "parking": "underground"}}, {"type": "node", "id": 9994163690, "lat": 40.4317294, "lon": -3.6765201}, {"type": "way", "id": 762516021, "nodes": [3577589935, 3577589938, 3577589939, 3577589940, 7124769360, 9994163690, 7124769359, 3577589949, 3577589950, 3577589934, 3577589935], "tags": {"amenity": "parking", "parking": "surface"}}, {"type": "way", "id": 978543235, "nodes": [9054521346, 9054511972, 9054521337, 9054511998, 9054511962, 9054521321, 9054521346], "tags": {"amenity": "parking", "parking": "surface"}}, {"type": "way", "id": 978543250, "nodes": [9054511985, 9054512010, 9054511971, 9054521335, 9054511985], "tags": {"access": "customers", "amenity": "parking", "fee": "no", "parking": "surface"}}]}