{"version": 0.6, "generator": "Overpass API 0.7.58.5 b0c4acbb", "osm3s": {"timestamp_osm_base": "2022-09-03T09:42:49Z", "copyright": "The data included in this document is from www.openstreetmap.org. The data is made available under ODbL."}, "elements": [{"type": "node", "id": 2075453725, "lat": 41.4012569, "lon": 2.1966826, "tags": {"addr:housenumber": "92", "addr:street": "Carrer Roc Boronat", "amenity": "restaurant", "cuisine": "spanish", "name": "La Mossegada del Poblenou", "smoking": "outside"}}, {"type": "node", "id": 2187210264, "lat": 41.4023416, "lon": 2.1952788, "tags": {"addr:city": "Barcelona", "addr:housenumber": "114", "addr:postcode": "08018", "addr:street": "Carrer de Roc Boronat", "amenity": "restaurant", "cuisine": "mediterranean", "diet:vegan": "no", "diet:vegetarian": "only", "name": "Sopa", "organic": "only", "phone": "+34 933 09 56 76", "smoking": "outside", "takeaway": "yes", "website": "http://www.sopa.vg/"}}, {"type": "node", "id": 2187282137, "lat": 41.4017897, "lon": 2.196068, "tags": {"addr:city": "Barcelona", "addr:housenumber": "211", "addr:postcode": "08018", "addr:street": "Carrer dels Almog\u00e0vers", "amenity": "restaurant", "cuisine": "spanish", "name": "El Catacroquet", "phone": "+34932809059", "website": "http://catacroquet.es/"}}, {"type": "node", "id": 2193095414, "lat": 41.402733, "lon": 2.1969736, "tags": {"addr:city": "Barcelona", "addr:street": "Carrer de la Llacuna", "amenity": "restaurant", "cuisine": "spanish", "name": "Braseria Julian"}}, {"type": "node", "id": 2193095435, "lat": 41.4026626, "lon": 2.1971936, "tags": {"addr:city": "Barcelona", "amenity": "restaurant", "cuisine": "spanish", "name": "Llacuna"}}, {"type": "node", "id": 2400689820, "lat": 41.4006365, "lon": 2.1961225, "tags": {"addr:city": "Barcelona", "addr:housenumber": "132", "addr:postcode": "08005", "addr:street": "Carrer de Pere IV", "amenity": "restaurant", "cuisine": "international", "name": "L\u00facuma", "phone": "+34 933569310", "smoking": "outside", "takeaway": "yes"}}, {"type": "node", "id": 2408482659, "lat": 41.402164, "lon": 2.193314, "tags": {"addr:city": "Barcelona", "addr:street": "Carrer Ciutat de Granada", "amenity": "restaurant", "cuisine": "spanish", "name": "Quinabarra", "opening_hours": "Mo-Fr 08:00-17:00", "smoking": "no"}}, {"type": "node", "id": 2528521163, "lat": 41.4003612, "lon": 2.1959358, "tags": {"name": "Alimentacion", "shop": "convenience"}}, {"type": "node", "id": 5028979721, "lat": 41.3987513, "lon": 2.1950702, "tags": {"addr:housenumber": "95", "addr:street": "Carrer de Badajoz", "amenity": "cafe", "contact:facebook": "https://www.facebook.com/espaijoliu/", "name": "Espai Joliu", "opening_hours": "Mo-Fr 09:00-19:00; Sa 10:00-15:00", "website": "http://espaijoliu.tumblr.com/"}}, {"type": "node", "id": 5522265621, "lat": 41.3990264, "lon": 2.194494}, {"type": "node", "id": 5881622778, "lat": 41.4013423, "lon": 2.1977952, "tags": {"name": "El Fornet", "shop": "bakery"}}, {"type": "node", "id": 6138906566, "lat": 41.3990235, "lon": 2.1944916, "tags": {"man_made": "surveillance", "surveillance:type": "camera"}}, {"type": "node", "id": 6138906835, "lat": 41.3989804, "lon": 2.1943079}, {"type": "node", "id": 6138906836, "lat": 41.3990757, "lon": 2.1943864}, {"type": "node", "id": 6138906883, "lat": 41.3989288, "lon": 2.1944148}, {"type": "node", "id": 6138906896, "lat": 41.3989667, "lon": 2.1944456, "tags": {"addr:housenumber": "101", "addr:postcode": "08018", "addr:street": "Carrer de Pere IV", "entrance": "yes"}}, {"type": "node", "id": 6263376152, "lat": 41.401928, "lon": 2.1945021, "tags": {"addr:street": "Carrer de Sancho d'Avila", "amenity": "restaurant", "name": "MyKasa"}}, {"type": "node", "id": 6535101685, "lat": 41.4000317, "lon": 2.1956346, "tags": {"amenity": "bar", "name": "Catalunya"}}, {"type": "node", "id": 6552264185, "lat": 41.402359, "lon": 2.1931161, "tags": {"addr:housenumber": "98", "addr:street": "Carrer de T\u00e0nger", "amenity": "restaurant", "email": "info22@casapepe.es", "name": "Casa Pepe", "opening_hours": "Mo-Fr 08:00-17:30", "phone": "+34 933569680"}}, {"type": "node", "id": 7616019787, "lat": 41.3996205, "lon": 2.1959957, "tags": {"shop": "convenience"}}, {"type": "node", "id": 8035019187, "lat": 41.400417, "lon": 2.1955634, "tags": {"amenity": "restaurant", "name": "Die Spiegel"}}, {"type": "node", "id": 8046559285, "lat": 41.4023415, "lon": 2.1975419, "tags": {"amenity": "bar", "name": "little ferm"}}, {"type": "node", "id": 9376642417, "lat": 41.3988768, "lon": 2.1953173, "tags": {"addr:housenumber": "92", "addr:postcode": "08005", "addr:street": "Carrer de Badajoz", "amenity": "bar", "contact:facebook": "ravenpoblenou", "name": "Raven Poblenou", "opening_hours": "Fr-Sa 23:00-03:30"}}, {"type": "way", "id": 655182341, "nodes": [6138906835, 6138906836, 5522265621, 6138906566, 6138906896, 6138906883, 6138906835], "tags": {"amenity": "bar", "building": "industrial", "building:levels": "2", "name": "Comtu bar"}}]}