{"version": 0.6, "generator": "Overpass API 0.7.58.5 b0c4acbb", "osm3s": {"timestamp_osm_base": "2022-08-30T19:51:38Z", "copyright": "The data included in this document is from www.openstreetmap.org. The data is made available under ODbL."}, "elements": [{"type": "node", "id": 830462039, "lat": 41.4043015, "lon": 2.1949428, "tags": {"amenity": "cafe", "name": "Cafe Tampa", "smoking": "outside"}}, {"type": "node", "id": 1357828862, "lat": 41.4037433, "lon": 2.1938343, "tags": {"amenity": "cafe", "name": "Cafeter\u00eda universitaria", "opening_hours": "Mo-Fr 09:00-19:00"}}, {"type": "node", "id": 2075453725, "lat": 41.4012569, "lon": 2.1966826, "tags": {"addr:housenumber": "92", "addr:street": "Carrer Roc Boronat", "amenity": "restaurant", "cuisine": "spanish", "name": "La Mossegada del Poblenou", "smoking": "outside"}}, {"type": "node", "id": 2187210264, "lat": 41.4023416, "lon": 2.1952788, "tags": {"addr:city": "Barcelona", "addr:housenumber": "114", "addr:postcode": "08018", "addr:street": "Carrer de Roc Boronat", "amenity": "restaurant", "cuisine": "mediterranean", "diet:vegan": "no", "diet:vegetarian": "only", "name": "Sopa", "organic": "only", "phone": "+34 933 09 56 76", "smoking": "outside", "takeaway": "yes", "website": "http://www.sopa.vg/"}}, {"type": "node", "id": 2187257123, "lat": 41.4047259, "lon": 2.1943414, "tags": {"amenity": "bar", "name": "24 mm"}}, {"type": "node", "id": 2187282137, "lat": 41.4017897, "lon": 2.196068, "tags": {"addr:city": "Barcelona", "addr:housenumber": "211", "addr:postcode": "08018", "addr:street": "Carrer dels Almog\u00e0vers", "amenity": "restaurant", "cuisine": "spanish", "name": "El Catacroquet", "phone": "+34932809059", "website": "http://catacroquet.es/"}}, {"type": "node", "id": 2192226738, "lat": 41.4034935, "lon": 2.1960697, "tags": {"amenity": "restaurant", "cuisine": "pizza", "name": "L'Aldil\u00e0"}}, {"type": "node", "id": 2193095414, "lat": 41.402733, "lon": 2.1969736, "tags": {"addr:city": "Barcelona", "addr:street": "Carrer de la Llacuna", "amenity": "restaurant", "cuisine": "spanish", "name": "Braseria Julian"}}, {"type": "node", "id": 2193095435, "lat": 41.4026626, "lon": 2.1971936, "tags": {"addr:city": "Barcelona", "amenity": "restaurant", "cuisine": "spanish", "name": "Llacuna"}}, {"type": "node", "id": 2193415475, "lat": 41.4035357, "lon": 2.1962709, "tags": {"amenity": "restaurant", "cuisine": "spanish"}}, {"type": "node", "id": 2400689820, "lat": 41.4006365, "lon": 2.1961225, "tags": {"addr:city": "Barcelona", "addr:housenumber": "132", "addr:postcode": "08005", "addr:street": "Carrer de Pere IV", "amenity": "restaurant", "cuisine": "international", "name": "L\u00facuma", "phone": "+34 933569310", "smoking": "outside", "takeaway": "yes"}}, {"type": "node", "id": 2408482659, "lat": 41.402164, "lon": 2.193314, "tags": {"addr:city": "Barcelona", "addr:street": "Carrer Ciutat de Granada", "amenity": "restaurant", "cuisine": "spanish", "name": "Quinabarra", "opening_hours": "Mo-Fr 08:00-17:00", "smoking": "no"}}, {"type": "node", "id": 2528521163, "lat": 41.4003612, "lon": 2.1959358, "tags": {"name": "Alimentacion", "shop": "convenience"}}, {"type": "node", "id": 5522265621, "lat": 41.3990264, "lon": 2.194494}, {"type": "node", "id": 6138906566, "lat": 41.3990235, "lon": 2.1944916, "tags": {"man_made": "surveillance", "surveillance:type": "camera"}}, {"type": "node", "id": 6138906835, "lat": 41.3989804, "lon": 2.1943079}, {"type": "node", "id": 6138906836, "lat": 41.3990757, "lon": 2.1943864}, {"type": "node", "id": 6138906883, "lat": 41.3989288, "lon": 2.1944148}, {"type": "node", "id": 6138906896, "lat": 41.3989667, "lon": 2.1944456, "tags": {"addr:housenumber": "101", "addr:postcode": "08018", "addr:street": "Carrer de Pere IV", "entrance": "yes"}}, {"type": "node", "id": 6263376152, "lat": 41.401928, "lon": 2.1945021, "tags": {"addr:street": "Carrer de Sancho d'Avila", "amenity": "restaurant", "name": "MyKasa"}}, {"type": "node", "id": 6535101685, "lat": 41.4000317, "lon": 2.1956346, "tags": {"amenity": "bar", "name": "Catalunya"}}, {"type": "node", "id": 6552264185, "lat": 41.402359, "lon": 2.1931161, "tags": {"addr:housenumber": "98", "addr:street": "Carrer de T\u00e0nger", "amenity": "restaurant", "email": "info22@casapepe.es", "name": "Casa Pepe", "opening_hours": "Mo-Fr 08:00-17:30", "phone": "+34 933569680"}}, {"type": "node", "id": 7556742392, "lat": 41.40441, "lon": 2.1947619, "tags": {"amenity": "bar", "name": "El Padrino"}}, {"type": "node", "id": 7556742598, "lat": 41.4033088, "lon": 2.1964188, "tags": {"amenity": "restaurant", "delivery": "only", "name": "Xoubas"}}, {"type": "node", "id": 7556742599, "lat": 41.4035243, "lon": 2.1962293, "tags": {"amenity": "bar", "name": "L'Enxaneta"}}, {"type": "node", "id": 7556742600, "lat": 41.4039082, "lon": 2.1954534, "tags": {"amenity": "bar", "name": "Honest Food"}}, {"type": "node", "id": 7556742601, "lat": 41.4046908, "lon": 2.194394, "tags": {"amenity": "bar", "name": "El Petit Daniel"}}, {"type": "node", "id": 8035019187, "lat": 41.400417, "lon": 2.1955634, "tags": {"amenity": "restaurant", "name": "Die Spiegel"}}, {"type": "node", "id": 8046559285, "lat": 41.4023415, "lon": 2.1975419, "tags": {"amenity": "bar", "name": "little ferm"}}, {"type": "way", "id": 655182341, "nodes": [6138906835, 6138906836, 5522265621, 6138906566, 6138906896, 6138906883, 6138906835], "tags": {"amenity": "bar", "building": "industrial", "building:levels": "2", "name": "Comtu bar"}}]}