{"version": 0.6, "generator": "Overpass API 0.7.58.5 b0c4acbb", "osm3s": {"timestamp_osm_base": "2022-08-28T16:41:39Z", "copyright": "The data included in this document is from www.openstreetmap.org. The data is made available under ODbL."}, "elements": [{"type": "node", "id": 420068862, "lat": 41.4049693, "lon": 2.1894182}, {"type": "node", "id": 420068865, "lat": 41.4044103, "lon": 2.1904275}, {"type": "node", "id": 506202703, "lat": 41.3962323, "lon": 2.1890864, "tags": {"addr:street": "Carrer dels Almog\u00e0vers", "amenity": "cafe", "cuisine": "regional", "internet_access": "yes", "internet_access:fee": "no", "name": "Bar Almog\u00e1vares", "opening_hours": "Mo-Fr 07:00-17:00", "opening_hours:covid19": "open", "outdoor_seating": "yes"}}, {"type": "node", "id": 506202705, "lat": 41.3949813, "lon": 2.1916505, "tags": {"addr:housenumber": "36", "addr:street": "Pere IV", "amenity": "restaurant", "description": "Wifi", "name": "La Braser\u00eda", "phone": "+34 931876537", "website": "www.lawebdelabraseria.com"}}, {"type": "node", "id": 506236273, "lat": 41.3982628, "lon": 2.18314, "tags": {"addr:housenumber": "36", "addr:street": "Carrer de Ribes", "name": "Forn de Pa Laia", "opening_hours": "Mo-Fr 06:00-20:30; Sa-Su 07:00-14:00", "phone": "+34932472065", "postal_code": "08013", "shop": "bakery"}}, {"type": "node", "id": 660100527, "lat": 41.4046882, "lon": 2.1967694, "tags": {"amenity": "cafe", "cuisine": "spanish", "name": "Rambla Poblenou", "shop": "optician"}}, {"type": "node", "id": 660100529, "lat": 41.404858, "lon": 2.1941868, "tags": {"amenity": "cafe", "name": "El Fornet d'en Rosend"}}, {"type": "node", "id": 660100530, "lat": 41.40537, "lon": 2.1934837, "tags": {"addr:housenumber": "142-144", "addr:postcode": "08018", "addr:street": "C Llacuna", "amenity": "restaurant", "contact:phone": "+34 933007849", "cuisine": "japanese", "name": "Restaurante UN-ZA", "opening_hours": "Mo-Su 13:00-16:00,20:00-23:30"}}, {"type": "node", "id": 660771772, "lat": 41.4035018, "lon": 2.1977649, "tags": {"amenity": "restaurant", "name": "Anormalfood"}}, {"type": "node", "id": 660778318, "lat": 41.403467, "lon": 2.1978397, "tags": {"name": "granel", "shop": "convenience"}}, {"type": "node", "id": 660778771, "lat": 41.402858, "lon": 2.1987158, "tags": {"addr:housenumber": "105", "amenity": "restaurant", "cuisine": "spanish", "name": "braseria xorus"}}, {"type": "node", "id": 660779414, "lat": 41.402675, "lon": 2.1989594, "tags": {"addr:housenumber": "99", "addr:street": "Ramble de Poblenou", "amenity": "bar", "name": "Bar Burgales"}}, {"type": "node", "id": 660784487, "lat": 41.4027269, "lon": 2.1989008, "tags": {"amenity": "restaurant", "name": "La broqueta"}}, {"type": "node", "id": 660784488, "lat": 41.4027071, "lon": 2.1989239, "tags": {"addr:housenumber": "101", "amenity": "restaurant", "cuisine": "indian", "name": "Sitar"}}, {"type": "node", "id": 660784489, "lat": 41.4023418, "lon": 2.1991561, "tags": {"brand": "Mercadona", "brand:wikidata": "Q377705", "brand:wikipedia": "es:Mercadona", "name": "Mercadona", "opening_hours:covid19": "open", "operator": "Mercadona", "shop": "supermarket", "website": "https://www.mercadona.es"}}, {"type": "node", "id": 830462039, "lat": 41.4043015, "lon": 2.1949428, "tags": {"amenity": "cafe", "name": "Cafe Tampa", "smoking": "outside"}}, {"type": "node", "id": 1159727140, "lat": 41.4048148, "lon": 2.19663, "tags": {"opening_hours:covid19": "open", "shop": "greengrocer", "takeaway:covid19": "yes"}}, {"type": "node", "id": 1271879449, "lat": 41.4063985, "lon": 2.1959205, "tags": {"addr:city": "Barcelona", "addr:housenumber": "138", "addr:postcode": "08018", "addr:street": "Carrer de Bol\u00edvia", "amenity": "restaurant", "diet:vegan": "yes", "diet:vegetarian": "yes", "name": "Culleres", "phone": "+34 93 51 33 984", "smoking": "no", "website": "http://www.culleres.com/", "wheelchair": "no"}}, {"type": "node", "id": 1307297607, "lat": 41.4047275, "lon": 2.191709}, {"type": "node", "id": 1307297612, "lat": 41.4051187, "lon": 2.193249}, {"type": "node", "id": 1307297613, "lat": 41.4047988, "lon": 2.1919649}, {"type": "node", "id": 1307297614, "lat": 41.4056259, "lon": 2.1927972}, {"type": "node", "id": 1320935227, "lat": 41.4061799, "lon": 2.1901275, "tags": {"shop": "convenience", "toilets:wheelchair": "no", "wheelchair": "limited"}}, {"type": "node", "id": 1320935231, "lat": 41.4078939, "lon": 2.1888829, "tags": {"addr:country": "ES", "name": "Jaume", "opening_hours": "Mo-Su 06:30-21:00", "shop": "bakery", "wheelchair": "yes"}}, {"type": "node", "id": 1320935232, "lat": 41.4064857, "lon": 2.1904601, "tags": {"addr:country": "ES", "name": "Forn", "shop": "bakery", "wheelchair": "limited"}}, {"type": "node", "id": 1357828862, "lat": 41.4037433, "lon": 2.1938343, "tags": {"amenity": "cafe", "name": "Cafeter\u00eda universitaria", "opening_hours": "Mo-Fr 09:00-19:00"}}, {"type": "node", "id": 1359971937, "lat": 41.4039161, "lon": 2.1815407, "tags": {"name": "Frutas y Verduras Castillejos", "opening_hours": "Mo-Su 09:00-23:00", "shop": "greengrocer"}}, {"type": "node", "id": 1658424921, "lat": 41.3972738, "lon": 2.1884132, "tags": {"amenity": "fast_food", "name": "Forastera"}}, {"type": "node", "id": 1658425572, "lat": 41.3967185, "lon": 2.1890325, "tags": {"addr:city": "Barcelona", "addr:postcode": "08018", "addr:street": "Carrer de Zamora", "amenity": "cafe", "cuisine": "regional", "internet_access": "yes", "internet_access:fee": "no", "name": "Rebeka", "opening_hours": "Mo-Fr 08:00-17:00", "opening_hours:covid19": "open", "outdoor_seating": "yes"}}, {"type": "node", "id": 2075453725, "lat": 41.4012569, "lon": 2.1966826, "tags": {"addr:housenumber": "92", "addr:street": "Carrer Roc Boronat", "amenity": "restaurant", "cuisine": "spanish", "name": "La Mossegada del Poblenou", "smoking": "outside"}}, {"type": "node", "id": 2085656651, "lat": 41.4027075, "lon": 2.1977649, "tags": {"addr:city": "Barcelona", "addr:housenumber": "178", "addr:postcode": "08005", "addr:street": "Carrer de Pere IV", "amenity": "restaurant", "cuisine": "japanese", "name": "Arce", "phone": "+34 93 309 86 75"}}, {"type": "node", "id": 2158865607, "lat": 41.399043, "lon": 2.1884309, "tags": {"addr:housenumber": "22", "addr:street": "Carrer de T\u00e0nger", "amenity": "cafe", "contact:phone": "+34 933 09 33 75", "contact:website": "http://www.carrotcafe.es/", "name": "Carrot Caf\u00e9", "name:ca": "Carrot caf\u00e9", "name:en": "Carrot caf\u00e9", "name:es": "Carrot caf\u00e9"}}, {"type": "node", "id": 2187210264, "lat": 41.4023416, "lon": 2.1952788, "tags": {"addr:city": "Barcelona", "addr:housenumber": "114", "addr:postcode": "08018", "addr:street": "Carrer de Roc Boronat", "amenity": "restaurant", "cuisine": "mediterranean", "diet:vegan": "no", "diet:vegetarian": "only", "name": "Sopa", "organic": "only", "phone": "+34 933 09 56 76", "smoking": "outside", "takeaway": "yes", "website": "http://www.sopa.vg/"}}, {"type": "node", "id": 2187257123, "lat": 41.4047259, "lon": 2.1943414, "tags": {"amenity": "bar", "name": "24 mm"}}, {"type": "node", "id": 2187259019, "lat": 41.404967, "lon": 2.1945963, "tags": {"addr:city": "Barcelona", "addr:housenumber": "173", "addr:street": "Avinguda Diagonal", "amenity": "restaurant", "cuisine": "japanese", "name": "Nanaya", "phone": "+34 933008401", "smoking": "no", "source": "http://nanaya.es/", "website": "http://nanaya.es/"}}, {"type": "node", "id": 2187270200, "lat": 41.4055941, "lon": 2.1932194, "tags": {"addr:city": "Barcelona", "addr:housenumber": "150", "addr:postcode": "08018", "addr:street": "Carrer de la Llacuna", "amenity": "restaurant", "cuisine": "italian", "name": "FRATELLI LA BUFALA", "opening_hours": "\"local cerrado\"", "website": "http://www.fratellilabufala.eu"}}, {"type": "node", "id": 2187275712, "lat": 41.4061323, "lon": 2.1909641}, {"type": "node", "id": 2187282137, "lat": 41.4017897, "lon": 2.196068, "tags": {"addr:city": "Barcelona", "addr:housenumber": "211", "addr:postcode": "08018", "addr:street": "Carrer dels Almog\u00e0vers", "amenity": "restaurant", "cuisine": "spanish", "name": "El Catacroquet", "phone": "+34932809059", "website": "http://catacroquet.es/"}}, {"type": "node", "id": 2188278126, "lat": 41.4065634, "lon": 2.1938272, "tags": {"addr:housenumber": "153", "addr:postcode": "08018", "addr:street": "Rambla del Poblenou", "amenity": "restaurant", "cuisine": "japanese", "name": "Restaurante Huang Qingfang", "name:ca": "Yoshinoya-8", "name:en": "Yoshinoya-8", "name:es": "Yoshinoya-8"}}, {"type": "node", "id": 2189959511, "lat": 41.4053062, "lon": 2.1939024, "tags": {"amenity": "restaurant", "name": "Frankfurt Diagonal", "wheelchair": "limited"}}, {"type": "node", "id": 2192226738, "lat": 41.4034935, "lon": 2.1960697, "tags": {"amenity": "restaurant", "cuisine": "pizza", "name": "L'Aldil\u00e0"}}, {"type": "node", "id": 2193095290, "lat": 41.4054932, "lon": 2.1943451, "tags": {"amenity": "fast_food", "cuisine": "kebab", "name": "El rinc\u00f3n de Glorias"}}, {"type": "node", "id": 2193095298, "lat": 41.4055556, "lon": 2.194455, "tags": {"amenity": "cafe", "cuisine": "spanish", "name": "El Duende"}}, {"type": "node", "id": 2193095318, "lat": 41.4043344, "lon": 2.1967134, "tags": {"amenity": "restaurant", "name": "Can Pizza"}}, {"type": "node", "id": 2193095338, "lat": 41.40326, "lon": 2.1985353, "tags": {"addr:housenumber": "118", "addr:street": "Rambla de Poblenou", "amenity": "bar", "name": "Saint Pol"}}, {"type": "node", "id": 2193095358, "lat": 41.4055677, "lon": 2.1949217, "tags": {"shop": "kiosk"}}, {"type": "node", "id": 2193095377, "lat": 41.4049762, "lon": 2.1976093, "tags": {"amenity": "cafe", "cuisine": "coffee_shop", "name": "Sant Mart\u00ed"}}, {"type": "node", "id": 2193095381, "lat": 41.4058392, "lon": 2.1946428, "tags": {"name": "Keisy", "operator": "Keisy", "shop": "supermarket"}}, {"type": "node", "id": 2193095391, "lat": 41.4036263, "lon": 2.1981913, "tags": {"amenity": "restaurant", "cuisine": "sandwich", "name": "Espress a T\u00e9"}}, {"type": "node", "id": 2193095406, "lat": 41.4042962, "lon": 2.1981726, "tags": {"amenity": "cafe", "cuisine": "spanish", "name": "Hmm que rico"}}, {"type": "node", "id": 2193095414, "lat": 41.402733, "lon": 2.1969736, "tags": {"addr:city": "Barcelona", "addr:street": "Carrer de la Llacuna", "amenity": "restaurant", "cuisine": "spanish", "name": "Braseria Julian"}}, {"type": "node", "id": 2193095435, "lat": 41.4026626, "lon": 2.1971936, "tags": {"addr:city": "Barcelona", "amenity": "restaurant", "cuisine": "spanish", "name": "Llacuna"}}, {"type": "node", "id": 2193095440, "lat": 41.4027631, "lon": 2.1988499, "tags": {"addr:housenumber": "103", "addr:street": "Ramble de Poblenou", "amenity": "restaurant", "cuisine": "turkish", "name": "Hitit"}}, {"type": "node", "id": 2193389549, "lat": 41.4021933, "lon": 2.1993724, "tags": {"amenity": "restaurant", "name": "L'altre Romero"}}, {"type": "node", "id": 2193391405, "lat": 41.4045879, "lon": 2.1958203, "tags": {"amenity": "restaurant", "cuisine": "sushi", "name": "3E sushi"}}, {"type": "node", "id": 2193415475, "lat": 41.4035357, "lon": 2.1962709, "tags": {"amenity": "restaurant", "cuisine": "spanish"}}, {"type": "node", "id": 2193421646, "lat": 41.405634, "lon": 2.1917031, "tags": {"brand": "Carrefour", "brand:wikidata": "Q217599", "brand:wikipedia": "fr:Carrefour (enseigne)", "name": "Carrefour", "shop": "supermarket", "toilets:wheelchair": "yes", "wheelchair": "yes"}}, {"type": "node", "id": 2193421652, "lat": 41.405107, "lon": 2.1919659, "tags": {"amenity": "fast_food", "brand": "Burger King", "brand:wikidata": "Q177054", "brand:wikipedia": "es:Burger King", "cuisine": "burger", "name": "Burger King", "opening_hours": "Su-Th 11:00-24:00; Fr,Sa 11:00-01:00", "takeaway": "yes", "toilets:wheelchair": "yes", "wheelchair": "yes"}}, {"type": "node", "id": 2197837743, "lat": 41.4018412, "lon": 2.2007225, "tags": {"name": "Cruixent", "shop": "bakery"}}, {"type": "node", "id": 2197837768, "lat": 41.4019136, "lon": 2.2008137, "tags": {"name": "El manduxot", "shop": "greengrocer"}}, {"type": "node", "id": 2292687549, "lat": 41.395911, "lon": 2.190529}, {"type": "node", "id": 2400689820, "lat": 41.4006365, "lon": 2.1961225, "tags": {"addr:city": "Barcelona", "addr:housenumber": "132", "addr:postcode": "08005", "addr:street": "Carrer de Pere IV", "amenity": "restaurant", "cuisine": "international", "name": "L\u00facuma", "phone": "+34 933569310", "smoking": "outside", "takeaway": "yes"}}, {"type": "node", "id": 2408482659, "lat": 41.402164, "lon": 2.193314, "tags": {"addr:city": "Barcelona", "addr:street": "Carrer Ciutat de Granada", "amenity": "restaurant", "cuisine": "spanish", "name": "Quinabarra", "opening_hours": "Mo-Fr 08:00-17:00", "smoking": "no"}}, {"type": "node", "id": 2528521163, "lat": 41.4003612, "lon": 2.1959358, "tags": {"name": "Alimentacion", "shop": "convenience"}}, {"type": "node", "id": 2555598408, "lat": 41.4058852, "lon": 2.1929942, "tags": {"amenity": "restaurant", "name": "Aliaga", "opening_hours": "Mo-Sa 13:00-16:00"}}, {"type": "node", "id": 2576974231, "lat": 41.4003824, "lon": 2.1841121, "tags": {"amenity": "bar", "name": "Seneca"}}, {"type": "node", "id": 2617962817, "lat": 41.4049285, "lon": 2.1919361, "tags": {"addr:city": "Barcelona", "addr:housenumber": "188", "addr:postcode": "08018", "addr:street": "Avinguda Diagonal", "amenity": "fast_food", "brand": "McDonald's", "brand:wikidata": "Q38076", "brand:wikipedia": "es:McDonald's", "cuisine": "burger", "name": "McDonald's", "opening_hours": "Su-Th 08:00-23:30; Fr,Sa 08:00-01:00"}}, {"type": "node", "id": 2684052224, "lat": 41.4052109, "lon": 2.1931117, "tags": {"addr:city": "Barcelona", "addr:housenumber": "208", "addr:postcode": "08018", "addr:street": "Avinguda Diagonal", "amenity": "restaurant", "cuisine": "japanese", "name": "Pai Mei", "opening_hours": "Mo-Su 12:30-16:30,19:00-23:00", "outdoor_seating": "no"}}, {"type": "node", "id": 2703829256, "lat": 41.4007421, "lon": 2.1991334, "tags": {"addr:city": "Barcelona", "addr:housenumber": "155", "addr:postcode": "08005", "addr:street": "Carrer de Pujades", "amenity": "cafe", "cuisine": "regional", "name": "Bon Gust"}}, {"type": "node", "id": 2756677882, "lat": 41.4051928, "lon": 2.1932736}, {"type": "node", "id": 2781788371, "lat": 41.3994356, "lon": 2.197621, "tags": {"addr:city": "Barcelona", "addr:housenumber": "127", "addr:street": "Carrer de Pujades", "building": "kiosk", "building:levels": "1", "shop": "kiosk"}}, {"type": "node", "id": 2891634433, "lat": 41.4032408, "lon": 2.2024557, "tags": {"addr:city": "Barcelona", "addr:housenumber": "207", "addr:postcode": "08005", "addr:street": "Carrer de Pujades", "amenity": "restaurant", "cuisine": "indian", "name": "Nice & Spice", "phone": "+34 933 08 95 48", "smoking": "outside", "website": "http://www.restaurantenicespice.com"}}, {"type": "node", "id": 2915567416, "lat": 41.4032667, "lon": 2.2025276, "tags": {"addr:city": "Barcelona", "addr:housenumber": "209", "addr:postcode": "08005", "addr:street": "Carrer de Pujades", "amenity": "restaurant", "cuisine": "italian", "name": "O Principe", "opening_hours": "Mo-Th 12:00-16:00,20:00-23:30; Fr-Su 12:00-16:00,20:00-00:00"}}, {"type": "node", "id": 2921806501, "lat": 41.4011887, "lon": 2.1998376, "tags": {"addr:city": "Barcelona", "addr:housenumber": "161", "addr:street": "Carrer de Pujades", "amenity": "restaurant", "name": "Spoon factory"}}, {"type": "node", "id": 2923421005, "lat": 41.4043568, "lon": 2.1902175}, {"type": "node", "id": 2923421010, "lat": 41.4052501, "lon": 2.1932935}, {"type": "node", "id": 2966340931, "lat": 41.4022886, "lon": 2.1998883, "tags": {"addr:housenumber": "100", "addr:street": "Rambla del Poblenou", "amenity": "bar", "name": "El Capritx", "name:ca": "El Capritx", "name:en": "El Capritx", "name:es": "El Capritx"}}, {"type": "node", "id": 2966341089, "lat": 41.4023159, "lon": 2.1998443, "tags": {"addr:housenumber": "100", "addr:street": "Rambla del Poblenou", "name": "rico", "shop": "supermarket"}}, {"type": "node", "id": 3005463983, "lat": 41.3972585, "lon": 2.1916091, "tags": {"addr:city": "Barcelona", "addr:housenumber": "88", "addr:postcode": "08018", "addr:street": "Carrer de Pamplona", "amenity": "pub", "name": "Ceferino", "smoking": "outside"}}, {"type": "node", "id": 3009100214, "lat": 41.4078382, "lon": 2.1881211, "tags": {"addr:housenumber": "55", "addr:postcode": "08018", "addr:street": "Carrer del Clot", "amenity": "bar", "name": "Bodega Sopena", "phone": "+34 932311505", "wheelchair": "limited"}}, {"type": "node", "id": 3009145177, "lat": 41.4086673, "lon": 2.1927392, "tags": {"addr:housenumber": "53", "addr:postcode": "08018", "addr:street": "Carrer de Sant Joan de Malta", "amenity": "bar", "contact:facebook": "https://www.facebook.com/CellerCaLaPaqui", "name": "Celler Ca la Paqui", "phone": "+34 654366853"}}, {"type": "node", "id": 3023964339, "lat": 41.4007199, "lon": 2.1997229, "tags": {"addr:city": "Barcelona", "addr:housenumber": "168", "addr:postcode": "08005", "addr:street": "Carrer de Pujades", "amenity": "fast_food", "branch": "Poblenou", "contact:phone": "+34933285188", "cuisine": "burger", "name": "Timesburg", "smoking": "outside", "website": "https://www.timesburg.com/"}}, {"type": "node", "id": 3048076838, "lat": 41.4045744, "lon": 2.199062, "tags": {"name:signed": "no", "opening_hours": "Mo-Fr 07:00-15:00; PH,Sa,Su 08:00-15:00", "shop": "kiosk"}}, {"type": "node", "id": 3048078236, "lat": 41.4013897, "lon": 2.2006002, "tags": {"shop": "kiosk"}}, {"type": "node", "id": 3048079634, "lat": 41.4024271, "lon": 2.199798, "tags": {"amenity": "restaurant", "name": "Recasens", "smoking": "no"}}, {"type": "node", "id": 3049368238, "lat": 41.4078884, "lon": 2.1884107, "tags": {"shop": "kiosk", "wheelchair": "yes"}}, {"type": "node", "id": 3049368239, "lat": 41.4077785, "lon": 2.1885526, "tags": {"amenity": "ice_cream", "cuisine": "ice_cream", "name": "La Lleteria", "wheelchair": "limited"}}, {"type": "node", "id": 3049368240, "lat": 41.4080647, "lon": 2.1884044, "tags": {"addr:city": "Barcelona", "addr:housenumber": "72-74", "addr:postcode": "08018", "addr:street": "Carrer del Clot", "contact:email": "info@pastisserialapalma.com", "contact:phone": "+34 932325257;+34 932323706", "contact:website": "https://www.pastisserialapalma.com", "name": "La Palma", "opening_hours": "Mo 08:30-14:30,16:30-20:30; Tu-Fr 08:00-15:00,16:00-20:30; Sa 08:00-20:00; Su,PH 08:00-17:00", "shop": "pastry", "wheelchair": "limited"}}, {"type": "node", "id": 3049368241, "lat": 41.4077954, "lon": 2.1880996, "tags": {"addr:city": "Barcelona", "addr:country": "ES", "addr:housenumber": "53", "addr:postcode": "08018", "addr:street": "Carrer del Clot", "name": "Mon Pa", "shop": "bakery"}}, {"type": "node", "id": 3049368344, "lat": 41.4082815, "lon": 2.1885259, "tags": {"addr:city": "Barcelona", "addr:country": "ES", "addr:housenumber": "76", "addr:postcode": "08018", "addr:street": "Carrer del Clot", "amenity": "bar", "name": "Clot76", "outdoor_seating": "no", "wheelchair": "no"}}, {"type": "node", "id": 3049368345, "lat": 41.4083173, "lon": 2.1885217, "tags": {"addr:city": "Barcelona", "addr:housenumber": "78", "addr:street": "Carrer del Clot", "amenity": "restaurant", "name": "A ruta gallega"}}, {"type": "node", "id": 3049371937, "lat": 41.4077189, "lon": 2.188061, "tags": {"addr:city": "Barcelona", "addr:housenumber": "49", "addr:street": "Carrer del Clot", "amenity": "restaurant", "cuisine": "pizza", "internet_access": "wlan", "name": "La Clotenca"}}, {"type": "node", "id": 3049372238, "lat": 41.408738, "lon": 2.1894997, "tags": {"addr:city": "Barcelona", "addr:housenumber": "27", "addr:street": "Carrer de Rossend Nobas", "brand": "Dia", "brand:wikidata": "Q925132", "brand:wikipedia": "es:DIA (supermercados)", "name": "Dia", "operator": "Distribuidora Internacional de Alimentaci\u00f3n, S.A.", "shop": "supermarket", "toilets:wheelchair": "no", "website": "https://www.dia.es", "wheelchair": "limited"}}, {"type": "node", "id": 3049395437, "lat": 41.4068426, "lon": 2.1884295, "tags": {"name": "Pa de Georgia", "shop": "bakery"}}, {"type": "node", "id": 3049395438, "lat": 41.4074006, "lon": 2.1890534, "tags": {"addr:city": "Barcelona", "addr:housenumber": "15", "addr:street": "Pla\u00e7a del Mercat", "amenity": "restaurant", "name": "Copi 2"}}, {"type": "node", "id": 3049395439, "lat": 41.4075568, "lon": 2.1891002, "tags": {"addr:city": "Barcelona", "addr:housenumber": "19", "addr:street": "Pla\u00e7a del Mercat", "amenity": "bar", "name": "El refugio de los 33"}}, {"type": "node", "id": 3049395443, "lat": 41.4089676, "lon": 2.1885858, "tags": {"addr:city": "Barcelona", "addr:housenumber": "75-77", "addr:street": "Carrer del Clot", "amenity": "restaurant", "internet_access": "wlan", "name": "Marlen Tastets", "name:ca": "Platill Volador", "name:en": "Platill Volador", "name:es": "Platill Volador", "opening_hours": "Mo,We-Sa 07:30-16:00,20:00-23:30; Su,PH 08:30-16:00; PH 20:00-23:30", "smoking": "no"}}, {"type": "node", "id": 3049395445, "lat": 41.4099761, "lon": 2.1891637, "tags": {"amenity": "fast_food", "cuisine": "argentinian;pizza", "description": "Pizzer\u00eda Argentina", "name": "Sis\u00f3"}}, {"type": "node", "id": 3316542524, "lat": 41.3954324, "lon": 2.186404, "tags": {"addr:city": "Barcelona", "addr:housenumber": "107", "addr:postcode": "08018", "addr:street": "Carrer de la Marina", "amenity": "cafe", "cuisine": "churreria", "internet_access": "no", "name": "Churrer\u00eda J. Argil\u00e9s", "opening_hours": "Sa-Su 00:00-24:00; Tu-Fr 08:30-21:30", "phone": "+34 932 32 43 07", "smoking": "yes", "takeaway": "only"}}, {"type": "node", "id": 3361212874, "lat": 41.3965202, "lon": 2.1918882, "tags": {"addr:housenumber": "120", "addr:street": "Carrer de Pallars", "amenity": "fast_food", "cuisine": "american"}}, {"type": "node", "id": 3386550692, "lat": 41.4051386, "lon": 2.1928962, "tags": {"addr:street": "Barcelona Glorias", "amenity": "fast_food", "cuisine": "german", "name": "kurz & gut", "phone": "93486096", "toilets:wheelchair": "yes", "wheelchair": "yes"}}, {"type": "node", "id": 3711001731, "lat": 41.4078204, "lon": 2.1892507, "tags": {"addr:city": "Barcelona", "addr:housenumber": "1", "addr:postcode": "08018", "addr:street": "Carrer del Cabanyal", "amenity": "restaurant", "cuisine": "regional", "name": "Ca la Cuca", "takeaway": "only"}}, {"type": "node", "id": 3890922254, "lat": 41.4046885, "lon": 2.1836218, "tags": {"amenity": "restaurant", "name": "Casa Paco", "name:ca": "Casa Paco", "name:en": "El Paco", "name:es": "El Paco", "opening_hours": "Mo-Sa"}}, {"type": "node", "id": 3923467388, "lat": 41.3986512, "lon": 2.1828666, "tags": {"addr:city": "Barcelona", "addr:housenumber": "151", "addr:postcode": "08013", "addr:street": "Carrer de Casp", "amenity": "restaurant", "contact:facebook": "https://www.facebook.com/ayresdelsurestaurante/", "cuisine": "mediterranean", "name": "Ayres del Sur", "opening_hours": "Mo-Su 01:00-04:00", "phone": "+34 932 46 99 88"}}, {"type": "node", "id": 4011458618, "lat": 41.3983385, "lon": 2.182871, "tags": {"addr:city": "Barcelona", "addr:housenumber": "192", "addr:postcode": "08013", "addr:street": "Carrer de Casp", "amenity": "bar", "contact:facebook": "https://www.facebook.com/elcafeblau/", "name": "El Caf\u00e8 Blau", "opening_hours": "Mo-Fr 10:30-22:30; Sa 12:00-24:00; Su off", "phone": "+34 932 47 16 59", "smoking": "outside"}}, {"type": "node", "id": 4042474702, "lat": 41.4034227, "lon": 2.19997, "tags": {"amenity": "restaurant", "name": "El Timbal"}}, {"type": "node", "id": 4138769013, "lat": 41.3970017, "lon": 2.1913538, "tags": {"addr:housenumber": "88", "addr:street": "Carrer de Pamplona", "amenity": "cafe", "name": "SKYE Coffee", "opening_hours": "Mo-Tu 09:00-13:30; We-Fr 09:00-17:00"}}, {"type": "node", "id": 4142784489, "lat": 41.406689, "lon": 2.1923166, "tags": {"addr:housenumber": "183", "addr:street": "Llacuna", "amenity": "restaurant", "name": "L'Actiu", "opening_hours": "Mo-Fr 08:00-18:00", "website": "www.lactiu.cat"}}, {"type": "node", "id": 4200455430, "lat": 41.4010121, "lon": 2.179247, "tags": {"addr:city": "Barcelona", "addr:housenumber": "212", "addr:postcode": "08013", "addr:street": "Carrer de la Marina", "amenity": "restaurant", "cuisine": "venezuelan", "name": "Arepamundi", "phone": "+34605906732", "toilets:wheelchair": "yes", "website": "http://www.arepamundi.com/", "wheelchair": "limited"}}, {"type": "node", "id": 4250988290, "lat": 41.4014058, "lon": 2.1809332, "tags": {"addr:city": "Barcelona", "addr:housenumber": "220", "addr:postcode": "08013", "addr:street": "Carrer de Lepant", "amenity": "restaurant", "contact:facebook": "https://www.facebook.com/ElMaderal/", "cuisine": "tapas", "diet:vegan": "only", "name": "El Maderal", "opening_hours": "Tu-Sa 13:30-16:30, 19:00-24:00", "phone": "+34 932 470 034", "takeaway": "yes"}}, {"type": "node", "id": 4252690721, "lat": 41.403496, "lon": 2.1984562, "tags": {"shop": "convenience"}}, {"type": "node", "id": 4254685758, "lat": 41.3967509, "lon": 2.1929295, "tags": {"amenity": "cafe", "name": "Bread Bucket", "shop": "bakery"}}, {"type": "node", "id": 4254686706, "lat": 41.3970854, "lon": 2.1928808, "tags": {"amenity": "cafe"}}, {"type": "node", "id": 4277753900, "lat": 41.3978175, "lon": 2.184081, "tags": {"addr:city": "Barcelona", "addr:housenumber": "157", "addr:postcode": "08013", "addr:street": "Carrer d'Ausi\u00e0s Marc", "amenity": "restaurant", "name": "Piratas", "phone": "+34932457642"}}, {"type": "node", "id": 4289659124, "lat": 41.3947754, "lon": 2.1873544, "tags": {"addr:city": "Barcelona", "addr:housenumber": "114", "addr:postcode": "08018", "addr:street": "Carrer de la Marina", "amenity": "restaurant", "name": "MABEL the Granja", "opening_hours": "Mo-Fr 06:00-22:00; Sa 08:00-16:00", "phone": "+34 934 85 20 28", "smoking": "outside"}}, {"type": "node", "id": 4289682653, "lat": 41.3978888, "lon": 2.189968, "tags": {"addr:city": "Barcelona", "addr:housenumber": "96", "addr:postcode": "08018", "addr:street": "Carrer de Pamplona", "amenity": "pub", "name": "Sonora Sport Tavern"}}, {"type": "node", "id": 4334598705, "lat": 41.4076799, "lon": 2.189368, "tags": {"brand": "Bon Area", "brand:wikidata": "Q11924743", "brand:wikipedia": "ca:Grup Alimentari Guissona", "name": "Bon Area", "shop": "supermarket", "wheelchair": "no"}}, {"type": "node", "id": 4518693470, "lat": 41.4023358, "lon": 2.201295, "tags": {"addr:housenumber": "187", "addr:street": "Pujades", "amenity": "restaurant", "name": "Minyam"}}, {"type": "node", "id": 4534907393, "lat": 41.4058059, "lon": 2.1905307, "tags": {"addr:housenumber": "866-872", "addr:street": "Gran Via de les Corts Catalanes"}}, {"type": "node", "id": 4534954334, "lat": 41.4047773, "lon": 2.1918877}, {"type": "node", "id": 4553695195, "lat": 41.4023142, "lon": 2.2014938, "tags": {"addr:housenumber": "187", "addr:street": "Carrer de Pujades", "amenity": "restaurant", "name": "Minyam", "name:es": "Minyam"}}, {"type": "node", "id": 4563459833, "lat": 41.4048291, "lon": 2.1914585, "tags": {"amenity": "restaurant", "diet:vegan": "no", "diet:vegetarian": "no", "name": "El Mussol", "opening_hours": "Mo-Th 13:00-16:30,20:00-24:00, Fr-Su 13:00-16:30,20:00-01:00", "survey:date": "2022-01-19", "wheelchair": "yes"}}, {"type": "node", "id": 4582968963, "lat": 41.4050337, "lon": 2.1895054}, {"type": "node", "id": 4689020592, "lat": 41.4022025, "lon": 2.2016256, "tags": {"addr:housenumber": "196", "addr:postcode": "08005", "addr:street": "Carrer de Pujades", "amenity": "bar", "contact:facebook": "https://m.facebook.com/BaliusBar/", "cuisine": "tapas", "name": "Balius", "name:es": "Balius", "phone": "+34 933 15 86 50"}}, {"type": "node", "id": 4719191291, "lat": 41.4045622, "lon": 2.1832598, "tags": {"amenity": "bar", "name": "Casa Falc\u00f3n", "name:es": "Casa Falc\u00f3n", "opening_hours": "Mo-Sa"}}, {"type": "node", "id": 4719191292, "lat": 41.4037955, "lon": 2.1820599, "tags": {"amenity": "bar", "name": "Ruta de Francia", "name:es": "Ruta de Francia"}}, {"type": "node", "id": 4719213691, "lat": 41.4039861, "lon": 2.1826919, "tags": {"amenity": "restaurant", "name": "Casa Francis", "name:es": "Casa Francis", "opening_hours": "Mo-Sa"}}, {"type": "node", "id": 4719233590, "lat": 41.40648, "lon": 2.1865116, "tags": {"opening_hours": "24/7", "shop": "convenience"}}, {"type": "node", "id": 4719233591, "lat": 41.4019814, "lon": 2.1795454, "tags": {"addr:city": "Barcelona", "addr:country": "ES", "addr:housenumber": "7", "addr:street": "Carrer Enamorats", "delivery": "yes", "name": "Ma Supermercat", "name:es": "Ma Supermercat", "phone": "+34632877097", "shop": "convenience"}}, {"type": "node", "id": 4719233592, "lat": 41.4012761, "lon": 2.1794877, "tags": {"amenity": "fast_food", "brand": "Telepizza", "brand:wikidata": "Q2699863", "brand:wikipedia": "es:Telepizza", "cuisine": "pizza", "name": "Telepizza", "name:es": "Telepizza", "phone": "+34932658555", "toilets:wheelchair": "yes", "website": "https://www.telepizza.es", "wheelchair": "limited"}}, {"type": "node", "id": 4719259890, "lat": 41.4054293, "lon": 2.1844074, "tags": {"amenity": "bar", "name": "Ribas D'o Sil", "name:es": "Ribas D'o Sil", "opening_hours": "Mo-Sa"}}, {"type": "node", "id": 4721278191, "lat": 41.4071597, "lon": 2.1930065, "tags": {"amenity": "restaurant", "name": "Els Tres Porquets", "name:es": "Els Tres Porquets"}}, {"type": "node", "id": 4727951592, "lat": 41.4012533, "lon": 2.1849993, "tags": {"amenity": "fast_food", "cuisine": "churro", "name": "Xurrer\u00eda", "name:es": "Churrer\u00eda", "wheelchair": "yes"}}, {"type": "node", "id": 4727954094, "lat": 41.3981178, "lon": 2.18306, "tags": {"shop": "convenience"}}, {"type": "node", "id": 4727965494, "lat": 41.4018944, "lon": 2.1841775, "tags": {"amenity": "cafe", "name": "El portal dels encants", "name:ca": "El portal dels encants"}}, {"type": "node", "id": 4727965496, "lat": 41.3991977, "lon": 2.183373, "tags": {"amenity": "restaurant", "name": "Menta", "name:es": "Menta"}}, {"type": "node", "id": 4727974690, "lat": 41.3990208, "lon": 2.1833542, "tags": {"brand": "Condis", "brand:wikidata": "Q57417581", "name": "Condis", "operator": "Condis", "shop": "supermarket"}}, {"type": "node", "id": 4727974890, "lat": 41.4027186, "lon": 2.1829852, "tags": {"amenity": "restaurant", "name": "Sam", "name:es": "Sam"}}, {"type": "node", "id": 4727974994, "lat": 41.4039312, "lon": 2.1818898, "tags": {"amenity": "restaurant", "name": "Restaurante Cubano", "name:es": "Restaurante Cubano", "opening_hours": "Su-Fr 13:00-17:00,19:00-23:00, Sa 13:00-03:00"}}, {"type": "node", "id": 4734086768, "lat": 41.4061298, "lon": 2.1921339}, {"type": "node", "id": 4734086770, "lat": 41.4064808, "lon": 2.1914251}, {"type": "node", "id": 4734086771, "lat": 41.406482, "lon": 2.1916692}, {"type": "node", "id": 4787974651, "lat": 41.4045885, "lon": 2.1993428, "tags": {"amenity": "bar", "name": "El Menjador de la Beckett"}}, {"type": "node", "id": 4878130692, "lat": 41.4034739, "lon": 2.1887038, "tags": {"shop": "kiosk"}}, {"type": "node", "id": 4906707987, "lat": 41.4060107, "lon": 2.1922947, "tags": {"addr:city": "Barcelona", "addr:country": "ES", "addr:housenumber": "151-156", "addr:street": "Carrer de la Llacuna", "barrier": "entrance"}}, {"type": "node", "id": 4906707988, "lat": 41.4059271, "lon": 2.1924039}, {"type": "node", "id": 4906707990, "lat": 41.4053169, "lon": 2.1932043}, {"type": "node", "id": 4906707996, "lat": 41.4061039, "lon": 2.192173}, {"type": "node", "id": 4906736149, "lat": 41.4058547, "lon": 2.1893093, "tags": {"addr:city": "Barcelona", "addr:country": "ES", "addr:housenumber": "39", "addr:postcode": "08018", "addr:street": "Carrer dels Escultors Claper\u00f3s", "amenity": "restaurant", "cuisine": "tapas", "email": "viliviale@gmail.com", "facebook": "https://www.facebook.com/pg/LOlivera.bar/", "name": "L'Olivera", "outdoor_seating": "yes", "payment:american_express": "yes", "payment:coins": "yes", "payment:visa": "yes", "payment:visa_debit": "yes", "phone": "+34 931 72 48 99", "toilets:wheelchair": "yes", "wheelchair": "limited"}}, {"type": "node", "id": 4942732021, "lat": 41.4064484, "lon": 2.193943, "tags": {"addr:housenumber": "147-153", "addr:street": "Rambla del Poblenou", "amenity": "restaurant", "name": "La dehesa", "name:es": "La dehesa"}}, {"type": "node", "id": 4949467755, "lat": 41.409574, "lon": 2.1888021, "tags": {"name": "Vegetal & cia", "shop": "greengrocer", "wheelchair": "yes"}}, {"type": "node", "id": 4965677492, "lat": 41.4032881, "lon": 2.2001895, "tags": {"amenity": "bar", "name": "La tasqueta de Can Felipa"}}, {"type": "node", "id": 5010794821, "lat": 41.3979072, "lon": 2.1955319, "tags": {"addr:housenumber": "95", "addr:street": "Carrer de Pujades", "amenity": "cafe", "name": "N\u00f8mad Roaster's Home", "name:en": "N\u00f8mad Roaster's Home", "opening_hours": "Mo-Fr 09:00-17:00"}}, {"type": "node", "id": 5028979721, "lat": 41.3987513, "lon": 2.1950702, "tags": {"addr:housenumber": "95", "addr:street": "Carrer de Badajoz", "amenity": "cafe", "contact:facebook": "https://www.facebook.com/espaijoliu/", "name": "Espai Joliu", "opening_hours": "Mo-Fr 09:00-19:00; Sa 10:00-15:00", "website": "http://espaijoliu.tumblr.com/"}}, {"type": "node", "id": 5103623221, "lat": 41.4058102, "lon": 2.197889, "tags": {"addr:housenumber": "145", "addr:street": "Avinguda Diagonal", "amenity": "restaurant", "cuisine": "chinese", "name": "Chang Feng", "name:es": "Chang Feng", "opening_hours": "Mo-Su 12:00-16:00, 20:00-00:00", "phone": "+34 932664857"}}, {"type": "node", "id": 5156691330, "lat": 41.4092668, "lon": 2.1886224, "tags": {"addr:street": "Carrer del Clot", "amenity": "cafe", "name": "Coffee Clot", "name:ca": "Coffee Clot", "toilets:wheelchair": "no", "wheelchair": "limited"}}, {"type": "node", "id": 5156725923, "lat": 41.4101612, "lon": 2.1893062, "tags": {"addr:street": "Carrer del Clot", "amenity": "cafe", "name": "La Habana", "name:ca": "La Habana"}}, {"type": "node", "id": 5156726121, "lat": 41.4093282, "lon": 2.188652, "tags": {"addr:street": "Carrer del Clot", "amenity": "cafe", "name": "Yuan", "name:ca": "Yuan", "toilets:wheelchair": "no", "wheelchair": "limited"}}, {"type": "node", "id": 5158417921, "lat": 41.4090397, "lon": 2.1888164, "tags": {"addr:street": "Carrer del Clot", "amenity": "bar", "name": "El Nou CloTiberi", "name:ca": "El Nou CloTiberi"}}, {"type": "node", "id": 5158417922, "lat": 41.4087697, "lon": 2.1875592, "tags": {"amenity": "restaurant", "name": "El Clot", "name:ca": "El Clot", "toilets:wheelchair": "yes", "wheelchair": "limited"}}, {"type": "node", "id": 5158418121, "lat": 41.4081453, "lon": 2.1878004, "tags": {"addr:city": "Barcelona", "addr:country": "ES", "addr:housenumber": "7", "addr:postcode": "08018", "addr:street": "Carrer de la S\u00e8quia Comtal", "amenity": "restaurant", "name": "Ca la Margui", "name:ca": "Ca la Margui"}}, {"type": "node", "id": 5158418122, "lat": 41.4082707, "lon": 2.1874132, "tags": {"addr:city": "Barcelona", "addr:country": "ES", "addr:housenumber": "15", "addr:postcode": "08018", "addr:street": "Carrer de la S\u00e8quia Comtal", "amenity": "restaurant", "name": "Verd Oliva", "name:ca": "Verd Oliva", "wheelchair": "limited"}}, {"type": "node", "id": 5158418221, "lat": 41.4082496, "lon": 2.187481, "tags": {"addr:city": "Barcelona", "addr:country": "ES", "addr:housenumber": "15", "addr:postcode": "08018", "addr:street": "Carrer de la S\u00e8quia Comtal", "contact:phone": "+34 931654111", "contact:website": "https://www.vinalium.com", "drive_through": "no", "name": "Vinalium", "name:ca": "Vinalium", "opening_hours": "10:00-14:00, 17:00-21:00", "payment:mastercard": "yes", "payment:visa": "yes", "shop": "alcohol"}}, {"type": "node", "id": 5158418222, "lat": 41.4082317, "lon": 2.1872611, "tags": {"addr:city": "Barcelona", "amenity": "cafe", "name": "Smart Bar", "name:ca": "Smart Bar", "toilets:wheelchair": "no", "wheelchair": "limited"}}, {"type": "node", "id": 5158418223, "lat": 41.4081961, "lon": 2.1871986, "tags": {"addr:city": "Barcelona", "amenity": "cafe", "name": "Dino Pan", "name:ca": "Dino Pan", "toilets:wheelchair": "no", "wheelchair": "limited"}}, {"type": "node", "id": 5182246331, "lat": 41.4066399, "lon": 2.1874049, "tags": {"amenity": "restaurant", "name": "Las Verjas", "name:ca": "Las Verjas", "wheelchair": "limited"}}, {"type": "node", "id": 5182246332, "lat": 41.4071016, "lon": 2.1877492, "tags": {"addr:city": "Barcelona", "addr:country": "ES", "addr:housenumber": "31", "addr:postcode": "08018", "addr:street": "Carrer del Clot", "amenity": "restaurant", "cuisine": "vietnamese", "internet_access": "wlan", "name": "Tutu Vietnamese Cuisine", "name:ca": "Tutu Vietnamese Cuisine", "wheelchair": "yes"}}, {"type": "node", "id": 5182246333, "lat": 41.4074015, "lon": 2.1879005, "tags": {"addr:city": "Barcelona", "addr:country": "ES", "addr:housenumber": "39", "addr:postcode": "08018", "addr:street": "Carrer del Clot", "amenity": "restaurant", "contact:facebook": "https://www.facebook.com/pg/LaCumparsitaBarcelona/", "contact:phone": "+34 930244911", "cuisine": "argentinian", "description": "La Cumparsita es una braser\u00eda inspirada en el barrio de San Telmo, Buenos aires. Creada por un Argentino que ha querido acercar una parte de sus or\u00edgenes al barrio del Clot, haci\u00e9ndonos llegar entre brasas y tangos la m\u00e1s pura Argentina.", "name": "Braseria la Cumparsita", "name:ca": "Braseria la Cumparsita", "payment:visa": "yes"}}, {"type": "node", "id": 5182246334, "lat": 41.4077873, "lon": 2.1884794, "tags": {"amenity": "restaurant", "name": "La Granjeta", "name:ca": "La Granjeta"}}, {"type": "node", "id": 5182260828, "lat": 41.4074258, "lon": 2.1879148, "tags": {"addr:city": "Barcelona", "addr:country": "ES", "addr:housenumber": "41", "addr:postcode": "08018", "addr:street": "Carrer del Clot", "amenity": "restaurant", "internet_access": "wlan", "name": "Bar Rovira", "name:ca": "Bar Rovira"}}, {"type": "node", "id": 5182260829, "lat": 41.4080299, "lon": 2.1885543, "tags": {"amenity": "restaurant", "name": "Bar Clot", "name:ca": "Bar Clot"}}, {"type": "node", "id": 5182261022, "lat": 41.40665, "lon": 2.1877545, "tags": {"amenity": "restaurant", "name": "El Rac\u00f3 de C\u00e1diz", "name:ca": "El Rac\u00f3 de C\u00e1diz"}}, {"type": "node", "id": 5182261023, "lat": 41.4077441, "lon": 2.188721, "tags": {"amenity": "restaurant", "name": "La M\u00e0nega", "name:ca": "La M\u00e0nega"}}, {"type": "node", "id": 5363506797, "lat": 41.4022944, "lon": 2.1881778, "tags": {"amenity": "cafe"}}, {"type": "node", "id": 5380241103, "lat": 41.4004924, "lon": 2.1903645, "tags": {"amenity": "restaurant", "name": "Diamantico"}}, {"type": "node", "id": 5380241629, "lat": 41.4004229, "lon": 2.1906076, "tags": {"amenity": "restaurant", "name": "el Jard\u00ed"}}, {"type": "node", "id": 5522265621, "lat": 41.3990264, "lon": 2.194494}, {"type": "node", "id": 5531275475, "lat": 41.3980449, "lon": 2.1941948, "tags": {"brand": "Dia", "brand:wikidata": "Q925132", "brand:wikipedia": "es:DIA (supermercados)", "name": "Dia", "operator": "Distribuidora Internacional de Alimentaci\u00f3n, S.A.", "shop": "supermarket", "website": "https://www.dia.es"}}, {"type": "node", "id": 5545772622, "lat": 41.4024489, "lon": 2.2014463, "tags": {"name": "Baluard", "shop": "bakery"}}, {"type": "node", "id": 5696409381, "lat": 41.4020828, "lon": 2.200141, "tags": {"addr:city": "Barcelona", "addr:housenumber": "92", "addr:postcode": "08005", "addr:street": "Rambla del Poblenou", "amenity": "restaurant", "cuisine": "lebanese", "name": "L'AUT\u00c8NTIC Restaurant Liban\u00e8s", "opening_hours": "Mo-Su 12:00-01:00", "outdoor_seating": "yes", "phone": "+34 934 08 86 74", "takeaway": "yes", "website": "https://lautentic-restaurant-libanes.business.site/"}}, {"type": "node", "id": 5851366137, "lat": 41.4091716, "lon": 2.1887084, "tags": {"addr:city": "Barcelona", "addr:country": "ES", "addr:housenumber": "85", "addr:postcode": "08018", "addr:street": "Carrer del Clot", "amenity": "restaurant", "cuisine": "asian", "name": "Restaurante Dolsotbap", "opening_hours": "Tu-Su 12:00-16:00,19:30-24:00", "phone": "+34 931 882 715"}}, {"type": "node", "id": 5878496985, "lat": 41.4051569, "lon": 2.1921906, "tags": {"amenity": "restaurant", "cuisine": "japanese", "email": "glories@udon.es", "name": "UDON Gl\u00f2ries", "opening_hours": "Su-Th 13:00-00:00; Fr,Sa 13:00-01:00", "phone": "+34 93 486 13 14", "toilets:wheelchair": "yes", "website": "https://www.udon.es/es/restaurants/barcelona/udon-glories", "wheelchair": "yes"}}, {"type": "node", "id": 5881622778, "lat": 41.4013423, "lon": 2.1977952, "tags": {"name": "El Fornet", "shop": "bakery"}}, {"type": "node", "id": 5882992722, "lat": 41.4025772, "lon": 2.1834034, "tags": {"addr:street": "diagonal", "name": "24h Supermercat con pan", "shop": "supermarket"}}, {"type": "node", "id": 6030732873, "lat": 41.4085249, "lon": 2.1886248, "tags": {"addr:city": "Barcelona", "addr:country": "ES", "addr:housenumber": "86", "addr:postcode": "08018", "addr:street": "Carrer del Clot", "contact:email": "info@pastisserialapalma.com", "contact:phone": "+34 932325257;+34 932323706", "contact:website": "https://www.pastisserialapalma.com", "name": "La Palma", "opening_hours": "Mo 08:30-14:30,16:30-20:30; Tu-Fr 08:00-15:00,16:00-20:30; Sa 08:00-20:00; Su,PH 08:00-17:00", "shop": "confectionery"}}, {"type": "node", "id": 6036931539, "lat": 41.4050517, "lon": 2.1926832, "tags": {"amenity": "fast_food", "name": "Viena", "toilets:wheelchair": "yes", "wheelchair": "yes"}}, {"type": "node", "id": 6093791831, "lat": 41.4076, "lon": 2.1881989, "tags": {"addr:city": "Barcelona", "addr:country": "ES", "addr:postcode": "08018", "addr:street": "Carrer del Clot", "name": "Secris", "shop": "greengrocer", "wheelchair": "yes"}}, {"type": "node", "id": 6093942018, "lat": 41.4071096, "lon": 2.1876767, "tags": {"addr:city": "Barcelona", "addr:country": "ES", "addr:postcode": "08018", "description": "Alimentaci\u00f3n y Licores", "name": "J. Solans", "shop": "convenience", "wheelchair": "yes"}}, {"type": "node", "id": 6093942019, "lat": 41.4056837, "lon": 2.1854527, "tags": {"amenity": "restaurant", "name": "Canario"}}, {"type": "node", "id": 6093944885, "lat": 41.4071645, "lon": 2.1874651, "tags": {"addr:city": "Barcelona", "addr:country": "ES", "addr:housenumber": "4", "addr:postcode": "08018", "addr:street": "Carrer de Joan I", "name": "Naim", "shop": "convenience"}}, {"type": "node", "id": 6093944886, "lat": 41.4072456, "lon": 2.1873211, "tags": {"addr:city": "Barcelona", "addr:country": "ES", "addr:housenumber": "6", "addr:postcode": "08018", "addr:street": "Carrer de Joan I", "amenity": "restaurant", "contact:facebook": "https://www.facebook.com/pg/TioRoyoElAlquimista/", "contact:phone": "+34 688208767", "cuisine": "mediterranean;regional", "name": "Nicasso", "opening_hours": "Mo-Sa 08:00-02:00; Su 12:00-02:00", "outdoor_seating": "no", "payment:american_express": "yes", "payment:discover_card": "yes", "payment:mastercard": "yes", "payment:visa": "yes", "smoking": "no"}}, {"type": "node", "id": 6121076545, "lat": 41.4019324, "lon": 2.1795042, "tags": {"addr:housenumber": "7", "addr:street": "Carrer Enamorats", "amenity": "bar", "name": "Balcony"}}, {"type": "node", "id": 6121148415, "lat": 41.4059895, "lon": 2.1859945, "tags": {"name": "Bonjour Gala", "shop": "bakery"}}, {"type": "node", "id": 6121155277, "lat": 41.4061796, "lon": 2.1860894, "tags": {"amenity": "bar", "name": "Bar La Fusta"}}, {"type": "node", "id": 6122387578, "lat": 41.4082003, "lon": 2.1876319, "tags": {"addr:city": "Barcelona", "addr:country": "ES", "addr:housenumber": "9", "addr:postcode": "08018", "addr:street": "Carrer de la S\u00e8quia Comtal", "amenity": "restaurant", "cuisine": "japanese", "name": "Mei Wei", "wheelchair": "limited"}}, {"type": "node", "id": 6125393737, "lat": 41.4082721, "lon": 2.1873726, "tags": {"addr:city": "Barcelona", "addr:country": "ES", "addr:housenumber": "17", "addr:postcode": "08018", "addr:street": "Carrer de la S\u00e8quia Comtal", "name": "Mini Mercado", "shop": "convenience"}}, {"type": "node", "id": 6126749461, "lat": 41.3942111, "lon": 2.1902433, "tags": {"addr:housenumber": "27", "addr:postcode": "08018", "addr:street": "Carrer de Pujades", "amenity": "restaurant", "entrance": "yes", "name": "Cantero"}}, {"type": "node", "id": 6138906566, "lat": 41.3990235, "lon": 2.1944916, "tags": {"man_made": "surveillance", "surveillance:type": "camera"}}, {"type": "node", "id": 6138906835, "lat": 41.3989804, "lon": 2.1943079}, {"type": "node", "id": 6138906836, "lat": 41.3990757, "lon": 2.1943864}, {"type": "node", "id": 6138906883, "lat": 41.3989288, "lon": 2.1944148}, {"type": "node", "id": 6138906896, "lat": 41.3989667, "lon": 2.1944456, "tags": {"addr:housenumber": "101", "addr:postcode": "08018", "addr:street": "Carrer de Pere IV", "entrance": "yes"}}, {"type": "node", "id": 6139197908, "lat": 41.3961614, "lon": 2.1897405, "tags": {"addr:city": "Barcelona", "addr:housenumber": "90", "addr:postcode": "08018", "addr:street": "Carrer de Zamora", "entrance": "yes"}}, {"type": "node", "id": 6139197909, "lat": 41.395822, "lon": 2.1903811, "tags": {"entrance": "yes"}}, {"type": "node", "id": 6139197910, "lat": 41.395822, "lon": 2.1902597, "tags": {"entrance": "yes"}}, {"type": "node", "id": 6139197911, "lat": 41.3958219, "lon": 2.1902074, "tags": {"addr:city": "Barcelona", "addr:housenumber": "78", "addr:postcode": "08018", "addr:street": "Carrer de Zamora", "entrance": "yes"}}, {"type": "node", "id": 6139197953, "lat": 41.395822, "lon": 2.1902347}, {"type": "node", "id": 6139197977, "lat": 41.3962114, "lon": 2.1898118}, {"type": "node", "id": 6139197978, "lat": 41.3959821, "lon": 2.190376}, {"type": "node", "id": 6139197981, "lat": 41.3961507, "lon": 2.1897282}, {"type": "node", "id": 6139198732, "lat": 41.3958217, "lon": 2.1901653}, {"type": "node", "id": 6139198736, "lat": 41.3961572, "lon": 2.1897354}, {"type": "node", "id": 6139198749, "lat": 41.395822, "lon": 2.1904069}, {"type": "node", "id": 6157629899, "lat": 41.407803, "lon": 2.1892973, "tags": {"name": "Don Verdures", "shop": "greengrocer", "wheelchair": "yes"}}, {"type": "node", "id": 6157629901, "lat": 41.4096161, "lon": 2.1886707, "tags": {"amenity": "restaurant", "cuisine": "kebab;pizza", "name": "Sarfraz Kebabish"}}, {"type": "node", "id": 6157631328, "lat": 41.4077289, "lon": 2.1891251, "tags": {"name": "El Cafet\u00f3", "shop": "bakery", "toilets:wheelchair": "yes", "wheelchair": "yes"}}, {"type": "node", "id": 6157632343, "lat": 41.4091295, "lon": 2.1886748, "tags": {"amenity": "fast_food", "name": "Xurreria Artesana"}}, {"type": "node", "id": 6164141341, "lat": 41.4049918, "lon": 2.1923017, "tags": {"addr:city": "Barcelona", "addr:country": "ES", "addr:housenumber": "218", "addr:postcode": "08018", "addr:street": "Avinguda Diagonal", "addr:unit": "293-304", "amenity": "restaurant", "branch": "C.C. Les Glories", "contact:phone": "+34 932663601", "contact:website": "https://www.latagliatella.es/restaurantes/barcelona/cc-les-glories-barcelona", "cuisine": "pizza;italian", "name": "La Tagliatella", "opening_hours": "Su-Th 13:00-23:00; Fr-Sa 12:00-00:00", "payment:mastercard": "yes", "payment:visa": "yes", "toilets:wheelchair": "yes", "wheelchair": "yes"}}, {"type": "node", "id": 6164182991, "lat": 41.4050315, "lon": 2.1963811, "tags": {"addr:city": "Barcelona", "addr:country": "ES", "addr:housenumber": "142", "addr:postcode": "08018", "addr:street": "Rambla del Poblenou", "amenity": "restaurant", "contact:phone": "+34 931925976", "contact:website": "https://rest-atrium.negocio.site/", "cuisine": "mediterranean", "name": "Atrium", "opening_hours": "Mo-Su 07:00-00:00"}}, {"type": "node", "id": 6164234382, "lat": 41.4052321, "lon": 2.1924708, "tags": {"addr:city": "Barcelona", "addr:country": "ES", "addr:housenumber": "208", "addr:postcode": "08018", "addr:street": "Avinguda Diagonal", "amenity": "restaurant", "branch": "C.C. Glories", "contact:website": "https://pokesi.es/", "cuisine": "poke", "delivery": "yes", "level": "-1", "name": "Pok\u00e9 S\u00ed", "opening_hours": "Mo-Su 12:00-23:00", "outdoor_seating": "no", "smoking": "no", "takeaway": "yes", "toilets:wheelchair": "yes", "wheelchair": "yes"}}, {"type": "node", "id": 6164234383, "lat": 41.4018825, "lon": 2.2003717, "tags": {"addr:city": "Barcelona", "addr:country": "ES", "addr:housenumber": "88", "addr:postcode": "08005", "addr:street": "Rambla del Poblenou", "amenity": "restaurant", "contact:facebook": "https://www.facebook.com/pg/Isami-1581280252085171/", "contact:phone": "+34 993099482", "cuisine": "japanese", "delivery": "yes", "name": "Isami", "opening_hours": "Tu-Su 12:30-16:00, 20:00-00:00", "takeaway": "yes"}}, {"type": "node", "id": 6164235940, "lat": 41.401992, "lon": 2.1998344, "tags": {"addr:city": "Barcelona", "addr:housenumber": "85", "addr:postcode": "08005", "addr:street": "Rambla del Poblenou", "addr:unit": "9", "amenity": "restaurant", "contact:phone": "+34 934869348", "cuisine": "middle_eastern;libanese;mediterranean", "name": "Sundown", "opening_hours": "Mo-Th 09:00-23:30; Fr-Sa 09:00-01:30; Su 09:00-23:00", "outdoor_seating": "yes"}}, {"type": "node", "id": 6164236104, "lat": 41.4047343, "lon": 2.1968042, "tags": {"addr:city": "Barcelona", "addr:country": "ES", "addr:housenumber": "134", "addr:postcode": "08018", "addr:street": "Rambla del Poblenou", "amenity": "restaurant", "contact:facebook": "https://es-es.facebook.com/barpaloverde", "contact:phone": "+34 936398409", "cuisine": "spanish;mediterranean", "name": "Palo Verde", "outdoor_seating": "yes"}}, {"type": "node", "id": 6164236105, "lat": 41.4014971, "lon": 2.2008971, "tags": {"addr:city": "Barcelona", "addr:country": "ES", "addr:housenumber": "82", "addr:postcode": "08005", "addr:street": "Rambla del Poblenou", "contact:phone": "+34 993004394", "name": "Boheme", "shop": "bakery"}}, {"type": "node", "id": 6175371185, "lat": 41.4077484, "lon": 2.1891122, "tags": {"name": "El cafet\u00f3", "shop": "bakery"}}, {"type": "node", "id": 6181434656, "lat": 41.4022354, "lon": 2.1835056, "tags": {"addr:city": "Barcelona", "addr:country": "ES", "shop": "convenience"}}, {"type": "node", "id": 6181435256, "lat": 41.4011237, "lon": 2.1846694, "tags": {"addr:city": "Barcelona", "addr:country": "ES", "shop": "convenience"}}, {"type": "node", "id": 6188947162, "lat": 41.4062891, "lon": 2.1856357, "tags": {"contact:phone": "+34 935251789", "name": "Carnisseria Luna", "shop": "butcher"}}, {"type": "node", "id": 6196317429, "lat": 41.4059417, "lon": 2.1860262, "tags": {"amenity": "bar", "description": "comprobar nombre", "name": "Bar 27"}}, {"type": "node", "id": 6220939849, "lat": 41.4072841, "lon": 2.1872457, "tags": {"addr:city": "Barcelona", "addr:country": "ES", "addr:housenumber": "8", "addr:postcode": "08018", "addr:street": "Carrer de Joan I", "description": "Productos exclusivos de Ja\u00e9n.", "name": "El Cortijo", "shop": "deli"}}, {"type": "node", "id": 6263376152, "lat": 41.401928, "lon": 2.1945021, "tags": {"addr:street": "Carrer de Sancho d'Avila", "amenity": "restaurant", "name": "MyKasa"}}, {"type": "node", "id": 6330262252, "lat": 41.4014849, "lon": 2.1895987, "tags": {"addr:housenumber": "160", "addr:street": "Carrer \u00c1vila", "amenity": "restaurant", "name": "Raco del Poble Nou", "opening_hours": "Mo-Su 07:00-22:00"}}, {"type": "node", "id": 6420374585, "lat": 41.4068698, "lon": 2.1864777, "tags": {"addr:city": "Barcelona", "addr:housenumber": "97", "addr:postcode": "08026", "addr:street": "Avinguda Meridiana", "amenity": "restaurant", "name": "Ca La Margui", "phone": "+34 932 45 11 66"}}, {"type": "node", "id": 6451346360, "lat": 41.4054304, "lon": 2.1930548, "tags": {"addr:city": "Barcelona", "addr:country": "ES", "addr:housenumber": "139-145", "addr:street": "Carrer de la Llacuna"}}, {"type": "node", "id": 6503344192, "lat": 41.403636, "lon": 2.1986181, "tags": {"addr:housenumber": "208", "addr:postcode": "08005", "addr:street": "Carrer de Pere IV", "amenity": "restaurant", "cuisine": "italian_pizza", "name": "Roma Bella", "opening_hours": "Mo-Su 13:00-23:00", "phone": "+34 938 287 895"}}, {"type": "node", "id": 6516563967, "lat": 41.404438, "lon": 2.1905395, "tags": {"addr:housenumber": "240-252", "addr:street": "Avinguda Diagonal", "entrance": "yes"}}, {"type": "node", "id": 6516563968, "lat": 41.4045252, "lon": 2.1908919, "tags": {"addr:housenumber": "230-238", "addr:street": "Avinguda Diagonal", "entrance": "yes"}}, {"type": "node", "id": 6516563969, "lat": 41.4046702, "lon": 2.1914774, "tags": {"addr:housenumber": "220-228", "addr:street": "Avinguda Diagonal", "entrance": "yes"}}, {"type": "node", "id": 6516563970, "lat": 41.4048436, "lon": 2.1921448, "tags": {"addr:housenumber": "210-218", "addr:street": "Avinguda Diagonal", "entrance": "yes"}}, {"type": "node", "id": 6516563971, "lat": 41.4049295, "lon": 2.1924896, "tags": {"addr:housenumber": "200-208", "addr:street": "Avinguda Diagonal", "entrance": "yes"}}, {"type": "node", "id": 6516563972, "lat": 41.4050723, "lon": 2.1930626, "tags": {"addr:housenumber": "188-198", "addr:street": "Avinguda Diagonal", "entrance": "yes"}}, {"type": "node", "id": 6516572963, "lat": 41.4051123, "lon": 2.1896098, "tags": {"addr:housenumber": "850-852", "addr:street": "Gran Via de les Corts Catalanes"}}, {"type": "node", "id": 6516572964, "lat": 41.4054001, "lon": 2.1899919, "tags": {"addr:housenumber": "854-864", "addr:street": "Gran Via de les Corts Catalanes"}}, {"type": "node", "id": 6516572965, "lat": 41.406337, "lon": 2.1912349, "tags": {"addr:housenumber": "874-888", "addr:street": "Gran Via de les Corts Catalanes"}}, {"type": "node", "id": 6532214487, "lat": 41.4039113, "lon": 2.201701, "tags": {"amenity": "bar", "name": "Susurro"}}, {"type": "node", "id": 6532230691, "lat": 41.3991988, "lon": 2.1885302, "tags": {"addr:street": "Carrer de T\u00e0nger", "amenity": "restaurant", "name": "L'Estoneta"}}, {"type": "node", "id": 6532239885, "lat": 41.4001402, "lon": 2.1897924, "tags": {"addr:housenumber": "44", "addr:postcode": "08018", "addr:street": "Carrer de T\u00e0nger", "amenity": "restaurant", "entrance": "yes", "name": "Casa Mar\u00eda"}}, {"type": "node", "id": 6532239886, "lat": 41.4003823, "lon": 2.1901179, "tags": {"addr:housenumber": "50", "addr:street": "Carrer de T\u00e0nger", "amenity": "restaurant", "name": "T\u00e1nger"}}, {"type": "node", "id": 6532239887, "lat": 41.4003684, "lon": 2.1901005, "tags": {"addr:housenumber": "50", "addr:postcode": "08018", "addr:street": "Carrer de T\u00e0nger", "entrance": "yes", "name": "David", "shop": "convenience"}}, {"type": "node", "id": 6533543186, "lat": 41.3954241, "lon": 2.1927662, "tags": {"amenity": "restaurant", "name": "La Terrassa"}}, {"type": "node", "id": 6535101487, "lat": 41.3990612, "lon": 2.1968513, "tags": {"name": "Proxim", "shop": "supermarket"}}, {"type": "node", "id": 6535101586, "lat": 41.3962666, "lon": 2.1921849, "tags": {"addr:housenumber": ",78", "addr:street": "Carrer de Pamplona", "amenity": "restaurant", "name": "Xiscarexantar"}}, {"type": "node", "id": 6535101685, "lat": 41.4000317, "lon": 2.1956346, "tags": {"amenity": "bar", "name": "Catalunya"}}, {"type": "node", "id": 6535101686, "lat": 41.3992845, "lon": 2.1970974, "tags": {"amenity": "restaurant", "name": "Llacuna"}}, {"type": "node", "id": 6535101785, "lat": 41.4048149, "lon": 2.1995456, "tags": {"addr:street": "Carrer de Pere IV", "amenity": "cafe", "name": "Monsieur Bosc"}}, {"type": "node", "id": 6552263885, "lat": 41.4021166, "lon": 2.1898084, "tags": {"addr:housenumber": "31", "addr:street": "Carrer de Bol\u00edvia", "amenity": "restaurant", "cuisine": "local", "internet_access": "wlan", "name": "Mare Meva", "opening_hours": "Mo-Fr 07:30-17:00"}}, {"type": "node", "id": 6552264185, "lat": 41.402359, "lon": 2.1931161, "tags": {"addr:housenumber": "98", "addr:street": "Carrer de T\u00e0nger", "amenity": "restaurant", "email": "info22@casapepe.es", "name": "Casa Pepe", "opening_hours": "Mo-Fr 08:00-17:30", "phone": "+34 933569680"}}, {"type": "node", "id": 6563307386, "lat": 41.4016002, "lon": 2.1889242, "tags": {"amenity": "bar", "name": "Eva-2"}}, {"type": "node", "id": 6563312285, "lat": 41.3971005, "lon": 2.187613, "tags": {"addr:housenumber": "7", "addr:street": "Carrer de Sancho de \u00c0vila", "amenity": "restaurant", "cuisine": "local", "name": "Sancho", "opening_hours": "Mo-Fr 07:00-22:00, Sa-Su 08:00-22:00"}}, {"type": "node", "id": 6576044985, "lat": 41.4010063, "lon": 2.1880935, "tags": {"addr:housenumber": "1-3", "addr:street": "Carrer de Bol\u00edvia", "amenity": "restaurant", "cuisine": "arab", "name": "Al Jaima - Els Encants", "name:es": "Al-Jaima - Els Encants", "opening_hours": "Mo-Sa 07:00-23:00", "phone": "034930178487"}}, {"type": "node", "id": 6576045085, "lat": 41.4010388, "lon": 2.1883527, "tags": {"addr:housenumber": "1", "addr:street": "Carrer de Bol\u00edvia", "name": "Alimentaci\u00f3 Escribano", "opening_hours": "Mo-Sa 07:45-15:00, 17:00-21:00", "shop": "convenience"}}, {"type": "node", "id": 6576045185, "lat": 41.4013195, "lon": 2.1887189, "tags": {"addr:housenumber": "11", "addr:street": "Carrer de Bol\u00edvia", "amenity": "restaurant", "name": "Tovar", "opening_hours": "Mo-Sa 06:00-17:00"}}, {"type": "node", "id": 6579626787, "lat": 41.4077053, "lon": 2.1921041, "tags": {"addr:housenumber": "873", "addr:street": "Gran Via de les Corts Catalanes", "amenity": "cafe", "name": "Gloria bean's coffee"}}, {"type": "node", "id": 6579626886, "lat": 41.406837, "lon": 2.1909846, "tags": {"addr:housenumber": "857", "addr:street": "Gran Via de les Corts Catalanes", "amenity": "bar", "name": "Chaplin"}}, {"type": "node", "id": 6579626985, "lat": 41.4065594, "lon": 2.190623, "tags": {"addr:housenumber": "855", "addr:street": "Gran Via de les Corts Catalanes", "amenity": "cafe", "internet_access": "wlan", "name": "Carlu"}}, {"type": "node", "id": 6579627085, "lat": 41.4056827, "lon": 2.1894676, "tags": {"addr:housenumber": "837", "addr:street": "Gran Via de les Corts Catalanes", "amenity": "restaurant", "name": "Bar Avenida"}}, {"type": "node", "id": 6582515706, "lat": 41.4003043, "lon": 2.183255, "tags": {"addr:city": "Barcelona", "addr:housenumber": "798", "addr:postcode": "08013", "addr:street": "Gran Via de les Corts Catalanes", "brand": "Caprabo", "brand:wikidata": "Q1980781", "brand:wikipedia": "en:Caprabo", "name": "Caprabo", "opening_hours": "Mo-Su 08:00-23:00", "payment:cash": "yes", "payment:mastercard": "yes", "payment:visa": "yes", "shop": "supermarket"}}, {"type": "node", "id": 6588176585, "lat": 41.4013749, "lon": 2.1887841, "tags": {"addr:housenumber": "15,17", "addr:street": "Carrer de Bol\u00edvia", "amenity": "restaurant", "name": "La Fonda", "opening_hours": "Mo-Fr 07:00-20:00"}}, {"type": "node", "id": 6588191385, "lat": 41.4014243, "lon": 2.188848, "tags": {"addr:housenumber": "15,17", "addr:street": "Carrer de Bol\u00edvia", "amenity": "restaurant", "name": "Can Miguel\u00edn", "opening_hours": "Mo-Su 09:00-00:00"}}, {"type": "node", "id": 6638904861, "lat": 41.4026914, "lon": 2.1989384, "tags": {"amenity": "restaurant", "name": "L'origen"}}, {"type": "node", "id": 6766273105, "lat": 41.4046419, "lon": 2.1831681, "tags": {"addr:housenumber": "170", "addr:street": "Carrer de Cartagena", "amenity": "restaurant", "name": "Comet Express"}}, {"type": "node", "id": 6766273106, "lat": 41.4032643, "lon": 2.184741, "tags": {"amenity": "cafe", "internet_access": "wlan", "name": "Kiosk Naturam"}}, {"type": "node", "id": 6766273108, "lat": 41.4062943, "lon": 2.1894749, "tags": {"amenity": "restaurant", "internet_access": "wlan", "name": "Bar Wally"}}, {"type": "node", "id": 6766273109, "lat": 41.4065479, "lon": 2.1890035, "tags": {"addr:housenumber": "40", "addr:street": "Carrer dels Escultors Claper\u00f3s", "amenity": "fast_food", "cuisine": "chicken;kebab;pizza", "internet_access": "wlan", "name": "La Cuina de Clot"}}, {"type": "node", "id": 6771862785, "lat": 41.4057972, "lon": 2.1839697, "tags": {"addr:street": "Carrer del Dos de Maig", "amenity": "restaurant", "internet_access": "wlan", "name": "Las Ca\u00f1itas"}}, {"type": "node", "id": 6771862885, "lat": 41.4069581, "lon": 2.1884605, "tags": {"name": "Comestibles Herrero", "shop": "convenience"}}, {"type": "node", "id": 6771862985, "lat": 41.4068633, "lon": 2.1889242, "tags": {"addr:housenumber": "17", "addr:street": "Carrer del Coronel Sanfeliu", "amenity": "restaurant", "internet_access": "wlan", "name": "El Patio de mi Casa"}}, {"type": "node", "id": 6771863085, "lat": 41.4067427, "lon": 2.1888311, "tags": {"addr:housenumber": "18", "addr:street": "Carrer del Coronel Sanfeliu", "amenity": "restaurant", "name": "Castro"}}, {"type": "node", "id": 6772043986, "lat": 41.4064366, "lon": 2.1853673, "tags": {"addr:housenumber": "236", "addr:street": "Carrer de la Independ\u00e8ncia", "amenity": "restaurant", "cuisine": "peruvian", "name": "De casa Raquel"}}, {"type": "node", "id": 6772044092, "lat": 41.4063297, "lon": 2.1858033, "tags": {"addr:housenumber": "617", "addr:street": "Carrer del Consell de Cent", "amenity": "restaurant", "cuisine": "mediterranean", "name": "Luna"}}, {"type": "node", "id": 6772044287, "lat": 41.4063014, "lon": 2.1855732, "tags": {"addr:housenumber": "234", "addr:street": "Carrer de la Independ\u00e8ncia", "amenity": "restaurant", "name": "Bar el Cuco"}}, {"type": "node", "id": 6772044386, "lat": 41.4065032, "lon": 2.1848523, "tags": {"addr:housenumber": "261", "addr:street": "Carrer de la Independ\u00e8ncia", "brand": "Caprabo", "brand:wikidata": "Q1980781", "brand:wikipedia": "en:Caprabo", "name": "Caprabo", "shop": "supermarket"}}, {"type": "node", "id": 6772044685, "lat": 41.4065386, "lon": 2.1847988, "tags": {"addr:housenumber": "263", "addr:street": "Carrer de la Independ\u00e8ncia", "amenity": "restaurant", "internet_access": "wlan", "name": "Bar David"}}, {"type": "node", "id": 6779106486, "lat": 41.4075958, "lon": 2.1879902, "tags": {"addr:housenumber": "45", "addr:street": "Carrer del Clot", "amenity": "fast_food", "cuisine": "burger", "name": "Flames del Drac"}}, {"type": "node", "id": 6786005886, "lat": 41.4054282, "lon": 2.1844464, "tags": {"addr:housenumber": "192-194", "addr:street": "Carrer del Dos de Maig", "amenity": "cafe", "cuisine": "tapas", "name": "Pipa's Bar"}}, {"type": "node", "id": 6786006585, "lat": 41.408564, "lon": 2.1884752, "tags": {"addr:housenumber": "71", "addr:street": "Carrer del Clot", "amenity": "restaurant", "internet_access": "wlan", "name": "El Taller"}}, {"type": "node", "id": 6847250288, "lat": 41.4039185, "lon": 2.1819255, "tags": {"addr:housenumber": "210", "addr:postcode": "08013", "addr:street": "Carrer de los Castillejos", "amenity": "restaurant", "cuisine": "vegan;vegetarian", "diet:vegan": "yes", "diet:vegetarian": "only", "email": "xavibarcelona1983@hotmail.com", "internet_access": "wlan", "name": "L'encant vegetari\u00e0", "name:en": "L\u2019Encant Vegetari\u00e0", "name:es": "L\u2019Encant Vegetari\u00e0", "opening_hours": "Mo-Fr 07:30-16:00; Sa-Su 11:00-16:00", "phone": "+34932440016", "website": "https://restaurante-lencant-vegetaria.eatbu.com/"}}, {"type": "node", "id": 6906379659, "lat": 41.4085013, "lon": 2.1873157, "tags": {"amenity": "fast_food", "cuisine": "churro", "name": "xurreria", "wheelchair": "yes"}}, {"type": "node", "id": 6920138496, "lat": 41.4004097, "lon": 2.1801687, "tags": {"amenity": "restaurant", "name": "Bar restaurant breton"}}, {"type": "node", "id": 6936466985, "lat": 41.4020809, "lon": 2.2010252, "tags": {"amenity": "bar", "name:en": "Madame George"}}, {"type": "node", "id": 6960466492, "lat": 41.400378, "lon": 2.1801575, "tags": {"amenity": "restaurant", "name": "Bar Breton"}}, {"type": "node", "id": 6960466786, "lat": 41.4003781, "lon": 2.180023, "tags": {"amenity": "restaurant", "name": "Pizza Di Como"}}, {"type": "node", "id": 6973926711, "lat": 41.3965047, "lon": 2.1941864, "tags": {"addr:housenumber": "100", "addr:street": "Carrer de Pujades", "amenity": "cafe", "name": "Syra Coffee", "name:en": "Itnig", "website": "https://syra.coffee/"}}, {"type": "node", "id": 7044957955, "lat": 41.405803, "lon": 2.1905336}, {"type": "node", "id": 7107839702, "lat": 41.4074994, "lon": 2.1879533, "tags": {"shop": "butcher", "wheelchair": "limited"}}, {"type": "node", "id": 7107839703, "lat": 41.4075388, "lon": 2.1879761, "tags": {"shop": "greengrocer"}}, {"type": "node", "id": 7107839718, "lat": 41.4082223, "lon": 2.1875741, "tags": {"name": "Queviures Los Ma\u00f1os", "shop": "convenience", "wheelchair": "no"}}, {"type": "node", "id": 7107839719, "lat": 41.4082394, "lon": 2.1875155, "tags": {"shop": "greengrocer", "wheelchair": "limited"}}, {"type": "node", "id": 7124857728, "lat": 41.3964797, "lon": 2.1851438, "tags": {"amenity": "bar", "name": "Cabo"}}, {"type": "node", "id": 7206382985, "lat": 41.403126, "lon": 2.1807902, "tags": {"addr:housenumber": "288", "addr:street": "Carrer dels Enamorats", "amenity": "restaurant", "name": "Casa Julio"}}, {"type": "node", "id": 7206383086, "lat": 41.4023432, "lon": 2.1797782, "tags": {"addr:street": "Carrer dels Enamorats", "amenity": "restaurant", "name": "Abadia de Palma 1"}}, {"type": "node", "id": 7206383087, "lat": 41.4013343, "lon": 2.1797243, "tags": {"addr:housenumber": "263", "addr:street": "Avinguda Diagonal", "amenity": "cafe", "internet_access": "wlan", "name": "El Tropic Corner"}}, {"type": "node", "id": 7206383185, "lat": 41.4025295, "lon": 2.1799536, "tags": {"addr:housenumber": "11, 13", "addr:street": "Carrer dels Enamorats", "amenity": "restaurant", "name": "Hostalets"}}, {"type": "node", "id": 7234692489, "lat": 41.3942304, "lon": 2.1901096, "tags": {"amenity": "restaurant", "name": "Van van var"}}, {"type": "node", "id": 7272699790, "lat": 41.4032182, "lon": 2.1816499, "tags": {"brand": "Alcampo", "brand:wikidata": "Q2832081", "brand:wikipedia": "es:Alcampo", "name": "Alcampo", "shop": "supermarket"}}, {"type": "node", "id": 7272700185, "lat": 41.4034289, "lon": 2.1819079, "tags": {"addr:housenumber": "551", "addr:street": "Carrer del Consell de Cent", "amenity": "cafe", "name": "Consejo de Ciento"}}, {"type": "node", "id": 7526373965, "lat": 41.407577, "lon": 2.1937196, "tags": {"amenity": "restaurant", "cuisine": "spanish", "name": "Rostisseria G\u00f3mez", "takeaway": "only"}}, {"type": "node", "id": 7556637988, "lat": 41.4041586, "lon": 2.1968775, "tags": {"amenity": "bar", "name": "Doncurado"}}, {"type": "node", "id": 7556637989, "lat": 41.4038732, "lon": 2.1971787, "tags": {"amenity": "bar", "name": "SiamoQu\u00e1"}}, {"type": "node", "id": 7556637992, "lat": 41.402687, "lon": 2.1988375, "tags": {"amenity": "bar", "name": "Mexico"}}, {"type": "node", "id": 7556637994, "lat": 41.4026574, "lon": 2.1989656, "tags": {"amenity": "bar", "name": "Vi Tapa"}}, {"type": "node", "id": 7556638001, "lat": 41.4016626, "lon": 2.2002564, "tags": {"amenity": "bar", "name": "Dehesa Santa Maria"}}, {"type": "node", "id": 7556638085, "lat": 41.4044993, "lon": 2.1964618, "tags": {"name": "El Bon Peix", "shop": "seafood"}}, {"type": "node", "id": 7556638086, "lat": 41.4044202, "lon": 2.1965577, "tags": {"name": "Vinalium", "shop": "alcohol"}}, {"type": "node", "id": 7556638088, "lat": 41.4026167, "lon": 2.1989022, "tags": {"amenity": "restaurant", "name": "Giuletta"}}, {"type": "node", "id": 7556638089, "lat": 41.402487, "lon": 2.1991727, "tags": {"amenity": "restaurant", "name": "Aita Galicia"}}, {"type": "node", "id": 7556638090, "lat": 41.4021276, "lon": 2.1996818, "tags": {"name": "J. Tena", "shop": "butcher"}}, {"type": "node", "id": 7556742392, "lat": 41.40441, "lon": 2.1947619, "tags": {"amenity": "bar", "name": "El Padrino"}}, {"type": "node", "id": 7556742593, "lat": 41.4009756, "lon": 2.2000272, "tags": {"amenity": "bar", "name": "Menjador del Centre"}}, {"type": "node", "id": 7556742594, "lat": 41.4009157, "lon": 2.1999114, "tags": {"name": "Paka\u00f1a", "shop": "greengrocer"}}, {"type": "node", "id": 7556742595, "lat": 41.4008481, "lon": 2.1998121, "tags": {"amenity": "restaurant", "name": "La Taqueria"}}, {"type": "node", "id": 7556742598, "lat": 41.4033088, "lon": 2.1964188, "tags": {"amenity": "restaurant", "delivery": "only", "name": "Xoubas"}}, {"type": "node", "id": 7556742599, "lat": 41.4035243, "lon": 2.1962293, "tags": {"amenity": "bar", "name": "L'Enxaneta"}}, {"type": "node", "id": 7556742600, "lat": 41.4039082, "lon": 2.1954534, "tags": {"amenity": "bar", "name": "Honest Food"}}, {"type": "node", "id": 7556742601, "lat": 41.4046908, "lon": 2.194394, "tags": {"amenity": "bar", "name": "El Petit Daniel"}}, {"type": "node", "id": 7557045996, "lat": 41.4038544, "lon": 2.1973354, "tags": {"amenity": "cafe", "name": "the Cofee Market"}}, {"type": "node", "id": 7559103786, "lat": 41.4073907, "lon": 2.1934984, "tags": {"amenity": "bar", "name": "Pyramid"}}, {"type": "node", "id": 7559103985, "lat": 41.40753, "lon": 2.1936826, "tags": {"name": "Debby's", "shop": "confectionery"}}, {"type": "node", "id": 7559104085, "lat": 41.4075001, "lon": 2.1936287, "tags": {"amenity": "bar", "name": "Mechita Sour"}}, {"type": "node", "id": 7559151838, "lat": 41.4073121, "lon": 2.193362, "tags": {"shop": "convenience"}}, {"type": "node", "id": 7563864197, "lat": 41.4037568, "lon": 2.1986742, "tags": {"amenity": "bar", "name": "la Tanda"}}, {"type": "node", "id": 7563882234, "lat": 41.4025464, "lon": 2.1998488, "tags": {"name": "Mon pa", "shop": "bakery"}}, {"type": "node", "id": 7563900752, "lat": 41.4022526, "lon": 2.1998855, "tags": {"name": "Forn de pa Santanach", "shop": "bakery"}}, {"type": "node", "id": 7563925131, "lat": 41.4019268, "lon": 2.2003212, "tags": {"amenity": "restaurant", "name": "Cantoni del Poble9"}}, {"type": "node", "id": 7572644787, "lat": 41.3973555, "lon": 2.1856288, "tags": {"amenity": "bar", "name": "Cerveseria del Roser"}}, {"type": "node", "id": 7572650399, "lat": 41.3974365, "lon": 2.1856579, "tags": {"shop": "convenience"}}, {"type": "node", "id": 7615982501, "lat": 41.4003896, "lon": 2.1978586, "tags": {"amenity": "bar", "name": "La Tavernicola"}}, {"type": "node", "id": 7616019787, "lat": 41.3996205, "lon": 2.1959957, "tags": {"shop": "convenience"}}, {"type": "node", "id": 7777999388, "lat": 41.4049345, "lon": 2.1913268, "tags": {"amenity": "cafe", "brand": "Starbucks", "brand:wikidata": "Q37158", "brand:wikipedia": "en:Starbucks", "cuisine": "coffee_shop", "name": "Starbucks", "name:en": "Starbucks", "official_name": "Starbucks Coffee", "survey:date": "2022-01-19", "takeaway": "yes"}}, {"type": "node", "id": 7860863385, "lat": 41.4021313, "lon": 2.1829321, "tags": {"name": "L'Artes\u00e0 de Vic", "shop": "butcher"}}, {"type": "node", "id": 7995069726, "lat": 41.3965693, "lon": 2.1887208, "tags": {"addr:city": "Barcelona", "addr:street": "Carrer de Zamora", "amenity": "cafe", "cuisine": "regional", "internet_access": "yes", "internet_access:fee": "no", "name": "Eurest  Catalunya S.L.", "opening_hours": "Mo-Su 08:00-21:00", "opening_hours:covid19": "open", "outdoor_seating": "yes"}}, {"type": "node", "id": 8035019187, "lat": 41.400417, "lon": 2.1955634, "tags": {"amenity": "restaurant", "name": "Die Spiegel"}}, {"type": "node", "id": 8046559285, "lat": 41.4023415, "lon": 2.1975419, "tags": {"amenity": "bar", "name": "little ferm"}}, {"type": "node", "id": 8046575685, "lat": 41.4026759, "lon": 2.1977843, "tags": {"amenity": "restaurant", "name": "Norman's"}}, {"type": "node", "id": 8049731597, "lat": 41.4025485, "lon": 2.2010666, "tags": {"amenity": "bar", "name": "Nina"}}, {"type": "node", "id": 8049731601, "lat": 41.4032433, "lon": 2.2000071, "tags": {"amenity": "restaurant", "name": "Puerto Escondido"}}, {"type": "node", "id": 8049731695, "lat": 41.4058727, "lon": 2.1960983, "tags": {"amenity": "restaurant", "name": "Kyora"}}, {"type": "node", "id": 8049731800, "lat": 41.4066239, "lon": 2.1954143, "tags": {"amenity": "cafe", "name": "El rebost de la Lola"}}, {"type": "node", "id": 8049732292, "lat": 41.4029636, "lon": 2.2006718, "tags": {"amenity": "bar", "name": "Doroteo"}}, {"type": "node", "id": 8049732293, "lat": 41.4028707, "lon": 2.2003397, "tags": {"name": "L'hort fel Poblenou", "shop": "greengrocer"}}, {"type": "node", "id": 8049732298, "lat": 41.4043747, "lon": 2.1983111, "tags": {"amenity": "cafe", "name": "L'Artesana"}}, {"type": "node", "id": 8049732299, "lat": 41.4068195, "lon": 2.1951581, "tags": {"amenity": "fast_food", "name": "nora"}}, {"type": "node", "id": 8062015292, "lat": 41.4022269, "lon": 2.2012078, "tags": {"shop": "convenience"}}, {"type": "node", "id": 8062015293, "lat": 41.4021984, "lon": 2.2011676, "tags": {"name": "Macxipa", "shop": "bakery"}}, {"type": "node", "id": 8062016195, "lat": 41.4021002, "lon": 2.2014634, "tags": {"amenity": "cafe", "name": "artemisia"}}, {"type": "node", "id": 8064873686, "lat": 41.3977404, "lon": 2.1934117, "tags": {"amenity": "restaurant", "name": "La Cantonada del Xenia"}}, {"type": "node", "id": 8064873887, "lat": 41.396904, "lon": 2.1931193, "tags": {"amenity": "restaurant", "name": "Cala Joana"}}, {"type": "node", "id": 8064873986, "lat": 41.3974759, "lon": 2.1931865, "tags": {"amenity": "restaurant", "name": "Xenia"}}, {"type": "node", "id": 8064873987, "lat": 41.3993018, "lon": 2.1920928, "tags": {"amenity": "cafe", "name": "Oasis"}}, {"type": "node", "id": 8064874185, "lat": 41.396382, "lon": 2.1935012, "tags": {"amenity": "cafe", "name": "El primer caf\u00e9"}}, {"type": "node", "id": 8087316617, "lat": 41.4044578, "lon": 2.1992632, "tags": {"name": "Caprabo", "opening_hours": "Mo-Sa 08:00-22:30; Su 09:00-22:30", "shop": "supermarket"}}, {"type": "node", "id": 8090433517, "lat": 41.4058657, "lon": 2.1897073, "tags": {"name": "Condis", "shop": "supermarket"}}, {"type": "node", "id": 8489755907, "lat": 41.4053896, "lon": 2.1918005, "tags": {"level": "0", "name": "Buenas Migas", "shop": "pastry"}}, {"type": "node", "id": 8615439453, "lat": 41.4018083, "lon": 2.2010138, "tags": {"addr:city": "Barcelona", "addr:housenumber": "188", "addr:postcode": "08005", "addr:street": "Carrer de Pujades", "contact:facebook": "https://www.facebook.com/lagraneriadelpoblenou/", "name": "La Graneria del Poblenou", "opening_hours": "Mo-Sa 010:00-14:00,17:00-20:30", "opening_hours:covid19": "same", "payment:cash": "yes", "payment:credit_cards": "yes", "phone": "+34 93 250 02 68", "shop": "supermarket"}}, {"type": "node", "id": 8807503317, "lat": 41.4038742, "lon": 2.1819846, "tags": {"amenity": "restaurant", "name": "Uniko Restaurant"}}, {"type": "node", "id": 8818975889, "lat": 41.4054744, "lon": 2.1919237, "tags": {"level": "0", "name": "Danone", "shop": "ice_cream"}}, {"type": "node", "id": 8978109646, "lat": 41.4085913, "lon": 2.1929744, "tags": {"addr:housenumber": "55", "addr:street": "Carrer de Sant Joan de Malta", "amenity": "restaurant", "cuisine": "catalan", "name": "Can Pineda"}}, {"type": "node", "id": 9023362418, "lat": 41.3955052, "lon": 2.1923565, "tags": {"amenity": "fast_food", "cuisine": "kebab", "name": "J\u00e9rusalem", "name:ca": "Jerusalem", "name:en": "Jerusalem"}}, {"type": "node", "id": 9124922432, "lat": 41.3968342, "lon": 2.1888871, "tags": {"addr:housenumber": "96", "addr:street": "Carrer de Zamora", "amenity": "cafe", "cuisine": "coffee_shop", "name": "Caf\u00e9 de Finca", "opening_hours:covid19": "open", "outdoor_seating": "no"}}, {"type": "node", "id": 9197873390, "lat": 41.4061236, "lon": 2.1928075, "tags": {"addr:city": "Barcelona", "addr:country": "ES", "addr:housenumber": "162", "addr:postcode": "08018", "addr:street": "Carrer de la Llacuna", "contact:website": "https://incapto.com/", "name": "Incapto Coffee", "shop": "coffee"}}, {"type": "node", "id": 9233572532, "lat": 41.4005247, "lon": 2.1842529, "tags": {"amenity": "cafe", "name": "Caf\u00e9 del Teatre", "outdoor_seating": "yes"}}, {"type": "node", "id": 9376342919, "lat": 41.3966728, "lon": 2.1919552, "tags": {"addr:housenumber": "122", "addr:postcode": "08018", "addr:street": "Carrer de Pallars", "air_conditioning": "no", "amenity": "bar", "email": "hijoscain@hotmail.com", "indoor_seating": "yes", "name": "Hijos de cain Bar", "opening_hours": "Fr-Sa 22:30-03:00", "operator": "PH Fr,Sa 23:00-03:00", "outdoor_seating": "no", "payment:credit_cards": "yes", "payment:debit_cards": "yes", "smoking": "no", "website": "http://www.hijosdecain.es/", "wheelchair": "no"}}, {"type": "node", "id": 9376343220, "lat": 41.3963512, "lon": 2.1922632, "tags": {"addr:housenumber": "61", "addr:postcode": "08018", "addr:street": "Carrer de Pere IV", "amenity": "bar", "contact:facebook": "airbarpoblenou", "email": "airbarpoblenou@hotmail.com", "name:en": "Airbar"}}, {"type": "node", "id": 9376372117, "lat": 41.3967903, "lon": 2.1921194, "tags": {"addr:housenumber": "122", "addr:postcode": "08018", "addr:street": "Carrer de Pallars", "air_conditioning": "no", "amenity": "bar", "contact:facebook": "D9bar", "contact:instagram": "d9poblenou", "email": "ramon@denou.bar", "indoor_seating": "yes", "name": "D9", "opening_hours": "Mo-Su 18:00-01:00", "outdoor_seating": "yes", "payment:credit_cards": "yes", "payment:debit_cards": "yes", "phone": "+34 933 099 202;+34 687 955 816", "smoking": "outside", "website": "https://denou.bar/", "wheelchair": "no"}}, {"type": "node", "id": 9376642417, "lat": 41.3988768, "lon": 2.1953173, "tags": {"addr:housenumber": "92", "addr:postcode": "08005", "addr:street": "Carrer de Badajoz", "amenity": "bar", "contact:facebook": "ravenpoblenou", "name": "Raven Poblenou", "opening_hours": "Fr-Sa 23:00-03:30"}}, {"type": "node", "id": 9377066517, "lat": 41.3983197, "lon": 2.1942274, "tags": {"addr:housenumber": "100", "addr:postcode": "08006", "addr:street": "Carrer de Pere IV", "amenity": "restaurant", "name": "El rey del kebab", "opening_hours": "Mo-Fr 11:30-23:00; Sa-Su 14:00-23:00"}}, {"type": "node", "id": 9431243821, "lat": 41.4050963, "lon": 2.190739, "tags": {"amenity": "fast_food", "cuisine": "coffee_shop", "level": "-1", "name": "Giovanni", "survey:date": "2022-01-19"}}, {"type": "node", "id": 9431244017, "lat": 41.4053897, "lon": 2.1913509, "tags": {"amenity": "fast_food", "cuisine": "coffee_shop", "name": "Secrets", "survey:date": "2022-01-19"}}, {"type": "node", "id": 9467049252, "lat": 41.4032097, "lon": 2.1982348, "tags": {"name": "Primaprix", "shop": "supermarket"}}, {"type": "node", "id": 9590876717, "lat": 41.3930591, "lon": 2.1899199, "tags": {"addr:postcode": "08005", "air_conditioning": "yes", "amenity": "bar", "name": "Ve De Gust", "name:ca": "Ve de Gust", "opening_hours": "Sa 09:00-00:30; Mo, We-Th 08:00-23:00; Fr 08:00-00:30; Su 09:00-23:00; Tu 08:00-16:00", "phone": "+34 936 27 23 27", "smoking": "outside", "website": "https://h5.clewm.net/?url=qr61.cn%2Fo1Ua8r%2FqI3ey4g&hasredirect=1", "wheelchair": "limited"}}, {"type": "node", "id": 9812455817, "lat": 41.3996622, "lon": 2.1978459, "tags": {"name:en": "Vains", "shop": "supermarket"}}, {"type": "node", "id": 9812455818, "lat": 41.4001622, "lon": 2.1984615, "tags": {"shop": "supermarket"}}, {"type": "node", "id": 9914088717, "lat": 41.4052516, "lon": 2.1882236, "tags": {"amenity": "cafe", "name": "Els Titons de Las Palmeras"}}, {"type": "node", "id": 9983395817, "lat": 41.4050171, "lon": 2.1925921, "tags": {"amenity": "cafe", "name:en": "Honest greens"}}, {"type": "way", "id": 499392314, "nodes": [4906707988, 1307297614]}, {"type": "way", "id": 499392316, "nodes": [4582968963, 6516572963, 6516572964, 7044957955, 4534907393, 2187275712]}, {"type": "way", "id": 499392317, "nodes": [4906707996, 4734086768]}, {"type": "way", "id": 499392318, "nodes": [1307297614, 6451346360, 4906707990]}, {"type": "way", "id": 499392319, "nodes": [4906707996, 4906707987, 4906707988], "tags": {"barrier": "wall"}}, {"type": "way", "id": 499392321, "nodes": [1307297607, 6516563969, 6516563968, 6516563967, 420068865]}, {"type": "way", "id": 499392323, "nodes": [420068865, 2923421005, 420068862, 4582968963]}, {"type": "way", "id": 499392324, "nodes": [1307297613, 4534954334, 1307297607], "tags": {"barrier": "gate"}}, {"type": "way", "id": 499392327, "nodes": [4906707990, 2923421010, 2756677882, 1307297612, 6516563972, 6516563971, 6516563970, 1307297613]}, {"type": "way", "id": 499392329, "nodes": [2187275712, 6516572965, 4734086770, 4734086771, 4734086768]}, {"type": "way", "id": 655182341, "nodes": [6138906835, 6138906836, 5522265621, 6138906566, 6138906896, 6138906883, 6138906835], "tags": {"amenity": "bar", "building": "industrial", "building:levels": "2", "name": "Comtu bar"}}, {"type": "way", "id": 655221168, "nodes": [6139197977, 6139197978, 2292687549, 6139198749, 6139197909, 6139197910, 6139197953, 6139197911, 6139198732, 6139197981, 6139198736, 6139197908, 6139197977], "tags": {"amenity": "bar", "building": "industrial", "building:levels": "2", "building:levels:underground": "1", "name": "L'ovella negra Marina"}}, {"type": "relation", "id": 7323157, "members": [{"type": "way", "ref": 499392323, "role": "outer"}, {"type": "way", "ref": 499392321, "role": "outer"}, {"type": "way", "ref": 499392324, "role": "outer"}, {"type": "way", "ref": 499392327, "role": "outer"}, {"type": "way", "ref": 499392318, "role": "outer"}, {"type": "way", "ref": 499392314, "role": "outer"}, {"type": "way", "ref": 499392319, "role": "outer"}, {"type": "way", "ref": 499392317, "role": "outer"}, {"type": "way", "ref": 499392329, "role": "outer"}, {"type": "way", "ref": 499392316, "role": "outer"}], "tags": {"addr:city": "Barcelona", "addr:housenumber": "208", "addr:postcode": "08018", "addr:street": "Avinguda Diagonal", "name": "Gl\u00f2ries", "name:ca": "Gl\u00f2ries", "opening_hours": "Mo-Sa 10:00-22:00", "shop": "mall", "type": "multipolygon", "website": "http://lesglories.com/", "wheelchair": "yes", "wikidata": "Q16571897", "wikipedia": "es:Gl\u00f2ries (centro comercial)"}}]}