{"version": 0.6, "generator": "Overpass API 0.7.58.5 b0c4acbb", "osm3s": {"timestamp_osm_base": "2022-09-12T19:55:54Z", "copyright": "The data included in this document is from www.openstreetmap.org. The data is made available under ODbL."}, "elements": [{"type": "node", "id": 300051942, "lat": 41.8796732, "lon": -87.626422, "tags": {"addr:city": "Chicago", "addr:housenumber": "144", "addr:postcode": "60603", "addr:state": "IL", "addr:street": "South Wabash Avenue", "amenity": "fast_food", "brand": "McDonald's", "brand:wikidata": "Q38076", "brand:wikipedia": "en:McDonald's", "cuisine": "burger", "drive_through": "no", "name": "McDonald's", "takeaway": "yes", "website": "http://www.mcdonalds.com/"}}, {"type": "node", "id": 306737605, "lat": 41.8801359, "lon": -87.6279402, "tags": {"amenity": "fast_food", "brand": "Subway", "brand:wikidata": "Q244457", "brand:wikipedia": "en:Subway (restaurant)", "cuisine": "sandwich", "drive_through": "no", "name": "Subway", "takeaway": "yes"}}, {"type": "node", "id": 306737766, "lat": 41.880648, "lon": -87.626422, "tags": {"addr:city": "Chicago", "addr:housenumber": "35", "addr:postcode": "60603", "addr:state": "IL", "addr:street": "East Monroe Street", "amenity": "cafe", "brand": "Corner Bakery", "brand:wikidata": "Q5171598", "brand:wikipedia": "en:Corner Bakery Cafe", "cuisine": "coffee_shop", "name": "Corner Bakery", "phone": "+1-312-372-0072", "takeaway": "yes", "website": "https://www.cornerbakerycafe.com/"}}, {"type": "node", "id": 306743175, "lat": 41.8814867, "lon": -87.6264274, "tags": {"amenity": "restaurant", "name": "Ada's Famous Deli & Restaurant"}}, {"type": "node", "id": 306744471, "lat": 41.8843674, "lon": -87.626481, "tags": {"amenity": "cafe", "brand": "Starbucks", "brand:wikidata": "Q37158", "brand:wikipedia": "en:Starbucks", "cuisine": "coffee_shop", "name": "Starbucks", "official_name": "Starbucks Coffee", "takeaway": "yes"}}, {"type": "node", "id": 306744602, "lat": 41.8831644, "lon": -87.6263353, "tags": {"amenity": "cafe", "brand": "Starbucks", "brand:wikidata": "Q37158", "brand:wikipedia": "en:Starbucks", "cuisine": "coffee_shop", "name": "Starbucks", "official_name": "Starbucks Coffee", "takeaway": "yes"}}, {"type": "node", "id": 307455970, "lat": 41.8839093, "lon": -87.6259628, "tags": {"addr:city": "Chicago", "addr:country": "US", "addr:housenumber": "119", "addr:postcode": "60602", "addr:state": "IL", "addr:street": "North Wabash Avenue", "amenity": "fast_food", "brand": "McDonald's", "brand:wikidata": "Q38076", "brand:wikipedia": "en:McDonald's", "cuisine": "burger", "name": "McDonald's", "takeaway": "yes", "website": "http://www.mcdonalds.com/"}}, {"type": "node", "id": 318274413, "lat": 41.8822267, "lon": -87.6272156, "tags": {"amenity": "fast_food", "brand": "Jimmy John's", "brand:wikidata": "Q1689380", "brand:wikipedia": "en:Jimmy John's", "cuisine": "sandwich", "drive_through": "no", "name": "Jimmy John's", "official_name": "Jimmy John's Gourmet Sandwiches", "takeaway": "yes"}}, {"type": "node", "id": 347158474, "lat": 41.8859392, "lon": -87.6316738, "tags": {"amenity": "pub", "name": "Midtown Kitchen & Bar", "url": "http://www.restaurants-america.com/Midtown/Chicago.html"}}, {"type": "node", "id": 368064192, "lat": 41.879264, "lon": -87.6284211, "tags": {"addr:city": "Chicago", "addr:housenumber": "17", "addr:postcode": "60603", "addr:state": "IL", "addr:street": "West Adams Street", "amenity": "restaurant", "cuisine": "german", "ele": "182", "gnis:county_name": "Cook", "gnis:feature_id": "1825882", "gnis:import_uuid": "57871b70-0100-4405-bb30-88b2e001a944", "gnis:reviewed": "no", "name": "The Berghoff Restaurant", "opening_hours": "Mo-Fr 11:00-21:00; Sa 11:30-21:00", "phone": "+1-312-427-3170", "source": "USGS Geonames", "website": "https://www.theberghoff.com/", "wikidata": "Q7716549", "wikipedia": "en:The Berghoff (restaurant)"}}, {"type": "node", "id": 369915336, "lat": 41.8822271, "lon": -87.6274208, "tags": {"amenity": "fast_food", "name": "Garrett's Popcorn Shops"}}, {"type": "node", "id": 394818567, "lat": 41.8799893, "lon": -87.6295231, "tags": {"amenity": "cafe", "brand": "Corner Bakery", "brand:wikidata": "Q5171598", "brand:wikipedia": "en:Corner Bakery Cafe", "cuisine": "coffee_shop", "name": "Corner Bakery", "opening_hours": "Mo-Fr 6:30-17:30", "phone": "(312) 920-9100", "takeaway": "yes", "url": "http://www.cornerbakerycafe.com", "website": "https://www.cornerbakerycafe.com/"}}, {"type": "node", "id": 529966338, "lat": 41.8854777, "lon": -87.6342975, "tags": {"addr:city": "Chicago", "addr:housenumber": "205", "addr:postcode": "60606", "addr:state": "IL", "addr:street": "West Lake Street", "amenity": "bar", "name": "Monk\u2019s Pub", "phone": "+1-312-357-6665", "website": "https://www.monkspubchicago.com/"}}, {"type": "node", "id": 826677919, "lat": 41.8833714, "lon": -87.6335413, "tags": {"addr:city": "Chicago", "addr:housenumber": "180", "addr:postcode": "60602", "addr:state": "IL", "addr:street": "West Washington Street", "name": "Hannah's Bretzel", "opening_hours": "Mo-Fr 07:00-16:00", "phone": "+1-312-621-1111", "shop": "bakery", "website": "https://www.hannahsbretzel.com/"}}, {"type": "node", "id": 872697084, "lat": 41.8775142, "lon": -87.6286154}, {"type": "node", "id": 872697087, "lat": 41.8775162, "lon": -87.6282707}, {"type": "node", "id": 873087094, "lat": 41.8774321, "lon": -87.6286141}, {"type": "node", "id": 873087096, "lat": 41.8774341, "lon": -87.6282695}, {"type": "node", "id": 1299823014, "lat": 41.8833419, "lon": -87.6263936}, {"type": "node", "id": 1299823028, "lat": 41.8833266, "lon": -87.627666, "tags": {"amenity": "clock", "date": "no", "display": "analog", "support": "wall_mounted", "visibility": "area"}}, {"type": "node", "id": 1299823036, "lat": 41.8844001, "lon": -87.6264166}, {"type": "node", "id": 1299823045, "lat": 41.8843847, "lon": -87.6276888, "tags": {"amenity": "clock", "date": "no", "display": "analog", "support": "wall_mounted", "visibility": "area"}}, {"type": "node", "id": 1308260687, "lat": 41.8843548, "lon": -87.625863, "tags": {"addr:city": "Chicago", "addr:housenumber": "53", "addr:postcode": "60601", "addr:state": "IL", "addr:street": "East Randolph Street", "amenity": "cafe", "cuisine": "coffee_shop", "name": "Intelligentsia Coffee", "phone": "+1-312-920-9332", "website": "https://www.intelligentsiacoffee.com/millennium-park-coffeebar", "wheelchair": "yes", "wikidata": "Q16997104", "wikipedia": "en:Intelligentsia Coffee & Tea"}}, {"type": "node", "id": 1376828187, "lat": 41.8823984, "lon": -87.6267731, "tags": {"alt_name": "Burlington Coat Factory", "brand": "Burlington", "brand:wikidata": "Q4999220", "brand:wikipedia": "en:Burlington (department store)", "name": "Burlington", "shop": "department_store"}}, {"type": "node", "id": 1388390121, "lat": 41.8801089, "lon": -87.6301844}, {"type": "node", "id": 1388390184, "lat": 41.8806167, "lon": -87.6301987}, {"type": "node", "id": 1448920554, "lat": 41.8795688, "lon": -87.6288735, "tags": {"amenity": "cafe", "cuisine": "sandwich", "name": "Hannah's Bretzel"}}, {"type": "node", "id": 1448920555, "lat": 41.8792924, "lon": -87.6316319, "tags": {"amenity": "fast_food", "brand": "Potbelly", "brand:wikidata": "Q7234777", "brand:wikipedia": "en:Potbelly Sandwich Shop", "cuisine": "sandwich", "name": "Potbelly", "official_name": "Potbelly Sandwich Works", "takeaway": "yes"}}, {"type": "node", "id": 1448920557, "lat": 41.879552, "lon": -87.6297946, "tags": {"amenity": "restaurant", "cuisine": "diner", "name": "Marquette Inn"}}, {"type": "node", "id": 1448920558, "lat": 41.8793064, "lon": -87.6309801, "tags": {"amenity": "cafe", "brand": "Starbucks", "brand:wikidata": "Q37158", "brand:wikipedia": "en:Starbucks", "cuisine": "coffee_shop", "name": "Starbucks", "official_name": "Starbucks Coffee", "takeaway": "yes"}}, {"type": "node", "id": 1591485484, "lat": 41.8795638, "lon": -87.6409175, "tags": {"amenity": "fast_food", "brand": "Jimmy John's", "brand:wikidata": "Q1689380", "brand:wikipedia": "en:Jimmy John's", "cuisine": "sandwich", "drive_through": "no", "name": "Jimmy John's", "official_name": "Jimmy John's Gourmet Sandwiches", "takeaway": "yes"}}, {"type": "node", "id": 1606229363, "lat": 41.8853167, "lon": -87.6343596}, {"type": "node", "id": 1606229365, "lat": 41.8851623, "lon": -87.634445}, {"type": "node", "id": 1606229381, "lat": 41.8856236, "lon": -87.6344566}, {"type": "node", "id": 1606229390, "lat": 41.8851635, "lon": -87.6343557}, {"type": "node", "id": 1606229404, "lat": 41.8856248, "lon": -87.6343673}, {"type": "node", "id": 1606983510, "lat": 41.8801106, "lon": -87.6300759}, {"type": "node", "id": 1606983511, "lat": 41.880142, "lon": -87.6300768}, {"type": "node", "id": 1606983512, "lat": 41.8806184, "lon": -87.6300903}, {"type": "node", "id": 1609576464, "lat": 41.8833405, "lon": -87.6265033, "tags": {"entrance": "yes"}}, {"type": "node", "id": 1612636747, "lat": 41.8811917, "lon": -87.6272512}, {"type": "node", "id": 1612636775, "lat": 41.8810857, "lon": -87.6263381}, {"type": "node", "id": 1612636786, "lat": 41.8812031, "lon": -87.6263407}, {"type": "node", "id": 1612636787, "lat": 41.8811947, "lon": -87.6270076}, {"type": "node", "id": 1612636792, "lat": 41.8810744, "lon": -87.6272486}, {"type": "node", "id": 1617623482, "lat": 41.884911, "lon": -87.6358076}, {"type": "node", "id": 1617623569, "lat": 41.8847957, "lon": -87.6358054}, {"type": "node", "id": 1617623583, "lat": 41.8847983, "lon": -87.6355427}, {"type": "node", "id": 1617623591, "lat": 41.8849137, "lon": -87.6355449}, {"type": "node", "id": 1618326382, "lat": 41.8792543, "lon": -87.631267, "tags": {"addr:city": "Chicago", "addr:housenumber": "111", "addr:postcode": "60603", "addr:state": "IL", "addr:street": "West Adams Street", "amenity": "pub", "email": "gmchicago@elephantcastle.com", "name": "Elephant & Castle - Chicago Adams St", "phone": "+1-312-236-6656", "website": "https://elephantcastle.com/chicago_adams"}}, {"type": "node", "id": 1618326383, "lat": 41.8766767, "lon": -87.6347962, "tags": {"addr:city": "Chicago", "addr:housenumber": "235", "addr:postcode": "60607", "addr:state": "IL", "addr:street": "West Van Buren Street", "name": "South Loop Market", "opening_hours": "Mo-Th 07:00-20:00; Fr 07:00-23:00; Sa 09:00-23:00; Su 09:00-21:00", "shop": "convenience"}}, {"type": "node", "id": 1619740982, "lat": 41.8803651, "lon": -87.6408924, "tags": {"alt_name": "Chipotle Mexican Grill", "amenity": "fast_food", "brand": "Chipotle", "brand:wikidata": "Q465751", "brand:wikipedia": "en:Chipotle Mexican Grill", "contact:website": "https://chipotle.com/", "cuisine": "mexican", "drive_through": "no", "name": "Chipotle", "official_name": "Chipotle Mexican Grill", "takeaway": "yes"}}, {"type": "node", "id": 1619741018, "lat": 41.8807076, "lon": -87.6417108, "tags": {"amenity": "restaurant", "cuisine": "thai", "name": "MyThai Takumi"}}, {"type": "node", "id": 1619741021, "lat": 41.8782768, "lon": -87.6384828, "tags": {"amenity": "cafe", "brand": "Corner Bakery", "brand:wikidata": "Q5171598", "brand:wikipedia": "en:Corner Bakery Cafe", "cuisine": "coffee_shop", "name": "Corner Bakery", "takeaway": "yes"}}, {"type": "node", "id": 1619741182, "lat": 41.8790092, "lon": -87.6429075}, {"type": "node", "id": 1619741183, "lat": 41.8790117, "lon": -87.6427212}, {"type": "node", "id": 1619741205, "lat": 41.8791903, "lon": -87.6429118}, {"type": "node", "id": 1619741206, "lat": 41.8791928, "lon": -87.6427255}, {"type": "node", "id": 1630387514, "lat": 41.8795194, "lon": -87.6335307, "tags": {"addr:city": "Chicago", "addr:country": "US", "addr:housenumber": "186", "addr:postcode": "60603", "addr:state": "IL", "addr:street": "West Adams Street", "amenity": "fast_food", "brand": "McDonald's", "brand:wikidata": "Q38076", "brand:wikipedia": "en:McDonald's", "cuisine": "burger", "name": "McDonald's", "takeaway": "yes"}}, {"type": "node", "id": 1633461351, "lat": 41.885569, "lon": -87.6285702, "tags": {"alt_name": "Dunkin' Donuts", "amenity": "fast_food", "brand": "Dunkin'", "brand:wikidata": "Q847743", "brand:wikipedia": "en:Dunkin' Donuts", "cuisine": "donut;coffee_shop", "name": "Dunkin'", "takeaway": "yes"}}, {"type": "node", "id": 1633461356, "lat": 41.8855763, "lon": -87.6293374, "tags": {"amenity": "restaurant", "brand": "Jason's Deli", "brand:wikidata": "Q16997641", "brand:wikipedia": "en:Jason's Deli", "cuisine": "sandwich", "name": "Jason's Deli"}}, {"type": "node", "id": 1633461357, "lat": 41.8855744, "lon": -87.6282086, "tags": {"amenity": "fast_food", "brand": "Potbelly", "brand:wikidata": "Q7234777", "brand:wikipedia": "en:Potbelly Sandwich Shop", "cuisine": "sandwich", "name": "Potbelly", "official_name": "Potbelly Sandwich Works", "takeaway": "yes"}}, {"type": "node", "id": 1633461362, "lat": 41.8855841, "lon": -87.6291551, "tags": {"amenity": "fast_food", "brand": "Subway", "brand:wikidata": "Q244457", "brand:wikipedia": "en:Subway (restaurant)", "cuisine": "sandwich", "name": "Subway", "takeaway": "yes"}}, {"type": "node", "id": 1637342160, "lat": 41.8777074, "lon": -87.6421877}, {"type": "node", "id": 1637342162, "lat": 41.8779176, "lon": -87.6421921}, {"type": "node", "id": 1637342168, "lat": 41.8779192, "lon": -87.642046}, {"type": "node", "id": 1637342188, "lat": 41.8777093, "lon": -87.642042}, {"type": "node", "id": 1639964356, "lat": 41.8795276, "lon": -87.6360661, "tags": {"brand": "7-Eleven", "brand:wikidata": "Q259340", "brand:wikipedia": "en:7-Eleven", "name": "7-Eleven", "opening_hours": "24/7", "shop": "convenience"}}, {"type": "node", "id": 1699206943, "lat": 41.8858826, "lon": -87.6432268, "tags": {"amenity": "fast_food", "brand": "Jimmy John's", "brand:wikidata": "Q1689380", "brand:wikipedia": "en:Jimmy John's", "cuisine": "sandwich", "name": "Jimmy John's", "official_name": "Jimmy John's Gourmet Sandwiches", "takeaway": "yes"}}, {"type": "node", "id": 1699207283, "lat": 41.8855339, "lon": -87.6429355, "tags": {"addr:city": "Chicago", "addr:housenumber": "605", "addr:postcode": "60661", "addr:state": "IL", "addr:street": "West Lake Street", "amenity": "restaurant", "cuisine": "thai;asian", "delivery": "yes", "name": "Bang Chop Thai Kitchen", "opening_hours": "Mo-Fr 11:00-20:30", "phone": "+1-312-285-2800", "website": "http://www.bangchopthaikitchenchicago.com/"}}, {"type": "node", "id": 1699207284, "lat": 41.8793973, "lon": -87.640942, "tags": {"amenity": "cafe", "brand": "Starbucks", "brand:wikidata": "Q37158", "brand:wikipedia": "en:Starbucks", "cuisine": "coffee_shop", "name": "Starbucks", "official_name": "Starbucks Coffee", "takeaway": "yes"}}, {"type": "node", "id": 1699221013, "lat": 41.8799272, "lon": -87.6365744, "tags": {"amenity": "fast_food", "brand": "Au Bon Pain", "brand:wikidata": "Q4818942", "brand:wikipedia": "en:Au Bon Pain", "cuisine": "sandwich", "name": "Au Bon Pain", "takeaway": "yes"}}, {"type": "node", "id": 1699221028, "lat": 41.8792604, "lon": -87.6339544, "tags": {"alt_name": "Dunkin' Donuts", "amenity": "fast_food", "brand": "Dunkin'", "brand:wikidata": "Q847743", "brand:wikipedia": "en:Dunkin' Donuts", "cuisine": "donut;coffee_shop", "name": "Dunkin'", "takeaway": "yes"}}, {"type": "node", "id": 1699221031, "lat": 41.8801234, "lon": -87.6376582, "tags": {"amenity": "restaurant", "name": "Pazzo's"}}, {"type": "node", "id": 1699222239, "lat": 41.8792604, "lon": -87.634667, "tags": {"amenity": "fast_food", "brand": "Sbarro", "brand:wikidata": "Q2589409", "brand:wikipedia": "en:Sbarro", "cuisine": "pizza", "name": "Sbarro", "takeaway": "yes"}}, {"type": "node", "id": 1699222242, "lat": 41.8795166, "lon": -87.6340258, "tags": {"amenity": "cafe", "brand": "Starbucks", "brand:wikidata": "Q37158", "brand:wikipedia": "en:Starbucks", "cuisine": "coffee_shop", "name": "Starbucks", "official_name": "Starbucks Coffee", "takeaway": "yes"}}, {"type": "node", "id": 1699222276, "lat": 41.8792731, "lon": -87.63421, "tags": {"amenity": "fast_food", "brand": "Subway", "brand:wikidata": "Q244457", "brand:wikipedia": "en:Subway (restaurant)", "cuisine": "sandwich", "name": "Subway", "takeaway": "yes"}}, {"type": "node", "id": 1740872220, "lat": 41.8778986, "lon": -87.6414685, "tags": {"alt_name": "Dunkin' Donuts", "amenity": "fast_food", "brand": "Dunkin'", "brand:wikidata": "Q847743", "brand:wikipedia": "en:Dunkin' Donuts", "cuisine": "donut;coffee_shop", "name": "Dunkin'", "takeaway": "yes"}}, {"type": "node", "id": 1951914729, "lat": 41.8779791, "lon": -87.634824, "tags": {"alt_name": "Dunkin' Donuts", "amenity": "fast_food", "brand": "Dunkin'", "brand:wikidata": "Q847743", "brand:wikipedia": "en:Dunkin' Donuts", "cuisine": "donut;coffee_shop", "name": "Dunkin'", "source": "survey", "takeaway": "yes"}}, {"type": "node", "id": 1951914730, "lat": 41.8779796, "lon": -87.6347084, "tags": {"amenity": "restaurant", "brand": "Giordano's Pizzeria", "brand:wikidata": "Q5563393", "brand:wikipedia": "en:Giordano's", "cuisine": "pizza", "name": "Giordano's Pizzeria", "name:ko": "\uc9c0\uc624\ub2e4\ub178\uc2a4", "opening_hours": "Mo-Th 11:00-22:00;Fr-Sa 11:00-23:00;Su 11:00-22:00", "phone": "(312) 583-9400", "source": "survey", "website": "https://giordanos.com/locations/downtown-central-loop"}}, {"type": "node", "id": 1951914734, "lat": 41.8782356, "lon": -87.6344846, "tags": {"amenity": "fast_food", "brand": "Jimmy John's", "brand:wikidata": "Q1689380", "brand:wikipedia": "en:Jimmy John's", "cuisine": "sandwich", "drive_through": "no", "name": "Jimmy John's", "official_name": "Jimmy John's Gourmet Sandwiches", "source": "survey", "takeaway": "yes"}}, {"type": "node", "id": 2025289445, "lat": 41.8802947, "lon": -87.6296015, "tags": {"amenity": "fast_food", "brand": "Potbelly", "brand:wikidata": "Q7234777", "brand:wikipedia": "en:Potbelly Sandwich Shop", "cuisine": "sandwich", "name": "Potbelly", "official_name": "Potbelly Sandwich Works", "opening_hours": "Mo-Fr 06:30-19:00; Sa 11:00-16:00", "takeaway": "yes"}}, {"type": "node", "id": 2025289449, "lat": 41.8788549, "lon": -87.6309801, "tags": {"amenity": "fast_food", "diet:vegan": "yes", "diet:vegetarian": "only", "name": "Native Foods", "opening_hours": "Mo-Sa 10:30-21:00; Su 11:00-19:00"}}, {"type": "node", "id": 2203577184, "lat": 41.8854003, "lon": -87.6420122}, {"type": "node", "id": 2203577186, "lat": 41.8854, "lon": -87.6419346}, {"type": "node", "id": 2203577351, "lat": 41.8856138, "lon": -87.642021}, {"type": "node", "id": 2203577353, "lat": 41.8856152, "lon": -87.6419433}, {"type": "node", "id": 2262361242, "lat": 41.8853976, "lon": -87.6355645, "tags": {"addr:housenumber": "176", "addr:postcode": "60606", "addr:street": "North Franklin Street", "amenity": "restaurant", "cuisine": "italian", "name": "Taza", "source": "(312) 201-9885", "website": "http://www.tazacafechicago.com/"}}, {"type": "node", "id": 2279973573, "lat": 41.8846177, "lon": -87.6341513, "tags": {"addr:city": "Chicago", "addr:housenumber": "200", "addr:postcode": "60606", "addr:state": "IL", "addr:street": "West Randolph Street", "amenity": "fast_food", "cuisine": "mediterranean", "name": "Roti", "opening_hours": "Mo-Fr 10:00-20:00; Sa 11:00-16:00", "phone": "312-332-6013", "website": "https://roti.com/locations/200-w-randolph-chicago-illinois-60606/"}}, {"type": "node", "id": 2308952640, "lat": 41.8798703, "lon": -87.6264312, "tags": {"addr:city": "Chicago", "addr:housenumber": "134", "addr:postcode": "60603", "addr:state": "IL", "addr:street": "South Wabash Avenue", "amenity": "restaurant", "contact:website": "http://millerspub.com", "name": "Miller\u2019s Pub", "phone": "+1-312-263-4988", "website": "http://millerspub.com/"}}, {"type": "node", "id": 2311635022, "lat": 41.8794989, "lon": -87.6376327, "tags": {"amenity": "fast_food", "brand": "Potbelly", "brand:wikidata": "Q7234777", "brand:wikipedia": "en:Potbelly Sandwich Shop", "cuisine": "sandwich", "name": "Potbelly", "official_name": "Potbelly Sandwich Works", "opening_hours": "Sa-Su 11:00-17:00; Mo-Fr 06:30-19:00", "takeaway": "yes"}}, {"type": "node", "id": 2311635023, "lat": 41.8790753, "lon": -87.6364216, "tags": {"amenity": "cafe", "brand": "Starbucks", "brand:wikidata": "Q37158", "brand:wikipedia": "en:Starbucks", "cuisine": "coffee_shop", "name": "Starbucks", "official_name": "Starbucks Coffee", "opening_hours": "Mo-Fr 05:30-18:00", "takeaway": "yes"}}, {"type": "node", "id": 2339782553, "lat": 41.8817614, "lon": -87.6273497, "tags": {"addr:city": "Chicago", "addr:housenumber": "1", "addr:postcode": "60603", "addr:state": "IL", "addr:street": "South State Street", "brand": "Target", "brand:wikidata": "Q1046951", "brand:wikipedia": "en:Target Corporation", "name": "Target", "opening_hours": "Mo-Fr 07:00-22:00; Sa 08:00-22:00; Su 08:00-20:00", "phone": "+13122792133", "shop": "department_store", "website": "https://www.target.com/sl/chicago-state-st-/2799"}}, {"type": "node", "id": 2341231948, "lat": 41.8818873, "lon": -87.6268029, "tags": {"brand": "7-Eleven", "brand:wikidata": "Q259340", "brand:wikipedia": "en:7-Eleven", "name": "7-Eleven", "shop": "convenience"}}, {"type": "node", "id": 2360490443, "lat": 41.877999, "lon": -87.6316454, "tags": {"addr:city": "Chicago", "addr:country": "US", "addr:housenumber": "111", "addr:postcode": "60604", "addr:state": "IL", "addr:street": "West Jackson Boulevard", "amenity": "fast_food", "brand": "McDonald's", "brand:wikidata": "Q38076", "brand:wikipedia": "en:McDonald's", "cuisine": "burger", "drive_through": "no", "name": "McDonald's", "takeaway": "yes", "website": "http://www.mcdonalds.com/"}}, {"type": "node", "id": 2360490444, "lat": 41.8830526, "lon": -87.6366036, "tags": {"addr:city": "Chicago", "addr:country": "US", "addr:housenumber": "29", "addr:postcode": "60606", "addr:state": "IL", "addr:street": "North Wacker Drive", "amenity": "fast_food", "brand": "McDonald's", "brand:wikidata": "Q38076", "brand:wikipedia": "en:McDonald's", "cuisine": "burger", "name": "McDonald's", "takeaway": "yes", "website": "http://www.mcdonalds.com/"}}, {"type": "node", "id": 2361008458, "lat": 41.8860206, "lon": -87.6359332, "tags": {"addr:city": "Chicago", "addr:housenumber": "333", "addr:postcode": "60606", "addr:state": "IL", "addr:street": "West Wacker Drive", "amenity": "restaurant", "name": "Goodwin's"}}, {"type": "node", "id": 2391120253, "lat": 41.8838548, "lon": -87.6276774, "tags": {"entrance": "yes"}}, {"type": "node", "id": 2401014861, "lat": 41.8856113, "lon": -87.6258675, "tags": {"addr:city": "Chicago", "addr:housenumber": "53", "addr:postcode": "60601", "addr:state": "IL", "addr:street": "East Lake Street", "amenity": "restaurant", "name": "Pastoral", "opening_hours": "Mo-Fr 10:30-20:00; Sa 11:00-18:00", "phone": "+1-312-658-1250", "website": "https://www.pastoralartisan.com/"}}, {"type": "node", "id": 2401014862, "lat": 41.885893, "lon": -87.6258456, "tags": {"addr:city": "Chicago", "addr:housenumber": "58", "addr:postcode": "60601", "addr:state": "IL", "addr:street": "East Lake Street", "brand": "7-Eleven", "brand:wikidata": "Q259340", "brand:wikipedia": "en:7-Eleven", "name": "7-Eleven", "shop": "convenience"}}, {"type": "node", "id": 2423436407, "lat": 41.8810621, "lon": -87.630568, "tags": {"addr:city": "Chicago", "addr:housenumber": "47", "addr:postcode": "60603", "addr:state": "IL", "addr:street": "South Clark Street", "amenity": "restaurant", "brand": "Noodles & Company", "brand:wikidata": "Q7049673", "brand:wikipedia": "en:Noodles & Company", "cuisine": "pasta", "name": "Noodles & Company", "website": "https://www.noodles.com/"}}, {"type": "node", "id": 2440004168, "lat": 41.8841787, "lon": -87.6264118, "tags": {"entrance": "yes"}}, {"type": "node", "id": 2446587648, "lat": 41.8846498, "lon": -87.6292278, "tags": {"amenity": "fast_food", "brand": "McDonald's", "brand:wikidata": "Q38076", "brand:wikipedia": "en:McDonald's", "cuisine": "burger", "name": "McDonald's", "takeaway": "yes", "website": "http://www.mcdonalds.com/"}}, {"type": "node", "id": 2446587867, "lat": 41.880571, "lon": -87.6285479, "tags": {"amenity": "restaurant", "name": "Grill Room"}}, {"type": "node", "id": 2478422402, "lat": 41.8849897, "lon": -87.6355762, "tags": {"amenity": "restaurant", "cuisine": "sandwich", "name": "Eppy's Deli"}}, {"type": "node", "id": 2478422403, "lat": 41.8854481, "lon": -87.635567, "tags": {"addr:housenumber": "178", "addr:street": "North Franklin Street", "amenity": "restaurant", "cuisine": "mexican", "name": "La Cocina"}}, {"type": "node", "id": 2478422408, "lat": 41.8855261, "lon": -87.635568, "tags": {"addr:city": "Chicago", "addr:housenumber": "180", "addr:postcode": "60606", "addr:state": "IL", "addr:street": "North Franklin Street", "brand": "7-Eleven", "brand:wikidata": "Q259340", "brand:wikipedia": "en:7-Eleven", "name": "7-Eleven", "shop": "convenience"}}, {"type": "node", "id": 2481231870, "lat": 41.8842556, "lon": -87.6351324, "tags": {"amenity": "fast_food", "brand": "Potbelly", "brand:wikidata": "Q7234777", "brand:wikipedia": "en:Potbelly Sandwich Shop", "cuisine": "sandwich", "name": "Potbelly", "official_name": "Potbelly Sandwich Works", "takeaway": "yes"}}, {"type": "node", "id": 2481236973, "lat": 41.8817605, "lon": -87.6350799, "tags": {"addr:city": "Chicago", "addr:housenumber": "1", "addr:postcode": "60606", "addr:state": "IL", "addr:street": "South Franklin Street", "amenity": "cafe", "name": "Argo Tea Cafe", "website": "https://www.argotea.com/"}}, {"type": "node", "id": 2481236974, "lat": 41.8811814, "lon": -87.6350583, "tags": {"alt_name": "Chipotle Mexican Grill", "amenity": "fast_food", "brand": "Chipotle", "brand:wikidata": "Q465751", "brand:wikipedia": "en:Chipotle Mexican Grill", "contact:website": "https://chipotle.com/", "cuisine": "mexican", "name": "Chipotle", "official_name": "Chipotle Mexican Grill", "takeaway": "yes"}}, {"type": "node", "id": 2481236977, "lat": 41.8814763, "lon": -87.6350605, "tags": {"amenity": "restaurant", "brand": "Noodles & Company", "brand:wikidata": "Q7049673", "brand:wikipedia": "en:Noodles & Company", "cuisine": "pasta", "name": "Noodles & Company"}}, {"type": "node", "id": 2481236983, "lat": 41.8817746, "lon": -87.6355264, "tags": {"amenity": "cafe", "brand": "Starbucks", "brand:wikidata": "Q37158", "brand:wikipedia": "en:Starbucks", "cuisine": "coffee_shop", "name": "Starbucks", "official_name": "Starbucks Coffee", "takeaway": "yes", "website": "https://www.starbucks.com/"}}, {"type": "node", "id": 2485000318, "lat": 41.8849612, "lon": -87.636654, "tags": {"amenity": "restaurant", "name": "Primebar"}}, {"type": "node", "id": 2485000319, "lat": 41.8846116, "lon": -87.6373395, "tags": {"amenity": "cafe", "brand": "Starbucks", "brand:wikidata": "Q37158", "brand:wikipedia": "en:Starbucks", "cuisine": "coffee_shop", "name": "Starbucks", "official_name": "Starbucks Coffee", "takeaway": "yes"}}, {"type": "node", "id": 2485002533, "lat": 41.8827411, "lon": -87.6365963, "tags": {"amenity": "restaurant", "name": "Taco Fresco"}}, {"type": "node", "id": 2485002923, "lat": 41.8804491, "lon": -87.6377508, "tags": {"amenity": "bar", "name": "South Branch"}}, {"type": "node", "id": 2485002926, "lat": 41.8804904, "lon": -87.6375454, "tags": {"amenity": "cafe", "brand": "Starbucks", "brand:wikidata": "Q37158", "brand:wikipedia": "en:Starbucks", "cuisine": "coffee_shop", "name": "Starbucks", "official_name": "Starbucks Coffee", "takeaway": "yes"}}, {"type": "node", "id": 2507409373, "lat": 41.8806717, "lon": -87.6266391, "tags": {"amenity": "restaurant", "brand": "Freshii", "brand:wikidata": "Q5503051", "brand:wikipedia": "en:Freshii", "cuisine": "salad", "name": "Freshii"}}, {"type": "node", "id": 2507409438, "lat": 41.8796216, "lon": -87.6268564, "tags": {"amenity": "fast_food", "name": "Jimmy's Gyros & Grill"}}, {"type": "node", "id": 2567367898, "lat": 41.8809111, "lon": -87.6266658, "tags": {"addr:city": "Chicago", "addr:country": "US", "addr:housenumber": "44", "addr:postcode": "60603", "addr:state": "IL", "addr:street": "South Wabash Avenue", "amenity": "restaurant", "brand": "Vapiano", "brand:wikidata": "Q506252", "brand:wikipedia": "en:Vapiano", "cuisine": "italian", "entrance": "yes", "name": "Vapiano"}}, {"type": "node", "id": 2570892815, "lat": 41.8858431, "lon": -87.6411361, "tags": {"addr:city": "Chicago", "addr:housenumber": "201", "addr:postcode": "60661", "addr:state": "IL", "addr:street": "North Clinton Street", "amenity": "pub", "name": "New Line Tavern", "opening_hours": "Mo-Su 10:30-02:00", "phone": "+1-312-212-5463", "website": "https://www.newlinetavern.com/"}}, {"type": "node", "id": 2570892816, "lat": 41.8859048, "lon": -87.6430854, "tags": {"amenity": "cafe", "brand": "Starbucks", "brand:wikidata": "Q37158", "brand:wikipedia": "en:Starbucks", "cuisine": "coffee_shop", "name": "Starbucks", "official_name": "Starbucks Coffee", "takeaway": "yes"}}, {"type": "node", "id": 2578978130, "lat": 41.8847334, "lon": -87.6297328, "tags": {"addr:city": "Chicago", "addr:country": "US", "addr:housenumber": "150", "addr:postcode": "60601", "addr:state": "IL", "addr:street": "North Dearborn Street", "amenity": "restaurant", "cuisine": "italian", "name": "Petterino's", "phone": "+1-312-422-0150", "website": "http://www.petterinos.com/"}}, {"type": "node", "id": 2623048771, "lat": 41.8858688, "lon": -87.6308044, "tags": {"amenity": "fast_food", "brand": "McDonald's", "brand:wikidata": "Q38076", "brand:wikipedia": "en:McDonald's", "cuisine": "burger", "name": "McDonald's", "takeaway": "yes", "website": "http://www.mcdonalds.com/"}}, {"type": "node", "id": 2670169972, "lat": 41.8817104, "lon": -87.6414064, "tags": {"amenity": "fast_food", "brand": "Potbelly", "brand:wikidata": "Q7234777", "brand:wikipedia": "en:Potbelly Sandwich Shop", "cuisine": "sandwich", "name": "Potbelly", "official_name": "Potbelly Sandwich Works", "takeaway": "yes"}}, {"type": "node", "id": 2670170001, "lat": 41.8825612, "lon": -87.6399905, "tags": {"amenity": "fast_food", "brand": "Panda Express", "brand:wikidata": "Q1358690", "brand:wikipedia": "en:Panda Express", "cuisine": "chinese", "level": "0", "name": "Panda Express", "takeaway": "yes"}}, {"type": "node", "id": 2670170013, "lat": 41.8821639, "lon": -87.6399799, "tags": {"amenity": "restaurant", "cuisine": "thai", "name": "Thai Urban Kitchen", "website": "http://www.thaiurbankitchen.com/"}}, {"type": "node", "id": 2670170030, "lat": 41.8823865, "lon": -87.6406478, "tags": {"amenity": "bar", "level": "1", "name": "Chicago News Room"}}, {"type": "node", "id": 2670208443, "lat": 41.8855778, "lon": -87.6260628, "tags": {"addr:city": "Chicago", "addr:housenumber": "185", "addr:postcode": "60601", "addr:state": "IL", "addr:street": "North Wabash Avenue", "amenity": "pub", "name": "Elephant & Castle", "opening_hours": "11:00-02:00", "phone": "+1-312-345-1710", "website": "https://www.elephantcastle.com/chicago_wabash"}}, {"type": "node", "id": 2778766654, "lat": 41.8793767, "lon": -87.6263838, "tags": {"brand": "7-Eleven", "brand:wikidata": "Q259340", "brand:wikipedia": "en:7-Eleven", "name": "7-Eleven", "shop": "convenience"}}, {"type": "node", "id": 2819072965, "lat": 41.885893, "lon": -87.6257502, "tags": {"addr:city": "Chicago", "addr:housenumber": "60", "addr:postcode": "60601", "addr:state": "IL", "addr:street": "East Lake Street", "amenity": "fast_food", "cuisine": "burger", "name": "Billy Goat Tavern", "phone": "+1-312-346-5620", "website": "https://www.billygoattavern.com/locations/michigan/", "wikidata": "Q2903638", "wikipedia": "en:Billy Goat Tavern"}}, {"type": "node", "id": 2819072967, "lat": 41.8856097, "lon": -87.626962, "tags": {"alt_name": "Dunkin' Donuts", "amenity": "fast_food", "brand": "Dunkin'", "brand:wikidata": "Q847743", "brand:wikipedia": "en:Dunkin' Donuts", "cuisine": "donut;coffee_shop", "name": "Dunkin'", "takeaway": "yes"}}, {"type": "node", "id": 2819115999, "lat": 41.8850025, "lon": -87.6265221, "tags": {"addr:city": "Chicago", "addr:housenumber": "166", "addr:postcode": "60601", "addr:state": "IL", "addr:street": "North Wabash Avenue", "amenity": "fast_food", "brand": "Subway", "brand:wikidata": "Q244457", "brand:wikipedia": "en:Subway (restaurant)", "cuisine": "sandwich", "drive_through": "no", "name": "Subway", "takeaway": "yes"}}, {"type": "node", "id": 2819117707, "lat": 41.8846456, "lon": -87.627064, "tags": {"amenity": "fast_food", "cuisine": "hot_dog", "name": "America's Dog"}}, {"type": "node", "id": 2819236837, "lat": 41.8837574, "lon": -87.6259612, "tags": {"addr:city": "Chicago", "addr:housenumber": "115", "addr:postcode": "60602", "addr:state": "IL", "addr:street": "North Wabash Avenue", "name": "Sugar Bliss Cake Boutique", "phone": "+1-312-845-9669", "shop": "bakery", "website": "https://sugarblisscakes.com/"}}, {"type": "node", "id": 2819241298, "lat": 41.8827141, "lon": -87.6257155, "tags": {"addr:city": "Chicago", "addr:housenumber": "21", "addr:postcode": "60602", "addr:state": "IL", "addr:street": "North Wabash Avenue", "amenity": "restaurant", "cuisine": "mediterranean", "name": "Oasis Cafe", "phone": "+1-312-443-9534"}}, {"type": "node", "id": 2819245978, "lat": 41.8830642, "lon": -87.6264632, "tags": {"amenity": "cafe", "brand": "Starbucks", "brand:wikidata": "Q37158", "brand:wikipedia": "en:Starbucks", "cuisine": "coffee_shop", "name": "Starbucks", "official_name": "Starbucks Coffee", "takeaway": "yes"}}, {"type": "node", "id": 2819245983, "lat": 41.8823951, "lon": -87.6271142, "tags": {"brand": "TJ Maxx", "brand:wikidata": "Q10860683", "brand:wikipedia": "en:TJ Maxx", "name": "TJ Maxx", "shop": "department_store"}}, {"type": "node", "id": 2819258499, "lat": 41.8823365, "lon": -87.6264727, "tags": {"alt_name": "Dunkin' Donuts", "amenity": "fast_food", "brand": "Dunkin'", "brand:wikidata": "Q847743", "brand:wikipedia": "en:Dunkin' Donuts", "cuisine": "donut;coffee_shop", "name": "Dunkin'", "takeaway": "yes"}}, {"type": "node", "id": 2819262301, "lat": 41.882685, "lon": -87.6258973, "tags": {"addr:city": "Chicago", "addr:housenumber": "17", "addr:postcode": "60602", "addr:state": "IL", "addr:street": "North Wabash Avenue", "addr:unit": "2nd", "amenity": "pub", "name": "The Row Tavern", "opening_hours": "Su-We 11:00-22:00; Th-Sa 11:00-23:00", "phone": "+1 (312) 269-5580", "website": "https://therowtavern.com"}}, {"type": "node", "id": 2819285777, "lat": 41.8819171, "lon": -87.6271271, "tags": {"amenity": "fast_food", "brand": "Panda Express", "brand:wikidata": "Q1358690", "brand:wikipedia": "en:Panda Express", "cuisine": "chinese", "drive_through": "no", "name": "Panda Express", "takeaway": "yes"}}, {"type": "node", "id": 2819285780, "lat": 41.8822307, "lon": -87.6270628, "tags": {"alt_name": "Chipotle Mexican Grill", "amenity": "fast_food", "brand": "Chipotle", "brand:wikidata": "Q465751", "brand:wikipedia": "en:Chipotle Mexican Grill", "contact:website": "https://chipotle.com/", "cuisine": "mexican", "drive_through": "no", "name": "Chipotle", "official_name": "Chipotle Mexican Grill", "takeaway": "yes"}}, {"type": "node", "id": 2819355816, "lat": 41.8830549, "lon": -87.6281296, "tags": {"addr:city": "Chicago", "addr:housenumber": "1", "addr:postcode": "60602", "addr:state": "IL", "addr:street": "West Washington Street", "amenity": "restaurant", "name": "Atwood", "phone": "+1-312-368-1900", "website": "https://atwoodrestaurant.com/"}}, {"type": "node", "id": 2819355821, "lat": 41.8841675, "lon": -87.6281965, "tags": {"check_date": "2022-08-08", "name": "Magnolia Bakery", "opening_hours": "11:00-20:00", "shop": "bakery"}}, {"type": "node", "id": 2819355822, "lat": 41.8856003, "lon": -87.6276936, "tags": {"addr:city": "Chicago", "addr:housenumber": "177", "addr:postcode": "60601", "addr:state": "IL", "addr:street": "North State Street", "amenity": "fast_food", "brand": "Chick-fil-A", "brand:wikidata": "Q491516", "brand:wikipedia": "en:Chick-fil-A", "cuisine": "chicken", "drive_through": "no", "name": "Chick-fil-A", "opening_hours": "Mo-Fr 06:30-22:00; Sa 08:00-22:00", "outdoor_seating": "yes", "smoking": "no", "takeaway": "yes", "wheelchair": "yes"}}, {"type": "node", "id": 2819355823, "lat": 41.8849374, "lon": -87.6282247, "tags": {"addr:city": "Chicago", "addr:postcode": "60601", "addr:state": "IL", "addr:street": "North State Street", "alt_name": "Jamba Juice", "amenity": "fast_food", "brand": "Jamba", "brand:wikidata": "Q3088784", "brand:wikipedia": "en:Jamba Juice", "cuisine": "juice", "name": "Jamba", "takeaway": "yes"}}, {"type": "node", "id": 2819355826, "lat": 41.8859644, "lon": -87.6282313, "tags": {"amenity": "restaurant", "cuisine": "asian", "name": "Wow Bao", "phone": "+13126580305"}}, {"type": "node", "id": 2819355828, "lat": 41.8858956, "lon": -87.6276814, "tags": {"amenity": "cafe", "name": "Caff\u00e8 Caf\u00e9"}}, {"type": "node", "id": 2819355829, "lat": 41.8859197, "lon": -87.6285904, "tags": {"amenity": "restaurant", "name": "Protein Bar"}}, {"type": "node", "id": 2882726861, "lat": 41.8821759, "lon": -87.639371, "tags": {"name": "Gateway", "shop": "convenience"}}, {"type": "node", "id": 2882728177, "lat": 41.8821779, "lon": -87.6392638, "tags": {"alt_name": "Dunkin' Donuts", "amenity": "fast_food", "brand": "Dunkin'", "brand:wikidata": "Q847743", "brand:wikipedia": "en:Dunkin' Donuts", "cuisine": "donut;coffee_shop", "name": "Dunkin'", "takeaway": "yes"}}, {"type": "node", "id": 2882728188, "lat": 41.8821839, "lon": -87.6391068, "tags": {"amenity": "cafe", "brand": "Starbucks", "brand:wikidata": "Q37158", "brand:wikipedia": "en:Starbucks", "cuisine": "coffee_shop", "name": "Starbucks", "official_name": "Starbucks Coffee", "takeaway": "yes"}}, {"type": "node", "id": 2882732990, "lat": 41.8821849, "lon": -87.6388681, "tags": {"amenity": "restaurant", "cuisine": "mediterranean", "name": "Mezza Mediterranean Grill"}}, {"type": "node", "id": 2882733946, "lat": 41.882126, "lon": -87.6392678, "tags": {"amenity": "fast_food", "brand": "Jimmy John's", "brand:wikidata": "Q1689380", "brand:wikipedia": "en:Jimmy John's", "cuisine": "sandwich", "name": "Jimmy John's", "official_name": "Jimmy John's Gourmet Sandwiches", "takeaway": "yes"}}, {"type": "node", "id": 2882748136, "lat": 41.8821339, "lon": -87.6409831, "tags": {"amenity": "restaurant", "cuisine": "breakfast", "name": "Yolk", "website": "https://eatyolk.com/"}}, {"type": "node", "id": 2882842870, "lat": 41.8824415, "lon": -87.6400577, "tags": {"brand": "Mrs. Fields", "brand:wikidata": "Q3866841", "brand:wikipedia": "en:Mrs. Fields", "name": "Mrs. Fields", "shop": "pastry"}}, {"type": "node", "id": 2882846303, "lat": 41.8821919, "lon": -87.6406384, "tags": {"amenity": "cafe", "brand": "Corner Bakery", "brand:wikidata": "Q5171598", "brand:wikipedia": "en:Corner Bakery Cafe", "cuisine": "coffee_shop", "level": "1", "name": "Corner Bakery", "takeaway": "yes"}}, {"type": "node", "id": 2882846601, "lat": 41.8822777, "lon": -87.6406411, "tags": {"alt_name": "Jamba Juice", "amenity": "fast_food", "brand": "Jamba", "brand:wikidata": "Q3088784", "brand:wikipedia": "en:Jamba Juice", "cuisine": "juice", "level": "1", "name": "Jamba", "takeaway": "yes"}}, {"type": "node", "id": 2882847202, "lat": 41.8825363, "lon": -87.6406531, "tags": {"brand": "Hudson", "brand:wikidata": "Q111534515", "brand:wikipedia": "en:Hudson Group", "level": "1", "name": "Hudson", "shop": "convenience"}}, {"type": "node", "id": 2882847601, "lat": 41.8821998, "lon": -87.6403407, "tags": {"brand": "Hudson", "brand:wikidata": "Q111534515", "brand:wikipedia": "en:Hudson Group", "level": "1", "name": "Hudson", "shop": "convenience"}}, {"type": "node", "id": 2900200554, "lat": 41.880888, "lon": -87.6305639, "tags": {"amenity": "fast_food", "brand": "McDonald's", "brand:wikidata": "Q38076", "brand:wikipedia": "en:McDonald's", "cuisine": "burger", "drive_through": "no", "name": "McDonald's", "takeaway": "yes", "website": "http://www.mcdonalds.com/"}}, {"type": "node", "id": 2953447607, "lat": 41.881839, "lon": -87.6313708, "tags": {"alt_name": "Dunkin' Donuts", "amenity": "fast_food", "brand": "Dunkin'", "brand:wikidata": "Q847743", "brand:wikipedia": "en:Dunkin' Donuts", "cuisine": "donut;coffee_shop", "name": "Dunkin'", "name:en": "Dunkin Donuts", "takeaway": "yes"}}, {"type": "node", "id": 2953447608, "lat": 41.8824604, "lon": -87.632178, "tags": {"amenity": "fast_food", "brand": "Potbelly", "brand:wikidata": "Q7234777", "brand:wikipedia": "en:Potbelly Sandwich Shop", "cuisine": "sandwich", "diet:vegetarian": "yes", "name": "Potbelly", "official_name": "Potbelly Sandwich Works", "opening_hours": "Mo-Th 06:30-19:00; Fr 06:30-18:00", "takeaway": "yes"}}, {"type": "node", "id": 2953447610, "lat": 41.8833785, "lon": -87.6326626, "tags": {"amenity": "fast_food", "brand": "Qdoba", "brand:wikidata": "Q1363885", "brand:wikipedia": "en:Qdoba", "cuisine": "mexican", "name": "Qdoba", "official_name": "Qdoba Mexican Grill", "takeaway": "yes"}}, {"type": "node", "id": 2953447613, "lat": 41.8838889, "lon": -87.6326545, "tags": {"brand": "7-Eleven", "brand:wikidata": "Q259340", "brand:wikipedia": "en:7-Eleven", "name": "7-Eleven", "shop": "convenience"}}, {"type": "node", "id": 2968230652, "lat": 41.8838083, "lon": -87.6406749, "tags": {"addr:city": "Chicago", "addr:housenumber": "131", "addr:postcode": "60661", "addr:state": "IL", "addr:street": "North Clinton Street", "name": "Chicago French Market", "operator": "Bensidoun USA", "shop": "supermarket", "website": "https://frenchmarketchicago.com/"}}, {"type": "node", "id": 3238872061, "lat": 41.8776265, "lon": -87.6296654, "tags": {"addr:city": "Chicago", "addr:housenumber": "53", "addr:postcode": "60604", "addr:state": "IL", "addr:street": "West Jackson Boulevard", "amenity": "bar", "name": "Cavanaughs", "opening_hours": "Mo-Fr 11:00-22:00, Mo-Fr 11:00-20:00 \"kitchen\"", "phone": "+1 312 939 3125", "smoking": "no", "website": "http://www.cavanaughschicago.com"}}, {"type": "node", "id": 3368235885, "lat": 41.8779179, "lon": -87.6421661, "tags": {"entrance": "main"}}, {"type": "node", "id": 3407053333, "lat": 41.8785544, "lon": -87.6371707, "tags": {"amenity": "fast_food", "brand": "Panera Bread", "brand:wikidata": "Q7130852", "brand:wikipedia": "en:Panera Bread", "cuisine": "sandwich;bakery", "name": "Panera Bread", "short_name": "Panera", "takeaway": "yes", "was:amenity": "restaurant"}}, {"type": "node", "id": 3407947954, "lat": 41.8790959, "lon": -87.6349928, "tags": {"amenity": "restaurant", "name": "Protein Bar"}}, {"type": "node", "id": 3427864968, "lat": 41.8805255, "lon": -87.635618, "tags": {"amenity": "fast_food", "brand": "Subway", "brand:wikidata": "Q244457", "brand:wikipedia": "en:Subway (restaurant)", "cuisine": "sandwich", "name": "Subway", "takeaway": "yes"}}, {"type": "node", "id": 3427864969, "lat": 41.8801209, "lon": -87.6364832, "tags": {"addr:city": "Chicago", "addr:housenumber": "111", "addr:state": "IL", "addr:street": "South Wacker Drive", "amenity": "restaurant", "name": "Townhouse Restaurant & Wine Bar"}}, {"type": "node", "id": 3797118170, "lat": 41.8830851, "lon": -87.6356904, "tags": {"addr:city": "Chicago", "addr:housenumber": "309", "addr:postcode": "60606", "addr:state": "IL", "addr:street": "West Washington Street", "amenity": "fast_food", "cuisine": "Modern_Middle_Eastern_Chain", "name": "Naf Naf Grill", "opening_hours": "Mo-Th 11:00-20:00; Fr 11:00-18:00", "takeaway": "yes"}}, {"type": "node", "id": 3797128684, "lat": 41.8833286, "lon": -87.6351431, "tags": {"addr:city": "Chicago", "addr:housenumber": "230", "addr:postcode": "60606", "addr:state": "IL", "addr:street": "West Washington Street", "amenity": "fast_food", "brand": "Cos\u00ec", "brand:wikidata": "Q5175243", "brand:wikipedia": "en:Cos\u00ec (restaurant)", "capacity": "50", "cuisine": "sandwich", "name": "Cos\u00ec", "opening_hours": "Mo-Fr 06:00-21:00, Sa-Su 07:00-21:00", "takeaway": "yes", "wheelchair": "yes"}}, {"type": "node", "id": 3932916443, "lat": 41.8847468, "lon": -87.6336681, "tags": {"addr:city": "Chicago", "addr:housenumber": "188", "addr:postcode": "60601", "addr:state": "IL", "addr:street": "West Randolph Street", "amenity": "bar", "name": "Randolph Tavern", "phone": "+1-312-683-3280", "website": "https://www.randolphtavern.com/"}}, {"type": "node", "id": 3958950098, "lat": 41.8858813, "lon": -87.6337901, "tags": {"addr:city": "Chicago", "addr:country": "US", "addr:housenumber": "201", "addr:postcode": "60606", "addr:state": "IL", "addr:street": "North Wells Street", "amenity": "restaurant", "cuisine": "japanese", "name": "Ajida", "takeaway": "yes", "wheelchair": "yes"}}, {"type": "node", "id": 4012075690, "lat": 41.8842961, "lon": -87.6291579, "tags": {"addr:city": "Chicago", "addr:country": "US", "addr:housenumber": "108", "addr:postcode": "60602", "addr:state": "IL", "addr:street": "North State Street", "amenity": "restaurant", "name": "Latinicity", "wheelchair": "yes"}}, {"type": "node", "id": 4196289891, "lat": 41.8829856, "lon": -87.6329184, "tags": {"alt_name": "Einstein Brothers Bagels", "amenity": "fast_food", "brand": "Einstein Bros. Bagels", "brand:wikidata": "Q5349788", "brand:wikipedia": "en:Einstein Bros. Bagels", "cuisine": "bagel", "name": "Einstein Bros. Bagels", "takeaway": "yes"}}, {"type": "node", "id": 4196289893, "lat": 41.882473, "lon": -87.6296562, "tags": {"amenity": "restaurant", "cuisine": "italian", "diet:vegetarian": "yes", "name": "Sopraffina", "opening_hours": "Mo-Fr 11:00-16:00"}}, {"type": "node", "id": 4217607951, "lat": 41.8822802, "lon": -87.6317017, "tags": {"addr:city": "Chicago", "addr:housenumber": "120", "addr:postcode": "60602", "addr:state": "IL", "addr:street": "West Madison Street", "amenity": "restaurant", "name": "Cousins Subs", "phone": "+1-312-872-5826", "website": "https://www.cousinssubs.com/"}}, {"type": "node", "id": 4220795298, "lat": 41.8830513, "lon": -87.6340732, "tags": {"addr:city": "Chicago", "addr:housenumber": "40", "addr:postcode": "60606", "addr:state": "IL", "addr:street": "North Wells Street", "brand": "7-Eleven", "brand:wikidata": "Q259340", "brand:wikipedia": "en:7-Eleven", "name": "7-Eleven", "shop": "convenience"}}, {"type": "node", "id": 4236743390, "lat": 41.8842027, "lon": -87.6292577, "tags": {"addr:city": "Chicago", "addr:housenumber": "145", "addr:postcode": "60602", "addr:state": "IL", "addr:street": "North Dearborn Street", "amenity": "restaurant", "cuisine": "american", "name": "The Dearborn", "opening_hours": "Mo 11:00-22:00; Tu-Th 11:00-23:00; Fr 11:00-00:00; Sa 10:00-00:00; Su 10:00-22:00", "phone": "+1-312-384-1242", "website": "https://www.thedearborntavern.com/"}}, {"type": "node", "id": 4238294020, "lat": 41.8779849, "lon": -87.6339241, "tags": {"amenity": "cafe", "brand": "Starbucks", "brand:wikidata": "Q37158", "brand:wikipedia": "en:Starbucks", "cuisine": "coffee_shop", "name": "Starbucks", "official_name": "Starbucks Coffee", "takeaway": "yes"}}, {"type": "node", "id": 4286834522, "lat": 41.8795744, "lon": -87.6279687, "tags": {"amenity": "cafe", "brand": "Starbucks", "brand:wikidata": "Q37158", "brand:wikipedia": "en:Starbucks", "cuisine": "coffee_shop", "name": "Starbucks", "official_name": "Starbucks Coffee", "takeaway": "yes"}}, {"type": "node", "id": 4349951892, "lat": 41.8781043, "lon": -87.6258184, "tags": {"amenity": "cafe", "brand": "Starbucks Reserve", "brand:wikidata": "Q37158", "brand:wikipedia": "en:Starbucks", "cuisine": "coffee_shop", "name": "Starbucks Reserve", "takeaway": "yes"}}, {"type": "node", "id": 4425271093, "lat": 41.8783343, "lon": -87.6272752, "tags": {"alt_name": "Chipotle Mexican Grill", "amenity": "fast_food", "brand": "Chipotle", "brand:wikidata": "Q465751", "brand:wikipedia": "en:Chipotle Mexican Grill", "contact:website": "https://chipotle.com/", "cuisine": "mexican", "name": "Chipotle", "official_name": "Chipotle Mexican Grill", "takeaway": "yes"}}, {"type": "node", "id": 4426305523, "lat": 41.8846427, "lon": -87.6267684, "tags": {"brand": "Ross", "brand:wikidata": "Q3442791", "brand:wikipedia": "en:Ross Stores", "name": "Ross", "official_name": "Ross Dress for Less", "shop": "department_store", "wheelchair": "yes"}}, {"type": "node", "id": 4428028170, "lat": 41.8768598, "lon": -87.6418438, "tags": {"addr:city": "Chicago", "addr:country": "US", "addr:housenumber": "558", "addr:postcode": "60607", "addr:state": "IL", "addr:street": "West Van Buren Street", "name": "Bombacigno's J&C", "shop": "deli"}}, {"type": "node", "id": 4428028171, "lat": 41.8768628, "lon": -87.641939, "tags": {"addr:city": "Chicago", "addr:country": "US", "addr:housenumber": "560", "addr:postcode": "60607", "addr:state": "IL", "addr:street": "West Van Buren Street", "amenity": "restaurant", "cuisine": "indian", "name": "Mughal India Fine Dining", "phone": "(312) 431-8029", "website": "http://www.mughalindiachicago.com/"}}, {"type": "node", "id": 4448346511, "lat": 41.8803535, "lon": -87.6270098, "tags": {"amenity": "cafe", "brand": "Starbucks", "brand:wikidata": "Q37158", "brand:wikipedia": "en:Starbucks", "cuisine": "coffee_shop", "level": "2", "name": "Starbucks", "official_name": "Starbucks Coffee", "takeaway": "yes"}}, {"type": "node", "id": 4458262089, "lat": 41.8804276, "lon": -87.6267482, "tags": {"addr:city": "Chicago", "addr:housenumber": "17", "addr:postcode": "60603", "addr:state": "IL", "addr:street": "East Monroe Street", "amenity": "bar", "name": "Lobby Bar at Palmer House", "note": "the_hotel_bar", "phone": "+1-312-726-7500", "website": "https://www.palmerhousehiltonhotel.com/hotel-amenities/restaurants-bars/#TheLobbyBar"}}, {"type": "node", "id": 4497342600, "lat": 41.8833456, "lon": -87.6331909, "tags": {"amenity": "pub", "name": "Cardozo's Pub", "phone": "+1 312-236-1573"}}, {"type": "node", "id": 4497342601, "lat": 41.8833399, "lon": -87.6329525, "tags": {"alt_name": "Dunkin' Donuts", "amenity": "fast_food", "brand": "Dunkin'", "brand:wikidata": "Q847743", "brand:wikipedia": "en:Dunkin' Donuts", "cuisine": "donut;coffee_shop", "name": "Dunkin'", "opening_hours": "24/7", "takeaway": "yes"}}, {"type": "node", "id": 4497342603, "lat": 41.8830132, "lon": -87.6336782, "tags": {"amenity": "fast_food", "cuisine": "sandwich", "name": "Mr. Submarine"}}, {"type": "node", "id": 4565730799, "lat": 41.8861373, "lon": -87.6261018, "tags": {"addr:city": "Chicago", "addr:housenumber": "203", "addr:postcode": "60601", "addr:state": "IL", "addr:street": "North Wabash Avenue", "amenity": "bar", "name": "Cerise", "opening_hours": "Mo-Su 06:00-19:00", "phone": "+1-312-940-4774", "website": "https://virginhotels.com/chicago/dine-and-drink/cerise/"}}, {"type": "node", "id": 4567467091, "lat": 41.8823318, "lon": -87.6336445, "tags": {"addr:city": "Chicago", "addr:housenumber": "7", "addr:postcode": "60602", "addr:state": "IL", "addr:street": "North Wells Street", "amenity": "cafe", "name": "Cafecito", "phone": "+1-312-263-4750", "website": "http://www.cafecitochicago.com/"}}, {"type": "node", "id": 4567644901, "lat": 41.8765854, "lon": -87.6332999, "tags": {"addr:city": "Chicago", "addr:housenumber": "400", "addr:postcode": "60605", "addr:state": "IL", "addr:street": "South Financial Place", "amenity": "cafe", "cuisine": "cafe", "name": "Saucy Porka", "phone": "+1-312-662-1351", "website": "http://saucyporka.com/"}}, {"type": "node", "id": 4729978589, "lat": 41.8814669, "lon": -87.6259549, "tags": {"addr:city": "Chicago", "addr:housenumber": "33", "addr:postcode": "60603", "addr:state": "IL", "addr:street": "South Wabash Avenue", "amenity": "cafe", "name": "Goddess and the Baker", "opening_hours": "Mo-Fr 08:00-20:00; Sa 08:00-20:00; Su 08:00-18:00", "outdoor_seating": "yes", "phone": "+1-312-877-5176", "website": "http://goddessandthebaker.com/"}}, {"type": "node", "id": 4731347922, "lat": 41.8818133, "lon": -87.6286992, "tags": {"amenity": "restaurant", "cuisine": "steak_house", "name": "Rosebud Prime", "name:en": "Rosebud Prime"}}, {"type": "node", "id": 4733127521, "lat": 41.883943, "lon": -87.6425174, "tags": {"addr:city": "Chicago", "addr:housenumber": "123", "addr:postcode": "60661", "addr:state": "IL", "addr:street": "North Jefferson Street", "amenity": "restaurant", "cuisine": "american", "name": "Sepia", "name:en": "Sepia", "phone": "+1-312-441-1920", "website": "http://www.sepiachicago.com/", "wikidata": "Q17032198", "wikipedia": "en:Sepia (restaurant)"}}, {"type": "node", "id": 4792338322, "lat": 41.8855795, "lon": -87.6352201, "tags": {"amenity": "fast_food", "brand": "Chipotle", "brand:wikidata": "Q465751", "brand:wikipedia": "en:Chipotle Mexican Grill", "cuisine": "mexican", "name": "Chipotle", "official_name": "Chipotle Mexican Grill", "takeaway": "yes"}}, {"type": "node", "id": 4799522642, "lat": 41.8793522, "lon": -87.6266976, "tags": {"addr:city": "Chicago", "addr:housenumber": "21", "addr:postcode": "60603", "addr:state": "IL", "addr:street": "East Adams Street", "amenity": "restaurant", "cuisine": "asian", "name": "Brightwok Kitchen", "opening_hours": "Mo-Fr 11:00-20:00; Sa 11:30-20:00", "phone": "+1-312-583-0729", "website": "https://brightwok.com/"}}, {"type": "node", "id": 4842223674, "lat": 41.8778821, "lon": -87.6429565, "tags": {"addr:city": "Chicago", "addr:housenumber": "601", "addr:postcode": "60661", "addr:state": "IL", "addr:street": "West Jackson Boulevard", "amenity": "cafe", "cuisine": "coffee_shop", "name": "Dark Matter Coffee"}}, {"type": "node", "id": 4846501194, "lat": 41.8797797, "lon": -87.6305524, "tags": {"addr:city": "Chicago", "addr:housenumber": "125", "addr:postcode": "60603", "addr:state": "IL", "addr:street": "South Clark Street", "amenity": "restaurant", "cuisine": "pizza;burger;coffee_shop;sandwich;mexican;ice_cream;chicken;seafood;sushi;american", "diet:vegetarian": "yes", "name": "Revival Food Hall", "opening_hours": "Mo-Fr 07:00-19:00", "outdoor_seating": "no", "phone": "+1-773-999-9411", "website": "https://www.revivalfoodhall.com/"}}, {"type": "node", "id": 4857968721, "lat": 41.8779757, "lon": -87.6342504, "tags": {"addr:housenumber": "215", "amenity": "fast_food", "name": "Luke's Italian Beef"}}, {"type": "node", "id": 5033698159, "lat": 41.8859143, "lon": -87.6297525, "tags": {"brand": "7-Eleven", "brand:wikidata": "Q259340", "brand:wikipedia": "en:7-Eleven", "name": "7-Eleven", "shop": "convenience"}}, {"type": "node", "id": 5035879391, "lat": 41.8830325, "lon": -87.6346336, "tags": {"addr:city": "Chicago", "addr:housenumber": "221", "addr:postcode": "60606", "addr:state": "IL", "addr:street": "West Washington Street", "amenity": "fast_food", "name": "Protein Bar"}}, {"type": "node", "id": 5035879392, "lat": 41.8830226, "lon": -87.6343493, "tags": {"addr:city": "Chicago", "addr:housenumber": "219", "addr:postcode": "60606", "addr:state": "IL", "addr:street": "West Washington Street", "amenity": "restaurant", "cuisine": "mediterranean", "name": "Mediterranean Kitchen"}}, {"type": "node", "id": 5201061803, "lat": 41.8810615, "lon": -87.6349135, "tags": {"addr:city": "Chicago", "addr:housenumber": "230", "addr:postcode": "60606", "addr:state": "IL", "addr:street": "West Monroe Street", "amenity": "fast_food", "brand": "Cos\u00ec", "brand:wikidata": "Q5175243", "brand:wikipedia": "en:Cos\u00ec (restaurant)", "cuisine": "sandwich", "name": "Cos\u00ec", "phone": "+1-312-782-4755", "takeaway": "yes", "website": "https://www.getcosi.com/locations/west-monroe-119"}}, {"type": "node", "id": 5289801337, "lat": 41.8796455, "lon": -87.6302924, "tags": {"addr:city": "Chicago", "addr:housenumber": "125", "addr:state": "IL", "addr:street": "South Clark Street", "amenity": "restaurant", "cuisine": "barbecue", "name": "Smoque BBQ - Revival Food Hall", "phone": "+1- 773-770-6232", "website": "http://www.smoquebbq.com/"}}, {"type": "node", "id": 5289912852, "lat": 41.8817805, "lon": -87.6343091, "tags": {"amenity": "fast_food", "brand": "Jimmy John's", "brand:wikidata": "Q1689380", "brand:wikipedia": "en:Jimmy John's", "cuisine": "sandwich", "name": "Jimmy John's", "official_name": "Jimmy John's Gourmet Sandwiches", "source": "survey", "takeaway": "yes"}}, {"type": "node", "id": 5289912854, "lat": 41.884622, "lon": -87.6342143, "tags": {"addr:city": "Chicago", "addr:housenumber": "200", "addr:postcode": "60606", "addr:state": "IL", "addr:street": "West Randolph Street", "amenity": "restaurant", "brand": "Freshii", "brand:wikidata": "Q5503051", "brand:wikipedia": "en:Freshii", "cuisine": "salad", "name": "Freshii"}}, {"type": "node", "id": 5295997074, "lat": 41.8812482, "lon": -87.637833, "tags": {"amenity": "restaurant", "name": "Rivers Restaurant"}}, {"type": "node", "id": 5295997075, "lat": 41.8815458, "lon": -87.6365206, "tags": {"amenity": "restaurant", "name": "Lloyd's Chicago"}}, {"type": "node", "id": 5295997076, "lat": 41.8823509, "lon": -87.6365945, "tags": {"amenity": "restaurant", "name": "One North Kitchen"}}, {"type": "node", "id": 5295997077, "lat": 41.8816879, "lon": -87.6377996, "tags": {"addr:city": "Chicago", "addr:housenumber": "10", "addr:postcode": "60606", "addr:state": "IL", "addr:street": "South Upper Wacker Drive", "amenity": "bar", "name": "Rittergut Wine Bar", "phone": "+1-779-216-5939", "website": "http://rittergutwinebar.com/"}}, {"type": "node", "id": 5295997078, "lat": 41.8795338, "lon": -87.6358681, "tags": {"amenity": "fast_food", "name": "Roti"}}, {"type": "node", "id": 5295997083, "lat": 41.8814712, "lon": -87.635462, "tags": {"amenity": "fast_food", "brand": "Potbelly", "brand:wikidata": "Q7234777", "brand:wikipedia": "en:Potbelly Sandwich Shop", "cuisine": "sandwich", "name": "Potbelly", "official_name": "Potbelly Sandwich Works", "takeaway": "yes"}}, {"type": "node", "id": 5295997084, "lat": 41.8833394, "lon": -87.6346345, "tags": {"amenity": "fast_food", "brand": "Jimmy John's", "brand:wikidata": "Q1689380", "brand:wikipedia": "en:Jimmy John's", "cuisine": "sandwich", "name": "Jimmy John's", "official_name": "Jimmy John's Gourmet Sandwiches", "takeaway": "yes"}}, {"type": "node", "id": 5355148074, "lat": 41.8801296, "lon": -87.6325263, "tags": {"amenity": "cafe", "brand": "Corner Bakery", "brand:wikidata": "Q5171598", "brand:wikipedia": "en:Corner Bakery Cafe", "cuisine": "coffee_shop", "name": "Corner Bakery", "opening_hours": "Mo-Fr 6:30-17:30", "phone": "(312) 269-9100", "takeaway": "yes", "website": "https://www.cornerbakerycafe.com/location/south-lasalle"}}, {"type": "node", "id": 5355155941, "lat": 41.8795579, "lon": -87.6295357, "tags": {"addr:city": "Chicago", "addr:housenumber": "140", "addr:postcode": "60603", "addr:state": "IL", "addr:street": "South Dearborn Street", "amenity": "cafe", "name": "Argo Tea", "opening_hours": "Mo-Fr 6:30-18:30", "phone": "+1-773-663-4471", "website": "https://www.argotea.com/"}}, {"type": "node", "id": 5358166524, "lat": 41.8799486, "lon": -87.6274579, "tags": {"amenity": "pub", "email": "jrbecwar@icloud.com", "name": "Beef & Brandy", "opening_hours": "Mo 11:00-00:00; Tu,Th 11:00-01:00; We,Fr 11:00-01:30; Sa 11:00-02:00; Su 11:00-20:00", "phone": "(312)-372-2987", "website": "http://thebarbelowchicago.com/"}}, {"type": "node", "id": 5379573038, "lat": 41.8805282, "lon": -87.6359355, "tags": {"addr:city": "Chicago", "addr:housenumber": "211", "addr:postcode": "60603", "addr:state": "IL", "addr:street": "West Adams Street", "amenity": "fast_food", "brand": "Pret A Manger", "brand:wikidata": "Q2109109", "brand:wikipedia": "en:Pret a Manger", "cuisine": "sandwich", "internet_access:fee": "no", "name": "Pret A Manger", "short_name": "Pret", "smoking": "no", "takeaway": "yes"}}, {"type": "node", "id": 5460269794, "lat": 41.8842275, "lon": -87.6408329, "tags": {"addr:city": "Chicago", "addr:housenumber": "131", "addr:postcode": "60661", "addr:state": "IL", "addr:street": "North Clinton Street", "amenity": "fast_food", "brand": "Aloha Pok\u0113 Co", "brand:wikidata": "Q111231031", "cuisine": "poke", "name": "Aloha Pok\u0113 Co", "opening_hours": "Mo-Fr 10:00-19:30; Sa 10:00-17:30", "phone": "+1-312-285-2887", "takeaway": "yes", "website": "https://www.alohapokeco.com/"}}, {"type": "node", "id": 5460275344, "lat": 41.8841908, "lon": -87.6410404, "tags": {"addr:city": "Chicago", "addr:housenumber": "131", "addr:postcode": "60661", "addr:state": "IL", "addr:street": "North Clinton Street", "amenity": "cafe", "cuisine": "pastry", "name": "Vanille Patisserie", "opening_hours": "Mo-Fr 07:00-19:30; Sa 08:30-17:30", "phone": "+1-773-868-4574", "website": "http://www.vanillepatisserie.com/"}}, {"type": "node", "id": 5460291293, "lat": 41.8840923, "lon": -87.6399867, "tags": {"addr:city": "Chicago", "addr:housenumber": "120", "addr:postcode": "60661", "addr:state": "IL", "addr:street": "North Canal Street", "amenity": "restaurant", "cuisine": "american", "name": "Ovie Bar & Grill", "opening_hours": "Mo-Th 11:00-22:00; Fr 11:00-23:00; Sa 19:00-02:30", "phone": "+1-312-902-1111", "website": "http://www.oviebarandgrill.com/"}}, {"type": "node", "id": 5460297238, "lat": 41.884643, "lon": -87.6424139, "tags": {"addr:city": "Chicago", "addr:housenumber": "564", "addr:postcode": "60661", "addr:state": "IL", "addr:street": "West Randolph Street", "amenity": "bar", "name": "CH Distillery", "opening_hours": "Tu-Th 16:00-22:00; Fr 16:00-23:00; Sa 17:00-23:00", "phone": "+1-312-707-8780", "website": "https://chdistillery.com/"}}, {"type": "node", "id": 5460308912, "lat": 41.8855762, "lon": -87.6422268, "tags": {"addr:city": "Chicago", "addr:housenumber": "567", "addr:postcode": "60661", "addr:state": "IL", "addr:street": "West Lake Street", "amenity": "restaurant", "cuisine": "vietnamese;asian", "name": "Saigon Sisters", "opening_hours": "Mo 11:00-14:00; Tu-Th 11:00-21:00; Fr 11:00-22:00; Sa 17:00-22:00", "phone": "+1-312-496-0090", "website": "https://www.saigonsisters.com/"}}, {"type": "node", "id": 5460610494, "lat": 41.8842777, "lon": -87.6335418, "tags": {"addr:city": "Chicago", "addr:housenumber": "171", "addr:postcode": "60602", "addr:state": "IL", "addr:street": "West Randolph Street", "amenity": "bar", "name": "Bar Allegro", "opening_hours": "Su-Th 16:00-23:00; Fr-Sa 16:00-00:00", "phone": "+1-312-696-2420", "website": "https://www.allegrochicago.com/"}}, {"type": "node", "id": 5460611824, "lat": 41.8840721, "lon": -87.6326822, "tags": {"addr:city": "Chicago", "addr:housenumber": "134", "addr:postcode": "60602", "addr:state": "IL", "addr:street": "North LaSalle Drive", "amenity": "restaurant", "cuisine": "seafood;american", "name": "Luke's Lobster City Hall", "opening_hours": "Mo-Fr 11:00-21:00; Sa-Su 12:00-20:00", "phone": "+1-312-982-2977", "website": "https://www.lukeslobster.com/location/chicago/"}}, {"type": "node", "id": 5460613792, "lat": 41.8800901, "lon": -87.6408472, "tags": {"addr:city": "Chicago", "addr:housenumber": "113", "addr:postcode": "60661", "addr:state": "IL", "addr:street": "South Clinton Street", "amenity": "restaurant", "cuisine": "indian", "name": "Naansense", "opening_hours": "Mo-Fr 11:00-16:00", "phone": "+1-312-255-7268", "website": "https://www.eatatnaansense.com/"}}, {"type": "node", "id": 5460615421, "lat": 41.8803617, "lon": -87.6413837, "tags": {"addr:city": "Chicago", "addr:housenumber": "555", "addr:postcode": "60661", "addr:state": "IL", "addr:street": "West Monroe Street", "amenity": "restaurant", "cuisine": "mediterranean", "name": "IDOF - I Dream of Falafel", "opening_hours": "Mo-Fr 10:30-20:00", "phone": "+1-312-559-3333", "website": "http://www.idreamoffalafel.com/locations/chicago/"}}, {"type": "node", "id": 5460616621, "lat": 41.8810817, "lon": -87.6413762, "tags": {"addr:city": "Chicago", "addr:housenumber": "24", "addr:postcode": "60661", "addr:state": "IL", "addr:street": "South Clinton Street", "amenity": "restaurant", "brand": "Blaze Pizza", "brand:wikidata": "Q23016666", "brand:wikipedia": "en:Blaze Pizza", "cuisine": "pizza", "name": "Blaze Pizza", "opening_hours": "Mo-Fr 10:30-20:00; Sa-Su 12:00-19:00", "phone": "+1-312-766-1089", "website": "http://www.blazepizza.com/"}}, {"type": "node", "id": 5460620370, "lat": 41.8777616, "lon": -87.6413622, "tags": {"addr:city": "Chicago", "addr:housenumber": "310", "addr:postcode": "60661", "addr:state": "IL", "addr:street": "South Clinton Street", "amenity": "restaurant", "cuisine": "pizza", "name": "Beggars Pizza", "opening_hours": "Mo-Th 11:00-22:30; Fr-Sa 11:00-00:00; Su 11:00-22:00", "phone": "+1-312-588-0055", "website": "https://www.beggarspizza.com/"}}, {"type": "node", "id": 5460651233, "lat": 41.8843074, "lon": -87.6405879, "tags": {"addr:city": "Chicago", "addr:housenumber": "131", "addr:postcode": "60661", "addr:state": "IL", "addr:street": "North Clinton Street", "addr:unit": "7", "amenity": "restaurant", "diet:vegan": "only", "name": "Chicago Raw", "opening_hours": "Mo-Fr 07:00-19:30; Sa 08:30-17:30", "phone": "+1-312-831-2729", "website": "https://www.chicagorawfood.com/"}}, {"type": "node", "id": 5460651408, "lat": 41.8839579, "lon": -87.6408669, "tags": {"addr:city": "Chicago", "addr:housenumber": "131", "addr:postcode": "60661", "addr:state": "IL", "addr:street": "North Clinton Street", "amenity": "restaurant", "cuisine": "mexican", "name": "Buen Apetito", "opening_hours": "Mo-Fr 09:00-18:30; Sa 10:00-16:00", "phone": "+1-312-234-9600"}}, {"type": "node", "id": 5460653562, "lat": 41.8839519, "lon": -87.6410117, "tags": {"addr:city": "Chicago", "addr:housenumber": "131", "addr:postcode": "60661", "addr:state": "IL", "addr:street": "North Clinton Street", "amenity": "cafe", "cuisine": "donut;coffee_shop;coffee", "name": "Beavers Donuts", "opening_hours": "Mo-Fr 07:00-18:00; Sa 09:00-16:00", "phone": "+1-773-392-1300", "website": "http://www.beaversdonuts.com/"}}, {"type": "node", "id": 5460658753, "lat": 41.880843, "lon": -87.6310495, "tags": {"addr:city": "Chicago", "addr:housenumber": "100", "addr:postcode": "60603", "addr:state": "IL", "addr:street": "West Monroe Street", "amenity": "restaurant", "cuisine": "french", "name": "Cochon Volant Brasserie", "opening_hours": "Mo-Fr 06:30-23:00; Sa-Su 07:30-23:00", "outdoor_seating": "no", "phone": "+1-312-754-6560", "website": "http://www.cochonvolantchicago.com/"}}, {"type": "node", "id": 5460668869, "lat": 41.883901, "lon": -87.6409288, "tags": {"addr:city": "Chicago", "addr:housenumber": "131", "addr:postcode": "60661", "addr:state": "IL", "addr:street": "North Clinton Street", "addr:unit": "12", "amenity": "restaurant", "cuisine": "breakfast;french", "name": "FliP Crepes", "opening_hours": "Mo-We 07:00-19:00; Th 10:00-18:30; Fr 07:00-19:00; Sa 09:00-16:00", "phone": "+1-888-808-3547", "website": "https://flipcrepes.com/"}}, {"type": "node", "id": 5460683559, "lat": 41.8844648, "lon": -87.6407581, "tags": {"addr:city": "Chicago", "addr:housenumber": "135", "addr:postcode": "60661", "addr:state": "IL", "addr:street": "North Clinton Street", "amenity": "cafe", "brand": "Le Pain Quotidien", "brand:wikidata": "Q2046903", "brand:wikipedia": "en:Le Pain Quotidien", "cuisine": "coffee_shop", "name": "Le Pain Quotidien", "opening_hours": "Mo-Fr 07:00-18:00; Sa 08:00-17:00", "phone": "+1-312-234-0900", "takeaway": "yes", "website": "https://www1.lepainquotidien.com/us/en/locations/601/135-n-clinton-st"}}, {"type": "node", "id": 5460707118, "lat": 41.8842786, "lon": -87.6424715, "tags": {"addr:city": "Chicago", "addr:housenumber": "565", "addr:postcode": "60661", "addr:state": "IL", "addr:street": "West Randolph Street", "amenity": "restaurant", "cuisine": "tapas;small_plates", "name": "Proxi", "opening_hours": "Mo-Th 16:00-01:00; Fr-Sa 15:00-02:00", "phone": "+1-312-466-1950", "website": "https://www.proxichicago.com/"}}, {"type": "node", "id": 5460717972, "lat": 41.8824351, "lon": -87.6416895, "tags": {"addr:city": "Chicago", "addr:housenumber": "22", "addr:postcode": "60661", "addr:state": "IL", "addr:street": "North Clinton Street", "amenity": "restaurant", "cuisine": "pub;sandwich;american", "name": "Slightly Toasted", "phone": "+1-312-967-2830", "website": "https://slightlytoasted.com/"}}, {"type": "node", "id": 5460760592, "lat": 41.8807756, "lon": -87.6406322, "tags": {"addr:city": "Chicago", "addr:housenumber": "500", "addr:postcode": "60661", "addr:state": "IL", "addr:street": "West Monroe Street", "amenity": "restaurant", "cuisine": "american", "name": "Venice Cafe", "opening_hours": "Mo-Fr 07:00-15:00", "phone": "+1-312-258-0925", "website": "http://www.venicecafechicago.com/"}}, {"type": "node", "id": 5460770694, "lat": 41.8823378, "lon": -87.6403109, "tags": {"addr:city": "Chicago", "addr:housenumber": "500", "addr:postcode": "60661", "addr:state": "IL", "addr:street": "West Madison Street", "amenity": "restaurant", "cuisine": "brunch;breakfast;american;lunch", "name": "Yolk - West Loop", "opening_hours": "Mo-Fr 06:00-15:00; Sa-Su 07:00-15:00", "phone": "+1-312-454-9655", "website": "https://www.eatyolk.com/"}}, {"type": "node", "id": 5460833746, "lat": 41.8853227, "lon": -87.62651, "tags": {"addr:city": "Chicago", "addr:housenumber": "174", "addr:postcode": "60601", "addr:state": "IL", "addr:street": "North Wabash Avenue", "amenity": "fast_food", "cuisine": "sandwich;american", "name": "Capriotti's Sandwich Shop", "opening_hours": "Mo-Fr 09:00-22:00; Sa-Su 10:30-22:00", "phone": "+1-312-344-1695", "website": "https://www.capriottis.com/"}}, {"type": "node", "id": 5624356801, "lat": 41.8811634, "lon": -87.6413723, "tags": {"amenity": "fast_food", "brand": "Five Guys", "brand:wikidata": "Q1131810", "brand:wikipedia": "en:Five Guys", "cuisine": "burger", "name": "Five Guys", "official_name": "Five Guys Burgers and Fries", "takeaway": "yes"}}, {"type": "node", "id": 5624360081, "lat": 41.8812924, "lon": -87.6413733, "tags": {"amenity": "fast_food", "name": "Naf Naf Grill"}}, {"type": "node", "id": 5624362332, "lat": 41.8809933, "lon": -87.6413793, "tags": {"amenity": "restaurant", "brand": "Freshii", "brand:wikidata": "Q5503051", "brand:wikipedia": "en:Freshii", "cuisine": "salad", "name": "Freshii", "opening_hours": "Mo-Fr 07:00-21:00"}}, {"type": "node", "id": 5625466626, "lat": 41.8834706, "lon": -87.6414273, "tags": {"addr:city": "Chicago", "addr:housenumber": "550", "addr:postcode": "60661", "addr:state": "IL", "addr:street": "West Washington Street", "brand": "7-Eleven", "brand:wikidata": "Q259340", "brand:wikipedia": "en:7-Eleven", "name": "7-Eleven", "shop": "convenience"}}, {"type": "node", "id": 5625466899, "lat": 41.8830032, "lon": -87.6415303, "tags": {"amenity": "cafe", "brand": "Starbucks", "brand:wikidata": "Q37158", "brand:wikipedia": "en:Starbucks", "cuisine": "coffee_shop", "name": "Starbucks", "official_name": "Starbucks Coffee", "takeaway": "yes"}}, {"type": "node", "id": 5794916615, "lat": 41.8854564, "lon": -87.6383532, "tags": {"addr:city": "Chicago", "addr:housenumber": "150", "addr:postcode": "60606", "addr:state": "IL", "addr:street": "North Riverside Plaza", "amenity": "restaurant", "name": "Small Cheval", "website": "http://smallcheval.com/"}}, {"type": "node", "id": 5794916616, "lat": 41.8850924, "lon": -87.6382935, "tags": {"addr:city": "Chicago", "addr:housenumber": "150", "addr:postcode": "60606", "addr:state": "IL", "addr:street": "North Riverside Plaza", "amenity": "bar", "name": "Porter Kitchen & Deck", "phone": "+1-312-781-7580", "website": "https://porterchicago.com/"}}, {"type": "node", "id": 5794916617, "lat": 41.8854389, "lon": -87.6372981, "tags": {"addr:city": "Chicago", "addr:housenumber": "180", "addr:postcode": "60606", "addr:state": "IL", "addr:street": "North Upper Wacker Drive", "amenity": "restaurant", "name": "Beatnik On The River", "opening_hours": "Mo-Fr 11:00-22:00", "phone": "+1-312-526-3345", "website": "https://www.beatnikontheriver.com"}}, {"type": "node", "id": 5794916618, "lat": 41.8854228, "lon": -87.6371723, "tags": {"addr:city": "Chicago", "addr:housenumber": "180", "addr:postcode": "60606", "addr:state": "IL", "addr:street": "North Upper Wacker Drive", "amenity": "cafe", "name": "Cafe Bonhomme", "opening_hours": "Mo-Fr 07:00-22:00"}}, {"type": "node", "id": 5910392286, "lat": 41.8784572, "lon": -87.6267392, "tags": {"addr:city": "Chicago", "addr:housenumber": "22", "addr:postcode": "60604", "addr:state": "IL", "addr:street": "East Jackson Boulevard", "amenity": "cafe", "name": "HERO Coffee Bar", "phone": "+1-312-285-2786", "website": "https://www.herocoffeebars.com/"}}, {"type": "node", "id": 6050592286, "lat": 41.8765959, "lon": -87.633868, "tags": {"addr:city": "Chicago", "addr:housenumber": "408", "addr:postcode": "60607", "addr:state": "IL", "addr:street": "South Wells Street", "amenity": "bar", "name": "Persona", "phone": "+1-312-285-2271", "website": "https://www.personachi.com/"}}, {"type": "node", "id": 6119880267, "lat": 41.8772103, "lon": -87.6294485, "tags": {"amenity": "cafe", "name": "Harry's Sandiwch Shop"}}, {"type": "node", "id": 6159637957, "lat": 41.884661, "lon": -87.6364377, "tags": {"addr:city": "Chicago", "addr:housenumber": "155", "addr:postcode": "60606", "addr:state": "IL", "addr:street": "North Upper Wacker Drive", "amenity": "restaurant", "name": "Beatrix Market", "outdoor_seating": "no", "phone": "+1 (312) 629-0025", "smoking": "no", "website": "http://beatrixrestaurants.com/beatrix-market/loop/"}}, {"type": "node", "id": 6159637959, "lat": 41.8849386, "lon": -87.6351503, "tags": {"addr:city": "Chicago", "addr:housenumber": "151", "addr:postcode": "60606", "addr:state": "IL", "addr:street": "North Franklin Street", "amenity": "cafe", "drive_through": "no", "name": "Left Coast", "phone": "+1-312-392-2900", "website": "http://www.leftcoastfood.com/"}}, {"type": "node", "id": 6193723672, "lat": 41.8833468, "lon": -87.6329005, "tags": {"addr:city": "Chicago", "addr:housenumber": "166", "addr:postcode": "60602", "addr:state": "IL", "addr:street": "West Washington Street", "amenity": "restaurant", "cuisine": "vietnamese", "delivery": "yes", "name": "Lotus Bahn Mi", "opening_hours": "Mo-Fr 11:00-15:00", "outdoor_seating": "no", "smoking": "no", "takeaway": "yes"}}, {"type": "node", "id": 6221680435, "lat": 41.8846118, "lon": -87.6424952, "tags": {"addr:city": "Chicago", "addr:housenumber": "564", "addr:postcode": "60661", "addr:state": "IL", "addr:street": "West Randolph Street", "amenity": "restaurant", "cuisine": "american", "name": "Bellemore", "opening_hours": "Mo-Fr 11:00-14:00; Mo-Th 17:00-22:00; Fr-Sa 16:30-23:00; Su 16:00-21:00", "phone": "+1-312-667-0104", "website": "https://www.bellemorechicago.com/"}}, {"type": "node", "id": 6250120346, "lat": 41.8788515, "lon": -87.626458, "tags": {"addr:city": "Chicago", "addr:housenumber": "222", "addr:postcode": "60604", "addr:state": "IL", "addr:street": "South Wabash Avenue", "amenity": "pub", "brewery": "yes", "name": "2Twenty2 Tavern", "phone": "+1-312-878-9994", "smoking": "no", "website": "https://www.2twenty2tavern.com/"}}, {"type": "node", "id": 6250175708, "lat": 41.8843286, "lon": -87.6327277, "tags": {"addr:city": "Chicago", "addr:housenumber": "136", "addr:postcode": "60602", "addr:state": "IL", "addr:street": "North LaSalle Street", "amenity": "restaurant", "cuisine": "american", "name": "312 Chicago", "phone": "+1-312-696-2420", "website": "https://312chicago.com/"}}, {"type": "node", "id": 6261376991, "lat": 41.8797646, "lon": -87.6331918, "tags": {"addr:city": "Chicago", "addr:housenumber": "160", "addr:postcode": "60603", "addr:state": "IL", "addr:street": "West Adams Street", "amenity": "restaurant", "name": "Ara On", "phone": "+1-312-781-7300", "website": "http://www.ara-on.com/"}}, {"type": "node", "id": 6263367205, "lat": 41.8803633, "lon": -87.6399488, "tags": {"addr:city": "Chicago", "addr:housenumber": "122", "addr:postcode": "60606", "addr:state": "IL", "addr:street": "South Canal Street", "name": "Arturo Express", "phone": "+1-312-474-9289", "shop": "bakery", "website": "http://www.arturoexpress.com/"}}, {"type": "node", "id": 6263487032, "lat": 41.8782542, "lon": -87.6342427, "tags": {"addr:city": "Chicago", "addr:housenumber": "200", "addr:postcode": "60606", "addr:state": "IL", "addr:street": "West Jackson Boulevard", "name": "Avanti Caff\u00e9", "phone": "+1-312-957-1301", "shop": "bakery", "website": "http://www.avanticaffe.com/"}}, {"type": "node", "id": 6265661550, "lat": 41.8839358, "lon": -87.640998, "tags": {"addr:city": "Chicago", "addr:housenumber": "131", "addr:postcode": "60661", "addr:state": "IL", "addr:street": "North Clinton Street", "name": "Beavers Coffee & Donuts", "phone": "+1-773- 392-1300", "shop": "bakery", "website": "http://www.beaversdonuts.com/"}}, {"type": "node", "id": 6267152938, "lat": 41.8793502, "lon": -87.6264351, "tags": {"addr:city": "Chicago", "addr:housenumber": "29", "addr:postcode": "60603", "addr:state": "IL", "addr:street": "East Adams Street", "amenity": "restaurant", "cuisine": "venezuelan;small_plates", "name": "BienMeSabe Venezuelan Arepa Bar", "phone": "+1-312-285-2911", "website": "https://bienmesabechicago.com"}}, {"type": "node", "id": 6267257392, "lat": 41.8776181, "lon": -87.6325368, "tags": {"addr:city": "Chicago", "addr:housenumber": "141", "addr:postcode": "60604", "addr:state": "IL", "addr:street": "West Jackson Boulevard", "name": "Big Shoulders Coffee", "phone": "+1-312-280-6154", "shop": "coffee", "website": "https://www.bigshoulderscoffee.com/"}}, {"type": "node", "id": 6267343176, "lat": 41.8809067, "lon": -87.6413728, "tags": {"addr:city": "Chicago", "addr:housenumber": "28", "addr:postcode": "60661", "addr:state": "IL", "addr:street": "South Clinton Street", "amenity": "restaurant", "name": "Blackwood BBQ", "phone": "+1-312-631-3431", "website": "https://www.blackwoodbbq.com/"}}, {"type": "node", "id": 6267410938, "lat": 41.8858788, "lon": -87.6344229, "tags": {"addr:city": "Chicago", "addr:housenumber": "210", "addr:postcode": "60606", "addr:state": "IL", "addr:street": "West Lake Street", "amenity": "fast_food", "cuisine": "sandwich", "drive_through": "no", "name": "Boar\u2019s Head Cafe", "phone": "+1-312-759-2233", "website": "https://www.boarsheadcafechicago.com/"}}, {"type": "node", "id": 6269041647, "lat": 41.8823506, "lon": -87.6404069, "tags": {"addr:city": "Chicago", "addr:housenumber": "500", "addr:postcode": "60661", "addr:state": "IL", "addr:street": "West Madison Street", "amenity": "restaurant", "name": "Boxcar Betty\u2019s", "website": "http://www.boxcarbetty.com/"}}, {"type": "node", "id": 6269042337, "lat": 41.8771579, "lon": -87.6291624, "tags": {"addr:city": "Chicago", "addr:housenumber": "343", "addr:postcode": "60604", "addr:state": "IL", "addr:street": "South Dearborn Street", "amenity": "bar", "name": "Brando\u2019s Speakeasy", "phone": "+1-773- 216-3213", "website": "https://brandoschicago.com/"}}, {"type": "node", "id": 6269079233, "lat": 41.8789816, "lon": -87.625509, "tags": {"shop": "coffee"}}, {"type": "node", "id": 6272851592, "lat": 41.8855254, "lon": -87.6361036, "tags": {"addr:city": "Chicago", "addr:housenumber": "307", "addr:postcode": "60606", "addr:state": "IL", "addr:street": "West Lake Street", "amenity": "restaurant", "name": "Blackwood BBQ", "phone": "+1-312-621-9663", "website": "https://www.blackwoodbbq.com/"}}, {"type": "node", "id": 6273506440, "lat": 41.8808957, "lon": -87.6315865, "tags": {"addr:city": "Chicago", "addr:housenumber": "122", "addr:postcode": "60603", "addr:state": "IL", "addr:street": "West Monroe Street", "amenity": "restaurant", "name": "Boleo", "phone": "+1-312-750-9007", "website": "https://www.boleochicago.com/"}}, {"type": "node", "id": 6273597435, "lat": 41.8809074, "lon": -87.636115, "tags": {"addr:city": "Chicago", "addr:housenumber": "71", "addr:postcode": "60606", "addr:state": "IL", "addr:street": "South Franklin Street", "amenity": "cafe", "name": "Caff\u00e8 R\u014dM", "phone": "+1-312-379-0291", "website": "http://www.cafferom.com/"}}, {"type": "node", "id": 6282530019, "lat": 41.8786314, "lon": -87.6389955, "tags": {"addr:city": "Chicago", "addr:housenumber": "225", "addr:postcode": "60606", "addr:state": "IL", "addr:street": "South Canal Street", "amenity": "bar", "name": "Chicago Union Station Metropolitan Lounge", "phone": "+1-312-544-5525", "website": "https://chicagounionstation.com/"}}, {"type": "node", "id": 6282654184, "lat": 41.8823495, "lon": -87.6403415, "tags": {"addr:city": "Chicago", "addr:housenumber": "500", "addr:postcode": "60661", "addr:state": "IL", "addr:street": "West Madison Street", "amenity": "fast_food", "brand": "Cinnabon", "brand:website": "https://www.cinnabon.com/", "brand:wikidata": "Q1092539", "brand:wikipedia": "en:Cinnabon", "cuisine": "dessert", "name": "Cinnabon", "phone": "+1-312-466-1828", "takeaway": "yes", "website": "https://www.cinnabon.com/il/chicago/bakery-356"}}, {"type": "node", "id": 6282783209, "lat": 41.8834428, "lon": -87.6326964, "tags": {"addr:city": "Chicago", "addr:housenumber": "120", "addr:postcode": "60602", "addr:state": "IL", "addr:street": "North LaSalle Street", "amenity": "restaurant", "name": "City Social", "phone": "+1-312-888-2968", "website": "https://www.citysocialchicago.com/"}}, {"type": "node", "id": 6283292191, "lat": 41.8861083, "lon": -87.6259113, "tags": {"addr:city": "Chicago", "addr:housenumber": "203", "addr:postcode": "60601", "addr:state": "IL", "addr:street": "North Wabash Avenue", "amenity": "bar", "name": "Commons Club", "phone": "+1-312-940-4788", "website": "https://virginhotels.com/chicago/dine-and-drink/the-commons-club/?chebs=local-andrewpinckneyinn"}}, {"type": "node", "id": 6283489636, "lat": 41.878795, "lon": -87.6387037, "tags": {"addr:city": "Chicago", "addr:housenumber": "222", "addr:postcode": "60606", "addr:state": "IL", "addr:street": "South Riverside Plaza", "amenity": "cafe", "brand": "Corner Bakery", "brand:wikidata": "Q5171598", "brand:wikipedia": "en:Corner Bakery Cafe", "cuisine": "coffee_shop", "name": "Corner Bakery", "phone": "+1-312-441-0821", "takeaway": "yes", "website": "https://www.cornerbakerycafe.com/"}}, {"type": "node", "id": 6283491021, "lat": 41.8823544, "lon": -87.6404551, "tags": {"addr:city": "Chicago", "addr:housenumber": "500", "addr:postcode": "60661", "addr:state": "IL", "addr:street": "West Madison Street", "amenity": "fast_food", "brand": "Pret A Manger", "brand:wikidata": "Q2109109", "brand:wikipedia": "en:Pret a Manger", "cuisine": "sandwich", "name": "Pret A Manger", "phone": "+1-347-541-0378", "short_name": "Pret", "takeaway": "yes", "website": "https://www.pret.com/en-us"}}, {"type": "node", "id": 6283504666, "lat": 41.8846875, "lon": -87.6299477, "tags": {"addr:city": "Chicago", "addr:housenumber": "56", "addr:postcode": "60602", "addr:state": "IL", "addr:street": "West Randolph Street", "amenity": "cafe", "brand": "Corner Bakery", "brand:wikidata": "Q5171598", "brand:wikipedia": "en:Corner Bakery Cafe", "cuisine": "coffee_shop", "name": "Corner Bakery", "phone": "+1-312-346-9492", "takeaway": "yes", "website": "https://www.cornerbakerycafe.com/"}}, {"type": "node", "id": 6284415297, "lat": 41.879772, "lon": -87.6327771, "tags": {"addr:city": "Chicago", "addr:housenumber": "190", "addr:postcode": "60603", "addr:state": "IL", "addr:street": "South LaSalle Street", "amenity": "cafe", "name": "Department of Coffee and Social Affairs", "website": "https://www.departmentofcoffee.com/"}}, {"type": "node", "id": 6284614216, "lat": 41.8847432, "lon": -87.6298339, "tags": {"addr:city": "Chicago", "addr:housenumber": "50", "addr:postcode": "60601", "addr:state": "IL", "addr:street": "West Randolph Street", "amenity": "cafe", "name": "Do-Rite Donuts & Coffee", "phone": "+1-312-488-2483", "website": "http://doritedonuts.com/"}}, {"type": "node", "id": 6284650807, "lat": 41.8803085, "lon": -87.6298127, "tags": {"addr:city": "Chicago", "addr:housenumber": "55", "addr:postcode": "60606", "addr:state": "IL", "addr:street": "West Marble Place", "amenity": "cafe", "name": "Dollop Coffee Co.", "phone": "+1-312-837-3152", "website": "https://dollop.coffee/"}}, {"type": "node", "id": 6284683583, "lat": 41.8771043, "lon": -87.6291567, "tags": {"addr:city": "Chicago", "addr:housenumber": "343", "addr:postcode": "60604", "addr:state": "IL", "addr:street": "South Dearborn Street", "amenity": "cafe", "name": "Dollop Coffee Company", "phone": "+1-312-846-6103", "website": "https://dollop.coffee/"}}, {"type": "node", "id": 6284753435, "lat": 41.8836131, "lon": -87.6393581, "tags": {"addr:city": "Chicago", "addr:housenumber": "111", "addr:postcode": "60606", "addr:state": "IL", "addr:street": "North Canal Street", "amenity": "cafe", "cuisine": "doughnut;doughnuts;american", "name": "Doughnut Vault - Canal St.", "phone": "+1-312-285-2830", "website": "http://doughnutvault.com/"}}, {"type": "node", "id": 6290950496, "lat": 41.8811451, "lon": -87.6267921, "tags": {"addr:city": "Chicago", "addr:housenumber": "30", "addr:postcode": "60604", "addr:state": "IL", "addr:street": "South Wabash Avenue", "amenity": "restaurant", "cuisine": "asian", "name": "Flat Top Grill", "phone": "+1-312-726-8400", "website": "http://www.flattopgrill.com/"}}, {"type": "node", "id": 6291534077, "lat": 41.8784343, "lon": -87.6373523, "tags": {"addr:city": "Chicago", "addr:housenumber": "250", "addr:postcode": "60606", "addr:state": "IL", "addr:street": "South Upper Wacker Drive", "amenity": "bar", "name": "Fred & Adolph\u2019s Pub", "website": "https://www.millercoors.com/"}}, {"type": "node", "id": 6291580398, "lat": 41.8841694, "lon": -87.6410082, "tags": {"addr:city": "Chicago", "addr:housenumber": "131", "addr:postcode": "60606", "addr:state": "IL", "addr:street": "North Clinton Street", "amenity": "restaurant", "name": "Frietkoten Belgian Fries & Beer", "phone": "+1-312-575-0306", "website": "https://frenchmarketchicago.com/vendor/frietkoten-belgian-fries-beer/"}}, {"type": "node", "id": 6291760110, "lat": 41.8839588, "lon": -87.6284134, "tags": {"addr:city": "Chicago", "addr:housenumber": "108", "addr:postcode": "60602", "addr:state": "IL", "addr:street": "North State Street", "addr:unit": "B1", "name": "Gayle V\u2019s Best Ever Grilled Cheese", "phone": "+1-312-285-2202", "shop": "bakery", "website": "https://www.gaylevsbestevergrilledcheese.com/"}}, {"type": "node", "id": 6292168198, "lat": 41.8796717, "lon": -87.6267428, "tags": {"addr:city": "Chicago", "addr:housenumber": "24", "addr:postcode": "60603", "addr:state": "IL", "addr:street": "East Adams Street", "amenity": "cafe", "name": "Haifa Cafe", "phone": "+1-312-821-4586"}}, {"type": "node", "id": 6294131205, "lat": 41.8802817, "lon": -87.642302, "tags": {"addr:city": "Chicago", "addr:housenumber": "555", "addr:postcode": "60661", "addr:state": "IL", "addr:street": "West Monroe Street", "name": "Hannah\u2019s Bretzel", "phone": "+1-312-621-1111", "shop": "bakery", "website": "https://www.hannahsbretzel.com/"}}, {"type": "node", "id": 6294137091, "lat": 41.8797231, "lon": -87.6291177, "tags": {"addr:city": "Chicago", "addr:housenumber": "131", "addr:postcode": "60603", "addr:state": "IL", "addr:street": "South Dearborn Street", "name": "Hannah\u2019s Bretzel", "phone": "+1-312-621-1111", "shop": "bakery", "website": "https://www.hannahsbretzel.com/"}}, {"type": "node", "id": 6294279410, "lat": 41.8835361, "lon": -87.6258705, "tags": {"addr:city": "Chicago", "addr:housenumber": "111", "addr:postcode": "60602", "addr:state": "IL", "addr:street": "North Wabash Avenue", "amenity": "restaurant", "cuisine": "cajun;breakfast;lunch;dinner;casual", "name": "Heaven on Seven", "phone": "+1-312-263-6443", "website": "https://www.heavenonseven.com/wabash.html"}}, {"type": "node", "id": 6297652435, "lat": 41.8852417, "lon": -87.6327492, "tags": {"addr:city": "Chicago", "addr:housenumber": "180", "addr:postcode": "60601", "addr:state": "IL", "addr:street": "North LaSalle Street", "amenity": "restaurant", "name": "Nic\u2019s Organic Fast Food"}}, {"type": "node", "id": 6297773055, "lat": 41.880958, "lon": -87.6360198, "tags": {"addr:city": "Chicago", "addr:housenumber": "71", "addr:postcode": "60606", "addr:state": "IL", "addr:street": "South Upper Wacker Drive", "addr:unit": "2nd floor", "amenity": "cafe", "name": "The Exchange"}}, {"type": "node", "id": 6298050969, "lat": 41.8839004, "lon": -87.6274021, "tags": {"addr:city": "Chicago", "addr:housenumber": "111", "addr:postcode": "60602", "addr:state": "IL", "addr:street": "North State Street", "amenity": "bar", "name": "Infield\u2019s", "phone": "+1-312-781-3192"}}, {"type": "node", "id": 6298931653, "lat": 41.8774918, "lon": -87.6331605, "tags": {"addr:city": "Chicago", "addr:housenumber": "175", "addr:postcode": "60604", "addr:state": "IL", "addr:street": "West Jackson Boulevard", "name": "Sopraffina Marketcaffe", "phone": "+1-312-583-1100", "shop": "bakery", "website": "https://www.sopraffina.com/"}}, {"type": "node", "id": 6299447606, "lat": 41.8841132, "lon": -87.6410181, "tags": {"addr:city": "Chicago", "addr:housenumber": "131", "addr:postcode": "60661", "addr:state": "IL", "addr:street": "North Clinton Street", "name": "Pastoral", "phone": "+1-312-454-2200", "shop": "bakery", "website": "https://www.pastoralartisan.com/"}}, {"type": "node", "id": 6300053565, "lat": 41.8779496, "lon": -87.6296439, "tags": {"addr:city": "Chicago", "addr:housenumber": "53", "addr:postcode": "60604", "addr:state": "IL", "addr:street": "West Jackson Boulevard", "amenity": "cafe", "name": "Intelligentsia Coffee", "phone": "+1-312-253-0594", "website": "https://www.intelligentsiacoffee.com/monadnock-coffeebar"}}, {"type": "node", "id": 6300080964, "lat": 41.882318, "lon": -87.635058, "tags": {"addr:city": "Chicago", "addr:housenumber": "1", "addr:postcode": "60606", "addr:state": "IL", "addr:street": "North Franklin Street", "name": "International Sandwich Shop", "phone": "+1-309-333-7071", "shop": "bakery", "website": "https://www.internationalsandwichshop1.com/"}}, {"type": "node", "id": 6300331698, "lat": 41.877094, "lon": -87.6348597, "tags": {"addr:city": "Chicago", "addr:housenumber": "335", "addr:postcode": "60606", "addr:state": "IL", "addr:street": "South Franklin Street", "amenity": "restaurant", "name": "Spotted Monkey", "phone": "+1-312-285-2303", "website": "http://spottedmonkeyeatery.com/"}}, {"type": "node", "id": 6300432356, "lat": 41.8852747, "lon": -87.6336647, "tags": {"addr:city": "Chicago", "addr:housenumber": "169", "addr:postcode": "60606", "addr:state": "IL", "addr:street": "North Wells Street", "amenity": "restaurant", "name": "Pierogi Heaven", "opening_hours": "Sa-Mo 11:00-17:00; Tu-Fr 11:00-19:00", "phone": "+1-312-263-9305", "website": "http://www.pierogiheaven.com/"}}, {"type": "node", "id": 6300473188, "lat": 41.8801106, "lon": -87.6265423, "tags": {"addr:city": "Chicago", "addr:housenumber": "118", "addr:postcode": "60603", "addr:state": "IL", "addr:street": "South Wabash Avenue", "amenity": "restaurant", "name": "Poke Pok\u00e9", "phone": "+1-312-631-3380", "website": "https://www.pokepokechi.com/"}}, {"type": "node", "id": 6300517715, "lat": 41.879109, "lon": -87.6345815, "tags": {"addr:city": "Chicago", "addr:housenumber": "211", "addr:postcode": "60606", "addr:state": "IL", "addr:street": "West Adams Street", "amenity": "fast_food", "brand": "Pret A Manger", "brand:wikidata": "Q2109109", "brand:wikipedia": "en:Pret a Manger", "cuisine": "sandwich", "name": "Pret A Manger", "phone": "+1-312-546-8270", "short_name": "Pret", "takeaway": "yes", "website": "http://www.pret.com/www.pret.com/en-us/"}}, {"type": "node", "id": 6300567230, "lat": 41.8823695, "lon": -87.6403648, "tags": {"addr:city": "Chicago", "addr:housenumber": "500", "addr:postcode": "60661", "addr:state": "IL", "addr:street": "West Madison Street", "amenity": "bar", "name": "Rail Club", "phone": "+1-312-906-3909"}}, {"type": "node", "id": 6300809815, "lat": 41.8816626, "lon": -87.6321635, "tags": {"addr:city": "Chicago", "addr:housenumber": "11", "addr:postcode": "60603", "addr:state": "IL", "addr:street": "South LaSalle Street", "amenity": "restaurant", "name": "Roanoke Restaurant", "phone": "+1-312-940-3760", "website": "https://www.marriott.com/hotels/hotel-information/restaurant/chirl-residence-inn-chicago-downtown-loop/"}}, {"type": "node", "id": 6300994446, "lat": 41.886084, "lon": -87.6276358, "tags": {"addr:city": "Chicago", "addr:housenumber": "201", "addr:postcode": "60601", "addr:state": "IL", "addr:street": "North State Street", "amenity": "bar", "name": "ROOF on theWit"}}, {"type": "node", "id": 6301024848, "lat": 41.8808104, "lon": -87.6376882, "tags": {"addr:city": "Chicago", "addr:housenumber": "30", "addr:postcode": "60606", "addr:state": "IL", "addr:street": "South Upper Wacker Drive", "amenity": "restaurant", "name": "Rivers", "phone": "+1-312-559-1515", "website": "http://www.riversrestaurant.com/"}}, {"type": "node", "id": 6301043909, "lat": 41.8818247, "lon": -87.6320023, "tags": {"addr:city": "Chicago", "addr:housenumber": "135", "addr:postcode": "60603", "addr:state": "IL", "addr:street": "West Madison Street", "amenity": "restaurant", "name": "Roanoke Restaurant", "phone": "+1-312-940-3760", "website": "https://www.theroanokerestaurant.com/"}}, {"type": "node", "id": 6301075866, "lat": 41.8829726, "lon": -87.6290966, "tags": {"addr:city": "Chicago", "addr:housenumber": "33", "addr:postcode": "60602", "addr:state": "IL", "addr:street": "North Dearborn Street", "amenity": "restaurant", "name": "Roti Modern Mediterranean", "phone": "+1-312-263-9000", "website": "https://roti.com/locations/"}}, {"type": "node", "id": 6301151040, "lat": 41.8800833, "lon": -87.6390423, "tags": {"addr:city": "Chicago", "addr:housenumber": "120", "addr:postcode": "60606", "addr:state": "IL", "addr:street": "South Riverside Plaza", "amenity": "fast_food", "brand": "Pret A Manger", "brand:wikidata": "Q2109109", "brand:wikipedia": "en:Pret a Manger", "cuisine": "sandwich", "name": "Pret A Manger", "phone": "+1-312-873-0485", "short_name": "Pret", "takeaway": "yes", "website": "http://www.pret.com/www.pret.com/en-us/"}}, {"type": "node", "id": 6301239848, "lat": 41.8817576, "lon": -87.632878, "tags": {"addr:city": "Chicago", "addr:housenumber": "10", "addr:postcode": "60603", "addr:state": "IL", "addr:street": "South LaSalle Street", "amenity": "cafe", "brand": "Peet's Coffee", "brand:wikidata": "Q1094101", "brand:wikipedia": "en:Peet's Coffee", "cuisine": "coffee_shop", "name": "Peet's Coffee", "phone": "+1-312-489-5076", "takeaway": "yes", "website": "https://www.peets.com/"}}, {"type": "node", "id": 6301683671, "lat": 41.8837982, "lon": -87.6395113, "tags": {"addr:city": "Chicago", "addr:housenumber": "111", "addr:postcode": "60606", "addr:state": "IL", "addr:street": "North Canal Street", "name": "Steffens Cafe & Bakery", "phone": "+1-312-454-1474", "shop": "bakery"}}, {"type": "node", "id": 6301768213, "lat": 41.8822424, "lon": -87.6303602, "tags": {"addr:city": "Chicago", "addr:housenumber": "70", "addr:postcode": "60602", "addr:state": "IL", "addr:street": "West Madison Street", "amenity": "bar", "name": "Stock and Ledger Kitchen & Spirits", "phone": "+1-312-754-0395", "website": "https://www.stockandledger.com/"}}, {"type": "node", "id": 6301774271, "lat": 41.88294, "lon": -87.6340598, "tags": {"addr:city": "Chicago", "addr:housenumber": "40", "addr:postcode": "60606", "addr:state": "IL", "addr:street": "North Wells Street", "amenity": "bar", "name": "Stocks and Blondes", "phone": "+1-312-372-3725"}}, {"type": "node", "id": 6301965552, "lat": 41.8771477, "lon": -87.6427944, "tags": {"addr:city": "Chicago", "addr:housenumber": "328", "addr:postcode": "60661", "addr:state": "IL", "addr:street": "South Jefferson Street", "amenity": "cafe", "name": "The Ruin Daily", "phone": "+1-312-929-2707", "website": "https://www.theruindaily.com/"}}, {"type": "node", "id": 6305411826, "lat": 41.8824695, "lon": -87.6298072, "tags": {"addr:city": "Chicago", "addr:housenumber": "10", "addr:postcode": "60602", "addr:state": "IL", "addr:street": "North Dearborn Street", "amenity": "restaurant", "name": "Trattoria No. 10", "phone": "+1-312-984-1718", "website": "http://www.trattoriaten.com/"}}, {"type": "node", "id": 6307072253, "lat": 41.8860864, "lon": -87.6258401, "tags": {"addr:city": "Chicago", "addr:housenumber": "203", "addr:postcode": "60601", "addr:state": "IL", "addr:street": "North Wabash Avenue", "amenity": "bar", "name": "Two Zero Three", "phone": "+1-312-940-4400"}}, {"type": "node", "id": 6315212585, "lat": 41.879186, "lon": -87.6304346, "tags": {"addr:city": "Chicago", "addr:housenumber": "77", "addr:postcode": "60601", "addr:state": "IL", "addr:street": "West Adams Street", "amenity": "restaurant", "name": "The Fat Shallot - Revival Food Hall", "phone": "+1-773-893-0826", "website": "http://thefatshallot.com/"}}, {"type": "node", "id": 6315213374, "lat": 41.8795763, "lon": -87.6374507, "tags": {"addr:city": "Chicago", "addr:housenumber": "150", "addr:postcode": "60606", "addr:state": "IL", "addr:street": "South Lower Wacker Drive", "amenity": "restaurant", "name": "The Fat Shallot Food Truck", "phone": "+1-773-893-0826", "website": "http://thefatshallot.com/"}}, {"type": "node", "id": 6315227259, "lat": 41.8842364, "lon": -87.6410135, "tags": {"addr:city": "Chicago", "addr:housenumber": "131", "addr:postcode": "60661", "addr:state": "IL", "addr:street": "North Clinton Street", "amenity": "restaurant", "name": "The French Lunchbox", "phone": "+1-812-345-2237", "website": "https://www.thefrenchlunchboxchicago.com/"}}, {"type": "node", "id": 6315611570, "lat": 41.8805233, "lon": -87.6302679, "tags": {"addr:city": "Chicago", "addr:housenumber": "71", "addr:postcode": "60603", "addr:state": "IL", "addr:street": "West Monroe Street", "amenity": "restaurant", "name": "The Italian Village Restaurants", "phone": "+1-312-332-7005", "website": "https://italianvillage-chicago.com/"}}, {"type": "node", "id": 6315617879, "lat": 41.8786721, "lon": -87.6386409, "tags": {"addr:city": "Chicago", "addr:housenumber": "222", "addr:postcode": "60606", "addr:state": "IL", "addr:street": "South Riverside Plaza", "amenity": "bar", "level": "-1", "name": "The Junction", "phone": "+1-312-775-9080"}}, {"type": "node", "id": 6315654639, "lat": 41.8797274, "lon": -87.6332456, "tags": {"addr:city": "Chicago", "addr:housenumber": "172", "addr:postcode": "60603", "addr:state": "IL", "addr:street": "West Adams Street", "amenity": "bar", "name": "The Living Room Bar W Chicago City Center", "phone": "+1-312-332-1200", "website": "https://www.marriott.com/hotels/hotel-information/restaurant/chiwc-w-chicago-city-center?program=spg"}}, {"type": "node", "id": 6315665442, "lat": 41.8795838, "lon": -87.6299397, "tags": {"addr:city": "Chicago", "addr:housenumber": "60", "addr:postcode": "60603", "addr:state": "IL", "addr:street": "West Adams Street", "amenity": "restaurant", "name": "The Marq", "phone": "+1-312-600-4434", "website": "https://www.themarqchicago.com/"}}, {"type": "node", "id": 6316598035, "lat": 41.8843022, "lon": -87.640161, "tags": {"addr:city": "Chicago", "addr:housenumber": "130", "addr:postcode": "60661", "addr:state": "IL", "addr:street": "North Canal Street", "amenity": "bar", "name": "Vinny\u2019s Pizza Bar", "outdoor_seating": "yes", "phone": "+1-312-902-1544", "website": "vinnysbar.com"}}, {"type": "node", "id": 6316955696, "lat": 41.8851233, "lon": -87.6423413, "tags": {"addr:city": "Chicago", "addr:housenumber": "161", "addr:postcode": "60661", "addr:state": "IL", "addr:street": "North Jefferson Street", "amenity": "restaurant", "name": "Wishbone", "phone": "+1-312-850-2663", "website": "https://www.wishbonechicago.com/"}}, {"type": "node", "id": 6318866498, "lat": 41.8841677, "lon": -87.6410423, "tags": {"addr:city": "Chicago", "addr:housenumber": "131", "addr:postcode": "60661", "addr:state": "IL", "addr:street": "North Clinton Street", "addr:unit": "St #5", "amenity": "restaurant", "name": "JIAN", "phone": "+1-312-973-8780"}}, {"type": "node", "id": 6319119425, "lat": 41.8830036, "lon": -87.6291369, "tags": {"addr:city": "Chicago", "addr:housenumber": "27", "addr:postcode": "60602", "addr:state": "IL", "addr:street": "West Washington Street", "amenity": "cafe", "name": "Kafenio Lavazza", "phone": "+1-312-977-9971", "website": "http://www.lavazzaespression.com/"}}, {"type": "node", "id": 6320242859, "lat": 41.8786577, "lon": -87.6389762, "tags": {"addr:city": "Chicago", "addr:housenumber": "225", "addr:postcode": "60606", "addr:state": "IL", "addr:street": "South Canal Street", "amenity": "fast_food", "brand": "Pret A Manger", "brand:wikidata": "Q2109109", "brand:wikipedia": "en:Pret a Manger", "cuisine": "sandwich", "name": "Pret A Manger", "phone": "+1-312-207-2101", "short_name": "Pret", "takeaway": "yes", "website": "https://www.pret.com/en-us"}}, {"type": "node", "id": 6320572779, "lat": 41.8776048, "lon": -87.6385644, "tags": {"addr:city": "Chicago", "addr:housenumber": "300", "addr:postcode": "60606", "addr:state": "IL", "addr:street": "South Riverside Plaza", "amenity": "bar", "name": "Little Toasted", "phone": "+1-312-929-2706", "website": "https://littletoasted.com/"}}, {"type": "node", "id": 6320646966, "lat": 41.8778152, "lon": -87.6421162, "tags": {"addr:city": "Chicago", "addr:housenumber": "565", "addr:postcode": "60661", "addr:state": "IL", "addr:street": "West Jackson Boulevard", "amenity": "restaurant", "name": "Lou Mitchell\u2019s Restaurant & Bakery", "outdoor_seating": "no", "phone": "+1-312-462-1056", "website": "http://www.loumitchells.com/"}}, {"type": "node", "id": 6321371838, "lat": 41.8823099, "lon": -87.6404179, "tags": {"addr:city": "Chicago", "addr:housenumber": "500", "addr:postcode": "60661", "addr:state": "IL", "addr:street": "West Madison Street", "amenity": "bar", "name": "Madison Tavern", "phone": "+1-312-559-5101", "website": "madisontavern.com"}}, {"type": "node", "id": 6321385140, "lat": 41.8839218, "lon": -87.6284508, "tags": {"addr:city": "Chicago", "addr:housenumber": "108", "addr:postcode": "60602", "addr:state": "IL", "addr:street": "North State Street", "name": "Magnolia Bakery Chicago", "phone": "+1-312-346-7777", "shop": "bakery", "website": "https://www.magnoliabakery.com/"}}, {"type": "node", "id": 6321985494, "lat": 41.8767589, "lon": -87.6310625, "tags": {"addr:city": "Chicago", "addr:housenumber": "105", "addr:postcode": "60605", "addr:state": "IL", "addr:street": "West Van Buren Street", "amenity": "bar", "name": "Sky-Ride Tap", "phone": "+1-312-939-3340"}}, {"type": "node", "id": 6322022179, "lat": 41.8802211, "lon": -87.6264386, "tags": {"addr:city": "Chicago", "addr:housenumber": "122", "addr:postcode": "60603", "addr:state": "IL", "addr:street": "South Wabash Avenue", "name": "Sugar Bliss Patisserie", "phone": "+1-312-997-5872", "shop": "bakery", "website": "http://www.sugarblisspatisserie.com/"}}, {"type": "node", "id": 6322570530, "lat": 41.8777603, "lon": -87.6428869, "tags": {"addr:city": "Chicago", "addr:housenumber": "601", "addr:postcode": "60661", "addr:state": "IL", "addr:street": "West Jackson Boulevard", "amenity": "cafe", "name": "Meddle Coffee Bar", "phone": "+1-312-631-3553", "website": "https://www.darkmattercoffee.com/pages/about-us"}}, {"type": "node", "id": 6322634588, "lat": 41.8816562, "lon": -87.6302711, "tags": {"addr:city": "Chicago", "addr:housenumber": "25", "addr:postcode": "60603", "addr:state": "IL", "addr:street": "South Clark Street", "name": "Mindy\u2019s Hot Chocolate Bakery", "phone": "+1-773-770-6241", "shop": "bakery", "website": "https://www.revivalfoodhall.com/vendors/hotchocolate-bakery/"}}, {"type": "node", "id": 6322745992, "lat": 41.8860682, "lon": -87.6258495, "tags": {"addr:city": "Chicago", "addr:housenumber": "203", "addr:postcode": "60601", "addr:state": "IL", "addr:street": "North Wabash Avenue", "amenity": "restaurant", "name": "Miss Ricky\u2019s", "phone": "+1-312-940-4777", "website": "https://virginhotels.com/chicago/dine-and-drink/miss-rickys/"}}, {"type": "node", "id": 6322774469, "lat": 41.8789556, "lon": -87.6372277, "tags": {"addr:city": "Chicago", "addr:housenumber": "200", "addr:postcode": "60606", "addr:state": "IL", "addr:street": "South Lower Wacker Drive", "amenity": "cafe", "name": "Mojo Coffee", "phone": "+1-312-631-3881", "website": "https://us.mojo.coffee/"}}, {"type": "node", "id": 6323044230, "lat": 41.8789162, "lon": -87.6309807, "tags": {"addr:city": "Chicago", "addr:housenumber": "218", "addr:postcode": "60604", "addr:state": "IL", "addr:street": "South Clark Street", "amenity": "restaurant", "name": "Native Foods Cafe", "phone": "+1-312-332-6332", "website": "https://www.nativefoods.com/"}}, {"type": "node", "id": 6323164861, "lat": 41.8797785, "lon": -87.6255767, "tags": {"addr:city": "Chicago", "addr:housenumber": "60", "addr:postcode": "60603", "addr:state": "IL", "addr:street": "East Adams Street", "amenity": "cafe", "name": "Nilly Cafe", "phone": "+1-312-358-1470", "website": "http://www.nillycafe.com/"}}, {"type": "node", "id": 6325915076, "lat": 41.8841594, "lon": -87.6410371, "tags": {"addr:city": "Chicago", "addr:housenumber": "131", "addr:postcode": "60606", "addr:state": "IL", "addr:street": "North Clinton Street", "amenity": "cafe", "name": "Vanille Patisserie", "phone": "+1-773-868-4574", "website": "http://www.vanillepatisserie.com/"}}, {"type": "node", "id": 6326048107, "lat": 41.8778971, "lon": -87.6311319, "tags": {"addr:city": "Chicago", "addr:housenumber": "111", "addr:postcode": "60604", "addr:state": "IL", "addr:street": "West Jackson Boulevard", "amenity": "cafe", "name": "Mojo coffee", "phone": "+1-312-631 3881", "website": "https://us.mojo.coffee/collections/locations/products/111-west-jackson"}}, {"type": "node", "id": 6326131418, "lat": 41.8826204, "lon": -87.6394162, "tags": {"addr:city": "Chicago", "addr:housenumber": "2", "addr:postcode": "60606", "addr:state": "IL", "addr:street": "North Riverside Plaza", "amenity": "fast_food", "brand": "Nestl\u00e9 Toll House Caf\u00e9", "brand:wikidata": "Q6997922", "brand:wikipedia": "en:Nestl\u00e9 Toll House Caf\u00e9", "cuisine": "dessert", "name": "Nestl\u00e9 Toll House Caf\u00e9", "phone": "+1-312-655-9131", "takeaway": "yes", "website": "https://nestlecafe.com/"}}, {"type": "node", "id": 6326241834, "lat": 41.8839109, "lon": -87.6283762, "tags": {"addr:city": "Chicago", "addr:housenumber": "108", "addr:postcode": "60602", "addr:state": "IL", "addr:street": "North State Street", "addr:unit": "4", "amenity": "bar", "name": "MacGuffins Bar & Lounge", "website": "https://www.amctheatres.com/food-and-drink/macguffins"}}, {"type": "node", "id": 6326504062, "lat": 41.8829799, "lon": -87.6291674, "tags": {"addr:city": "Chicago", "addr:housenumber": "27", "addr:postcode": "60602", "addr:state": "IL", "addr:street": "West Washington Street", "amenity": "cafe", "name": "Lavazza Espression"}}, {"type": "node", "id": 6326512896, "lat": 41.8842238, "lon": -87.641015, "tags": {"addr:city": "Chicago", "addr:housenumber": "131", "addr:postcode": "60661", "addr:state": "IL", "addr:street": "North Clinton Street", "amenity": "cafe", "name": "Le Cafe du Marche", "website": "https://frenchmarketchicago.com/vendor/le-cafe-du-marche/"}}, {"type": "node", "id": 6407790985, "lat": 41.8808285, "lon": -87.6315066, "tags": {"addr:city": "Chicago", "addr:housenumber": "120", "addr:postcode": "60603", "addr:state": "IL", "addr:street": "West Monroe Street", "amenity": "restaurant", "cuisine": "american;new_american;american_new", "name": "Steadfast at the Gray", "opening_hours": "Mo 09:00-18:00; Tu-Sa 07:00-22:00; Su 07:00-15:30", "phone": "+1-312-801-8899", "website": "https://www.steadfastchicago.com"}}, {"type": "node", "id": 6637767913, "lat": 41.8855797, "lon": -87.6421212, "tags": {"addr:city": "Chicago", "addr:housenumber": "567", "addr:postcode": "60661", "addr:state": "IL", "addr:street": "West Lake Street", "brand": "7-Eleven", "brand:wikidata": "Q259340", "brand:wikipedia": "en:7-Eleven", "name": "7-Eleven", "shop": "convenience"}}, {"type": "node", "id": 6651809301, "lat": 41.8766373, "lon": -87.6333261, "tags": {"addr:city": "Chicago", "addr:housenumber": "400", "addr:postcode": "60605", "addr:state": "IL", "addr:street": "South Financial Place", "amenity": "restaurant", "cuisine": "indian", "name": "Tikka N Curry", "phone": "+1- 312-877-5722", "website": "http://www.tikkancurry.com/"}}, {"type": "node", "id": 6651809302, "lat": 41.8799031, "lon": -87.630505, "tags": {"addr:city": "Chicago", "addr:housenumber": "125", "addr:postcode": "60603", "addr:state": "IL", "addr:street": "South Clark Street", "amenity": "restaurant", "cuisine": "american", "name": "TOMI", "phone": "+1-718-287-3848"}}, {"type": "node", "id": 6651810650, "lat": 41.8766992, "lon": -87.6332724, "tags": {"addr:city": "Chicago", "addr:housenumber": "400", "addr:postcode": "60605", "addr:state": "IL", "addr:street": "South Financial Place", "amenity": "restaurant", "cuisine": "asian", "name": "Chicago Lunchbox", "phone": "+1-773-696-0144", "website": "http://chicagolunchbox.com/"}}, {"type": "node", "id": 6651820194, "lat": 41.88505, "lon": -87.6315652, "tags": {"addr:city": "Chicago", "addr:housenumber": "100", "addr:postcode": "60601", "addr:state": "IL", "addr:street": "West Randolph Street", "amenity": "restaurant", "cuisine": "korean;asian", "name": "City Rock Korean Kitchen", "phone": "+1-312-929-2626", "website": "http://www.eatcityrock.com/"}}, {"type": "node", "id": 6651820282, "lat": 41.8796479, "lon": -87.6303626, "tags": {"addr:city": "Chicago", "addr:housenumber": "125", "addr:postcode": "60603", "addr:state": "IL", "addr:street": "South Clark Street", "amenity": "restaurant", "cuisine": "sandwich", "name": "Danke", "phone": "+1-312-783-4084", "website": "http://www.dankechicago.com/"}}, {"type": "node", "id": 6651839435, "lat": 41.8769761, "lon": -87.6343021, "tags": {"addr:city": "Chicago", "addr:housenumber": "212", "addr:postcode": "60607", "addr:state": "IL", "addr:street": "West Van Buren Street", "amenity": "restaurant", "cuisine": "isreali;middle_eastern;mediterranean", "name": "BenjYehuda - Van Buren", "phone": "+1-312-408-2365", "website": "https://www.benjyehuda.com/"}}, {"type": "node", "id": 6651885854, "lat": 41.8839064, "lon": -87.6274973, "tags": {"addr:city": "Chicago", "addr:housenumber": "111", "addr:postcode": "60602", "addr:state": "IL", "addr:street": "North State Street", "amenity": "restaurant", "cuisine": "mexican", "name": "Frontera Fresco", "phone": "+1-312-781-2955", "website": "https://www.rickbayless.com/restaurants/frontera-fresco/"}}, {"type": "node", "id": 6651889124, "lat": 41.8826128, "lon": -87.6417147, "tags": {"addr:city": "Chicago", "addr:housenumber": "540", "addr:postcode": "60661", "addr:state": "IL", "addr:street": "West Madison Street", "amenity": "restaurant", "name": "The Chow Brothers", "phone": "+1-312-473-2469", "website": "https://www.thechowbrothers.com/"}}, {"type": "node", "id": 6651949788, "lat": 41.8798256, "lon": -87.6305014, "tags": {"addr:city": "Chicago", "addr:housenumber": "125", "addr:postcode": "60603", "addr:state": "IL", "addr:street": "South Clark Street", "amenity": "restaurant", "cuisine": "mexican;tacos", "name": "Antique Taco Chiquito", "phone": "+1-773-770-6195", "website": "http://www.antiquetaco.com/"}}, {"type": "node", "id": 6651956671, "lat": 41.8840766, "lon": -87.6282032, "tags": {"addr:city": "Chicago", "addr:housenumber": "108", "addr:postcode": "60602", "addr:state": "IL", "addr:street": "North State Street", "amenity": "restaurant", "cuisine": "quick_bite;casual", "name": "Farmer's Fridge", "phone": "+1-312-229-0099"}}, {"type": "node", "id": 6689916393, "lat": 41.8778889, "lon": -87.6412808, "tags": {"amenity": "fast_food", "brand": "Potbelly", "brand:wikidata": "Q7234777", "brand:wikipedia": "en:Potbelly Sandwich Shop", "cuisine": "sandwich", "name": "Potbelly", "official_name": "Potbelly Sandwich Works", "takeaway": "yes"}}, {"type": "node", "id": 6831846585, "lat": 41.8855931, "lon": -87.6345626, "tags": {"amenity": "cafe", "internet_access": "wlan", "name": "Big Shoulders Coffee"}}, {"type": "node", "id": 6842452395, "lat": 41.8784391, "lon": -87.6274105, "tags": {"amenity": "fast_food", "brand": "Jimmy John's", "brand:wikidata": "Q1689380", "brand:wikipedia": "en:Jimmy John's", "cuisine": "sandwich", "name": "Jimmy John's", "official_name": "Jimmy John's Gourmet Sandwiches", "takeaway": "yes"}}, {"type": "node", "id": 6842452397, "lat": 41.8806026, "lon": -87.6279907, "tags": {"amenity": "cafe", "brand": "Peet's Coffee", "brand:wikidata": "Q1094101", "brand:wikipedia": "en:Peet's Coffee", "cuisine": "coffee_shop", "internet_access": "wlan", "level": "0", "name": "Peet's Coffee", "takeaway": "yes"}}, {"type": "node", "id": 6876389773, "lat": 41.8795967, "lon": -87.6305634, "tags": {"addr:city": "Chicago", "addr:housenumber": "125", "addr:postcode": "60603", "addr:state": "IL", "addr:street": "South Clark Street", "amenity": "fast_food", "cuisine": "seafood", "name": "Brown Bag Seafood Co."}}, {"type": "node", "id": 6932857335, "lat": 41.8799403, "lon": -87.6347261, "tags": {"addr:city": "Chicago", "addr:housenumber": "227", "addr:postcode": "60606", "addr:state": "IL", "addr:street": "West Monroe Street", "addr:unit": "2nd Floor", "amenity": "food_court", "name": "Rustle & Roux"}}, {"type": "node", "id": 7873577149, "lat": 41.8817361, "lon": -87.6331894, "tags": {"addr:city": "Chicago", "addr:housenumber": "181", "addr:postcode": "60603", "addr:state": "IL", "addr:street": "West Madison Street", "amenity": "cafe", "internet_access": "yes", "name": "Goddess and the Baker", "outdoor_seating": "yes"}}, {"type": "node", "id": 7874385733, "lat": 41.8847974, "lon": -87.6265099, "tags": {"amenity": "fast_food", "brand": "Popeyes", "brand:wikidata": "Q1330910", "brand:wikipedia": "en:Popeyes", "cuisine": "chicken", "name": "Popeyes", "official_name": "Popeyes Louisiana Kitchen", "takeaway": "yes"}}, {"type": "node", "id": 7874385734, "lat": 41.8859081, "lon": -87.6319508, "tags": {"amenity": "fast_food", "brand": "McDonald's", "brand:wikidata": "Q38076", "brand:wikipedia": "en:McDonald's", "cuisine": "burger", "name": "McDonald's", "takeaway": "yes"}}, {"type": "node", "id": 7874385735, "lat": 41.8793756, "lon": -87.6265376, "tags": {"alt_name": "Dunkin' Donuts", "amenity": "fast_food", "brand": "Dunkin'", "brand:wikidata": "Q847743", "brand:wikipedia": "en:Dunkin' Donuts", "cuisine": "donut;coffee_shop", "name": "Dunkin'", "takeaway": "yes"}}, {"type": "node", "id": 7874385736, "lat": 41.8793856, "lon": -87.626602, "tags": {"amenity": "ice_cream", "brand": "Baskin-Robbins", "brand:wikidata": "Q584601", "brand:wikipedia": "en:Baskin-Robbins", "cuisine": "ice_cream", "name": "Baskin-Robbins"}}, {"type": "node", "id": 7874385737, "lat": 41.8783332, "lon": -87.6279082, "tags": {"brand": "7-Eleven", "brand:wikidata": "Q259340", "brand:wikipedia": "en:7-Eleven", "name": "7-Eleven", "shop": "convenience"}}, {"type": "node", "id": 7874385740, "lat": 41.8785968, "lon": -87.627927, "tags": {"amenity": "fast_food", "brand": "Subway", "brand:wikidata": "Q244457", "brand:wikipedia": "en:Subway (restaurant)", "cuisine": "sandwich", "name": "Subway", "takeaway": "yes"}}, {"type": "node", "id": 7874385741, "lat": 41.8779677, "lon": -87.6257923, "tags": {"amenity": "fast_food", "brand": "Potbelly", "brand:wikidata": "Q7234777", "brand:wikipedia": "en:Potbelly Sandwich Shop", "cuisine": "sandwich", "drive_through": "no", "name": "Potbelly", "official_name": "Potbelly Sandwich Works", "takeaway": "yes"}}, {"type": "node", "id": 8094523239, "lat": 41.8819054, "lon": -87.6269154, "tags": {"addr:housenumber": "29", "addr:street": "East Madison Street", "amenity": "cafe", "description": "Japanese cafe: matcha, souffle pancakes, takoyaki", "name": "Hanabusa", "phone": "312-584-0455", "website": "hanabusacafechicago.com"}}, {"type": "node", "id": 8117903931, "lat": 41.8825046, "lon": -87.6406759, "tags": {"addr:city": "Chicago", "addr:housenumber": "500", "addr:postcode": "60661", "addr:state": "IL", "addr:street": "West Madison Street", "alt_name": "Dunkin' Donuts", "amenity": "fast_food", "brand": "Dunkin'", "brand:wikidata": "Q847743", "brand:wikipedia": "en:Dunkin' Donuts", "cuisine": "donut;coffee_shop", "name": "Dunkin'", "takeaway": "yes"}}, {"type": "node", "id": 8118655888, "lat": 41.8783671, "lon": -87.6263498, "tags": {"brand": "7-Eleven", "brand:wikidata": "Q259340", "brand:wikipedia": "en:7-Eleven", "name": "7-Eleven", "shop": "convenience"}}, {"type": "node", "id": 8199121419, "lat": 41.8785438, "lon": -87.6386992, "tags": {"amenity": "fast_food", "brand": "Jersey Mike's Subs", "brand:wikidata": "Q6184897", "brand:wikipedia": "en:Jersey Mike's Subs", "cuisine": "sandwich", "level": "-1", "name": "Jersey Mike's Subs", "short_name": "Jersey Mike's", "takeaway": "yes"}}, {"type": "node", "id": 8199152331, "lat": 41.8790296, "lon": -87.6390801, "tags": {"amenity": "fast_food", "brand": "McDonald's", "brand:wikidata": "Q38076", "brand:wikipedia": "en:McDonald's", "cuisine": "burger", "level": "-1", "name": "McDonald's", "takeaway": "yes"}}, {"type": "node", "id": 8199152333, "lat": 41.8785403, "lon": -87.6389983, "tags": {"amenity": "cafe", "brand": "Starbucks", "brand:wikidata": "Q37158", "brand:wikipedia": "en:Starbucks", "cuisine": "coffee_shop", "level": "-1", "name": "Starbucks", "official_name": "Starbucks Coffee", "takeaway": "yes"}}, {"type": "node", "id": 8199152334, "lat": 41.8785693, "lon": -87.6390212, "tags": {"amenity": "fast_food", "cuisine": "bbq", "level": "-1", "name": "Robinson's"}}, {"type": "node", "id": 8199161223, "lat": 41.8787739, "lon": -87.6387012, "tags": {"level": "-1", "name": "Nuts on Clark", "shop": "confectionery"}}, {"type": "node", "id": 8199161324, "lat": 41.8788848, "lon": -87.638716, "tags": {"alt_name": "Jamba Juice", "amenity": "fast_food", "brand": "Jamba", "brand:wikidata": "Q3088784", "brand:wikipedia": "en:Jamba Juice", "cuisine": "juice", "level": "-1", "name": "Jamba", "takeaway": "yes"}}, {"type": "node", "id": 8199161325, "lat": 41.8789756, "lon": -87.6388434, "tags": {"alt_name": "Dunkin' Donuts", "amenity": "fast_food", "brand": "Dunkin'", "brand:wikidata": "Q847743", "brand:wikipedia": "en:Dunkin' Donuts", "cuisine": "donut;coffee_shop", "level": "-1", "name": "Dunkin'", "takeaway": "yes"}}, {"type": "node", "id": 8199197617, "lat": 41.8788389, "lon": -87.6389909, "tags": {"amenity": "fast_food", "brand": "Chick-fil-A", "brand:wikidata": "Q491516", "brand:wikipedia": "en:Chick-fil-A", "cuisine": "chicken", "level": "-1", "name": "Chick-fil-A", "takeaway": "yes"}}, {"type": "node", "id": 8203095700, "lat": 41.8783101, "lon": -87.6423431, "tags": {"addr:city": "Chicago", "addr:housenumber": "229", "addr:postcode": "60661", "addr:state": "IL", "addr:street": "South Jefferson Street", "name": "Metro Spice Market", "phone": "+1 312-434-2990", "shop": "convenience", "website": "http://www.metrospicemart.com/en/"}}, {"type": "node", "id": 8392342506, "lat": 41.8788731, "lon": -87.6390427, "tags": {"amenity": "fast_food", "brand": "McDonald's", "brand:wikidata": "Q38076", "brand:wikipedia": "en:McDonald's", "cuisine": "burger", "drive_through": "no", "name": "McDonald's", "takeaway": "yes"}}, {"type": "node", "id": 8455167034, "lat": 41.8771069, "lon": -87.6274084, "tags": {"alt_name": "Dunkin' Donuts", "amenity": "fast_food", "brand": "Dunkin'", "brand:wikidata": "Q847743", "brand:wikipedia": "en:Dunkin' Donuts", "cuisine": "donut;coffee_shop", "drive_through": "no", "name": "Dunkin'", "takeaway": "yes"}}, {"type": "node", "id": 8455167035, "lat": 41.8780466, "lon": -87.6292254, "tags": {"alt_name": "Dunkin' Donuts", "amenity": "fast_food", "brand": "Dunkin'", "brand:wikidata": "Q847743", "brand:wikipedia": "en:Dunkin' Donuts", "cuisine": "donut;coffee_shop", "drive_through": "no", "name": "Dunkin'", "takeaway": "yes"}}, {"type": "node", "id": 8847479792, "lat": 41.885868, "lon": -87.6341215, "tags": {"addr:city": "Chicago", "addr:housenumber": "204", "addr:state": "IL", "addr:street": "North Wells Street", "amenity": "restaurant", "cuisine": "burger", "diet:vegan": "only", "diet:vegetarian": "yes", "name": "Stand-Up Burgers", "website": "https://www.standupburgers.com/"}}, {"type": "node", "id": 9093294882, "lat": 41.878728, "lon": -87.6264489, "tags": {"addr:city": "Chicago", "addr:housenumber": "226", "addr:postcode": "60604", "addr:state": "IL", "addr:street": "South Wabash Avenue", "amenity": "restaurant", "cuisine": "pub;pizza", "name": "Exchequer Restaurant & Pub", "phone": "+1-312-939-5633", "website": "https://www.exchequerpub.com"}}, {"type": "node", "id": 9217234406, "lat": 41.8785623, "lon": -87.6390685, "tags": {"amenity": "fast_food", "brand": "Auntie Anne's", "brand:wikidata": "Q4822010", "brand:wikipedia": "en:Auntie Anne's", "cuisine": "pretzel", "name": "Auntie Anne's", "takeaway": "yes"}}, {"type": "node", "id": 9217234407, "lat": 41.8769977, "lon": -87.6335221, "tags": {"amenity": "fast_food", "brand": "Qdoba", "brand:wikidata": "Q1363885", "brand:wikipedia": "en:Qdoba", "cuisine": "mexican", "name": "Qdoba", "official_name": "Qdoba Mexican Grill", "takeaway": "yes"}}, {"type": "node", "id": 9217234408, "lat": 41.8778717, "lon": -87.6339013, "tags": {"amenity": "fast_food", "brand": "Panda Express", "brand:wikidata": "Q1358690", "brand:wikipedia": "en:Panda Express", "cuisine": "chinese", "name": "Panda Express", "takeaway": "yes"}}, {"type": "node", "id": 9217234409, "lat": 41.8782315, "lon": -87.6343836, "tags": {"brand": "7-Eleven", "brand:wikidata": "Q259340", "brand:wikipedia": "en:7-Eleven", "name": "7-Eleven", "shop": "convenience"}}, {"type": "node", "id": 9217234410, "lat": 41.8783496, "lon": -87.6266039, "tags": {"amenity": "restaurant", "cuisine": "asian", "name": "BIBIBOP Asian Grill"}}, {"type": "node", "id": 9217234412, "lat": 41.8783611, "lon": -87.6268279, "tags": {"amenity": "fast_food", "brand": "Just Salad", "brand:wikidata": "Q23091823", "brand:wikipedia": "en:Just Salad", "cuisine": "salad", "name": "Just Salad", "takeaway": "yes"}}, {"type": "node", "id": 9217234413, "lat": 41.8781113, "lon": -87.6268099, "tags": {"amenity": "restaurant", "name": "Beatrix Market"}}, {"type": "node", "id": 9239600319, "lat": 41.8775204, "lon": -87.627393, "tags": {"addr:housenumber": "333", "addr:street": "South State Street", "amenity": "restaurant", "name": "Maharaj Indian Grill"}}, {"type": "node", "id": 9294065235, "lat": 41.8825008, "lon": -87.6408249, "tags": {"amenity": "fast_food", "brand": "Taco Bell", "brand:wikidata": "Q752941", "brand:wikipedia": "en:Taco Bell", "cuisine": "tex-mex", "name": "Taco Bell", "takeaway": "yes"}}, {"type": "node", "id": 9294065236, "lat": 41.8825008, "lon": -87.6407454, "tags": {"amenity": "fast_food", "brand": "Pizza Hut", "brand:wikidata": "Q191615", "brand:wikipedia": "en:Pizza Hut", "cuisine": "pizza", "name": "Pizza Hut Express", "takeaway": "yes"}}, {"type": "node", "id": 9294065237, "lat": 41.8825946, "lon": -87.6409311, "tags": {"amenity": "fast_food", "cuisine": "sandwich", "name": "Great Steak"}}, {"type": "node", "id": 9294065238, "lat": 41.8826018, "lon": -87.6408302, "tags": {"amenity": "fast_food", "brand": "Popeyes", "brand:wikidata": "Q1330910", "brand:wikipedia": "en:Popeyes", "cuisine": "chicken", "name": "Popeyes", "official_name": "Popeyes Louisiana Kitchen", "takeaway": "yes"}}, {"type": "node", "id": 9294065239, "lat": 41.8826075, "lon": -87.6406981, "tags": {"amenity": "fast_food", "brand": "Cinnabon", "brand:wikidata": "Q1092539", "brand:wikipedia": "en:Cinnabon", "cuisine": "dessert", "name": "Cinnabon", "takeaway": "yes"}}, {"type": "node", "id": 9294065240, "lat": 41.8826099, "lon": -87.6405661, "tags": {"amenity": "fast_food", "cuisine": "sandwich", "name": "Halsted Street Deli"}}, {"type": "node", "id": 9294065241, "lat": 41.8824453, "lon": -87.6402741, "tags": {"amenity": "ice_cream", "brand": "TCBY", "brand:wikidata": "Q7669631", "brand:wikipedia": "en:TCBY", "cuisine": "frozen_yogurt", "name": "TCBY", "takeaway": "yes"}}, {"type": "node", "id": 9294100625, "lat": 41.8785792, "lon": -87.6357359}, {"type": "node", "id": 9294100626, "lat": 41.8782378, "lon": -87.6357238}, {"type": "node", "id": 9294100627, "lat": 41.878232, "lon": -87.6360189}, {"type": "node", "id": 9294100628, "lat": 41.8785734, "lon": -87.636031}, {"type": "node", "id": 9294100629, "lat": 41.8782545, "lon": -87.63569, "tags": {"amenity": "fast_food", "brand": "Shake Shack", "brand:wikidata": "Q1058722", "brand:wikipedia": "en:Shake Shack", "cuisine": "burger", "name": "Shake Shack", "takeaway": "yes"}}, {"type": "node", "id": 9294100630, "lat": 41.8783668, "lon": -87.6357027, "tags": {"amenity": "restaurant", "cuisine": "seafood", "name": "Brown Bag Seafood"}}, {"type": "node", "id": 9294100631, "lat": 41.8784661, "lon": -87.6357138, "tags": {"amenity": "fast_food", "cuisine": "donut", "name": "Do-Rite Donuts"}}, {"type": "node", "id": 9294100632, "lat": 41.8777134, "lon": -87.6316585, "tags": {"amenity": "restaurant", "name": "Market Creations"}}, {"type": "node", "id": 9356921009, "lat": 41.8769745, "lon": -87.6330668, "tags": {"amenity": "cafe", "cuisine": "coffee_shop", "name": "Coralie Coffee"}}, {"type": "node", "id": 9396231926, "lat": 41.8856145, "lon": -87.6265173, "tags": {"addr:city": "Chicago", "addr:housenumber": "180", "addr:postcode": "60601", "addr:state": "IL", "addr:street": "North Wabash Avenue", "amenity": "fast_food", "brand": "Panda Express", "brand:wikidata": "Q1358690", "brand:wikipedia": "en:Panda Express", "cuisine": "chinese", "name": "Panda Express", "takeaway": "yes"}}, {"type": "node", "id": 9396244905, "lat": 41.8854061, "lon": -87.6265056, "tags": {"addr:city": "Chicago", "addr:housenumber": "178", "addr:postcode": "60601", "addr:state": "IL", "addr:street": "North Wabash Avenue", "amenity": "fast_food", "brand": "Taco Bell", "brand:wikidata": "Q752941", "brand:wikipedia": "en:Taco Bell", "cuisine": "tex-mex", "drive_through": "no", "name": "Taco Bell", "takeaway": "yes"}}, {"type": "node", "id": 9396244906, "lat": 41.8852383, "lon": -87.6265136, "tags": {"addr:city": "Chicago", "addr:housenumber": "172", "addr:postcode": "60601", "addr:state": "IL", "addr:street": "North Wabash Avenue", "amenity": "fast_food", "brand": "The Halal Guys", "brand:wikidata": "Q10846129", "brand:wikipedia": "en:The Halal Guys", "cuisine": "chicken;falafel;gyros", "diet:halal": "yes", "drive_through": "no", "name": "The Halal Guys", "takeaway": "yes", "website": "https://thehalalguys.com/locations/172-n-wabash-ave-chicago/"}}, {"type": "node", "id": 9396244907, "lat": 41.8846443, "lon": -87.6265217, "tags": {"addr:city": "Chicago", "addr:housenumber": "39", "addr:postcode": "60601", "addr:state": "IL", "addr:street": "East Randolph Street", "air_conditioning": "yes", "amenity": "restaurant", "brand:wikipedia": "en:TCBY", "cuisine": "colombian", "diet:vegan": "yes", "diet:vegetarian": "yes", "level": "0", "name": "Fons", "outdoor_seating": "no", "phone": "+1 312-363-9437", "website": "https://www.havingfons.com/"}}, {"type": "node", "id": 9917673189, "lat": 41.8824967, "lon": -87.6409334, "tags": {"amenity": "fast_food", "brand": "Arby's", "brand:wikidata": "Q630866", "cuisine": "sandwich", "name": "Arby's", "note": "Very limited hours", "takeaway": "yes"}}, {"type": "node", "id": 9917673191, "lat": 41.8826144, "lon": -87.6400178, "tags": {"amenity": "restaurant", "cuisine": "mediterranean;middle_eastern", "name": "Benjyehuda"}}, {"type": "node", "id": 9934535840, "lat": 41.8817265, "lon": -87.6280045, "tags": {"brand": "Saks Off 5th", "brand:wikidata": "Q28659083", "name": "Saks Off 5th", "shop": "department_store"}}, {"type": "node", "id": 9970984563, "lat": 41.8833632, "lon": -87.6347937, "tags": {"brand": "Smallcakes", "name": "Smallcakes", "opening_hours": "Mo-Fr 11:00-18:00; Sa 10:00-15:00", "shop": "pastry", "wheelchair": "yes"}}, {"type": "node", "id": 9971098352, "lat": 41.8817898, "lon": -87.6341139, "tags": {"alt_name": "Dunkin' Donuts", "amenity": "fast_food", "brand": "Dunkin'", "cuisine": "donut;coffee_shop", "name": "Dunkin'", "opening_hours": "Mo-Su 05:00-17:00", "outdoor_seating": "yes", "takeaway": "yes", "wheelchair": "yes"}}, {"type": "node", "id": 9971098353, "lat": 41.8817938, "lon": -87.6342216, "tags": {"amenity": "restaurant", "cuisine": "chinese", "name": "65 Express", "opening_hours": "Mo-Fr 10:00-19:00; Sa 11:00-16:00", "wheelchair": "yes"}}, {"type": "way", "id": 73747639, "nodes": [873087094, 872697084, 872697087, 873087096, 873087094], "tags": {"addr:city": "Chicago", "addr:housenumber": "327", "addr:postcode": "60604", "addr:state": "IL", "addr:street": "South Plymouth Court", "addr:street:name": "Plymouth", "addr:street:prefix": "South", "addr:street:type": "Court", "amenity": "restaurant", "building": "yes", "building:levels": "3", "chicago:building_id": "814820", "name": "Plymouth Rooftop Bar & Grill", "phone": "+1-312-362-1212", "website": "http://plymouthgrill.com/"}}, {"type": "way", "id": 114824291, "nodes": [1299823045, 2391120253, 1299823028, 1609576464, 1299823014, 2440004168, 1299823036, 1299823045], "tags": {"addr:city": "Chicago", "addr:housenumber": "101-137", "addr:postcode": "60602", "addr:state": "IL", "addr:street": "North State Street", "addr:street:name": "State", "addr:street:prefix": "North", "addr:street:type": "Street", "brand": "Macy's", "brand:wikidata": "Q629269", "brand:wikipedia": "en:Macy's", "building": "retail", "building:levels": "13", "building:use": "shop", "chicago:building_id": "354383", "name": "Macy's", "old_name": "Marshall Field's", "shop": "department_store", "wikidata": "Q6773573", "wikipedia": "en:Marshall Field and Company Building"}}, {"type": "way", "id": 147398360, "nodes": [1606229404, 1606229381, 1606229365, 1606229390, 1606229363, 1606229404], "tags": {"addr:housenumber": "205", "addr:postcode": "60606", "addr:street": "West Lake Street", "addr:street:name": "Lake", "addr:street:prefix": "West", "addr:street:type": "Street", "amenity": "pub", "building": "yes", "building:levels": "4", "chicago:building_id": "814357", "name": "Monk's Pub"}}, {"type": "way", "id": 147482998, "nodes": [1388390184, 1606983512, 1606983511, 1606983510, 1388390121, 1388390184], "tags": {"addr:city": "Chicago", "addr:housenumber": "71", "addr:postcode": "60603", "addr:state": "IL", "addr:street": "West Monroe Street", "addr:street:name": "Monroe", "addr:street:prefix": "West", "addr:street:type": "Street", "amenity": "restaurant", "building": "retail", "building:levels": "3", "chicago:building_id": "814640", "cuisine": "italian", "name": "Italian VIllage"}}, {"type": "way", "id": 148164102, "nodes": [1612636787, 1612636786, 1612636775, 1612636792, 1612636747, 1612636787], "tags": {"addr:city": "Chicago", "addr:housenumber": "30", "addr:postcode": "60603", "addr:state": "IL", "addr:street": "South Wabash Avenue", "addr:street:name": "Monroe", "addr:street:prefix": "East", "addr:street:type": "Street", "amenity": "restaurant", "building": "office", "chicago:building_id": "880580", "cuisine": "asian", "name": "Flat Top Grill"}}, {"type": "way", "id": 148680453, "nodes": [1617623482, 1617623569, 1617623583, 1617623591, 1617623482], "tags": {"addr:city": "Chicago", "addr:housenumber": "160", "addr:postcode": "60606", "addr:state": "IL", "addr:street": "North Franklin Street", "addr:street:name": "Franklin", "addr:street:prefix": "North", "addr:street:type": "Street", "amenity": "pub", "building": "office", "chicago:building_id": "880168", "name": "Tradition Bar & Grille"}}, {"type": "way", "id": 148910721, "nodes": [1619741205, 1619741206, 1619741183, 1619741182, 1619741205], "tags": {"addr:city": "Chicago", "addr:housenumber": "601", "addr:postcode": "60661", "addr:state": "IL", "addr:street": "West Adams Street", "addr:street:name": "Adams", "addr:street:prefix": "West", "addr:street:type": "Street", "amenity": "restaurant", "building": "retail", "chicago:building_id": "880231", "cocktails": "yes", "contact:facebook": "tacoluluchicago", "contact:instagram": "tacoluluchicago", "cuisine": "mexican", "delivery": "yes", "diet:gluten_free": "yes", "diet:vegetarian": "yes", "drink:beer": "yes", "email": "admin@tacolulu.com", "name": "Taco Lul\u00fa", "opening_hours": "Mo-Fr 09:00-19:30", "phone": "+1 312-818-2680", "takeaway": "yes", "website": "https://www.tacolulu.com"}}, {"type": "way", "id": 150864783, "nodes": [1637342168, 3368235885, 1637342162, 1637342160, 1637342188, 1637342168], "tags": {"addr:housenumber": "565", "addr:postcode": "60661", "addr:street": "West Jackson Boulevard", "addr:street:name": "Jackson", "addr:street:prefix": "West", "addr:street:type": "Boulevard", "amenity": "restaurant", "building": "yes", "building:levels": "1", "chicago:building_id": "876542", "cuisine": "american", "name": "Lou Mitchell's Restaurant", "name:en": "Lou Mitchell's Restaurant", "opening_hours": "We-Fr 06:00-14:00; Sa,Su 07:00-14:00", "website": "http://www.loumitchellsrestaurant.com/", "wikidata": "Q6685659", "wikipedia": "en:Lou Mitchell's"}}, {"type": "way", "id": 210270813, "nodes": [2203577184, 2203577351, 2203577353, 2203577186, 2203577184], "tags": {"addr:city": "Chicago", "addr:country": "US", "addr:housenumber": "555", "addr:postcode": "60661", "addr:state": "IL", "addr:street": "West Lake Street", "alt_name": "Dunkin' Donuts", "amenity": "fast_food", "brand": "Dunkin'", "brand:wikidata": "Q847743", "brand:wikipedia": "en:Dunkin' Donuts", "building": "retail", "building:levels": "3", "chicago:building_id": "353316", "cuisine": "donut;coffee_shop", "drive_through": "no", "name": "Dunkin'", "takeaway": "yes"}}, {"type": "way", "id": 1007423276, "nodes": [9294100625, 9294100626, 9294100627, 9294100628, 9294100625], "tags": {"amenity": "food_court", "building": "yes", "layer": "-1", "name": "Catalog"}}]}