{"version": 0.6, "generator": "Overpass API 0.7.58.5 b0c4acbb", "osm3s": {"timestamp_osm_base": "2022-09-04T17:58:09Z", "copyright": "The data included in this document is from www.openstreetmap.org. The data is made available under ODbL."}, "elements": [{"type": "node", "id": 660771772, "lat": 41.4035018, "lon": 2.1977649, "tags": {"amenity": "restaurant", "name": "Anormalfood"}}, {"type": "node", "id": 660778318, "lat": 41.403467, "lon": 2.1978397, "tags": {"name": "granel", "shop": "convenience"}}, {"type": "node", "id": 660778771, "lat": 41.402858, "lon": 2.1987158, "tags": {"addr:housenumber": "105", "amenity": "restaurant", "cuisine": "spanish", "name": "braseria xorus"}}, {"type": "node", "id": 660779414, "lat": 41.402675, "lon": 2.1989594, "tags": {"addr:housenumber": "99", "addr:street": "Ramble de Poblenou", "amenity": "bar", "name": "Bar Burgales"}}, {"type": "node", "id": 660784487, "lat": 41.4027269, "lon": 2.1989008, "tags": {"amenity": "restaurant", "name": "La broqueta"}}, {"type": "node", "id": 660784488, "lat": 41.4027071, "lon": 2.1989239, "tags": {"addr:housenumber": "101", "amenity": "restaurant", "cuisine": "indian", "name": "Sitar"}}, {"type": "node", "id": 660784489, "lat": 41.4023418, "lon": 2.1991561, "tags": {"brand": "Mercadona", "brand:wikidata": "Q377705", "brand:wikipedia": "es:Mercadona", "name": "Mercadona", "opening_hours:covid19": "open", "operator": "Mercadona", "shop": "supermarket", "website": "https://www.mercadona.es"}}, {"type": "node", "id": 2085656651, "lat": 41.4027075, "lon": 2.1977649, "tags": {"addr:city": "Barcelona", "addr:housenumber": "178", "addr:postcode": "08005", "addr:street": "Carrer de Pere IV", "amenity": "restaurant", "cuisine": "japanese", "name": "Arce", "phone": "+34 93 309 86 75"}}, {"type": "node", "id": 2192226738, "lat": 41.4034935, "lon": 2.1960697, "tags": {"amenity": "restaurant", "cuisine": "pizza", "name": "L'Aldil\u00e0"}}, {"type": "node", "id": 2193095318, "lat": 41.4043344, "lon": 2.1967134, "tags": {"amenity": "restaurant", "name": "Can Pizza"}}, {"type": "node", "id": 2193095414, "lat": 41.402733, "lon": 2.1969736, "tags": {"addr:city": "Barcelona", "addr:street": "Carrer de la Llacuna", "amenity": "restaurant", "cuisine": "spanish", "name": "Braseria Julian"}}, {"type": "node", "id": 2193095435, "lat": 41.4026626, "lon": 2.1971936, "tags": {"addr:city": "Barcelona", "amenity": "restaurant", "cuisine": "spanish", "name": "Llacuna"}}, {"type": "node", "id": 2193095440, "lat": 41.4027631, "lon": 2.1988499, "tags": {"addr:housenumber": "103", "addr:street": "Ramble de Poblenou", "amenity": "restaurant", "cuisine": "turkish", "name": "Hitit"}}, {"type": "node", "id": 2193391405, "lat": 41.4045879, "lon": 2.1958203, "tags": {"amenity": "restaurant", "cuisine": "sushi", "name": "3E sushi"}}, {"type": "node", "id": 2193415475, "lat": 41.4035357, "lon": 2.1962709, "tags": {"amenity": "restaurant", "cuisine": "spanish"}}, {"type": "node", "id": 6638904861, "lat": 41.4026914, "lon": 2.1989384, "tags": {"amenity": "restaurant", "name": "L'origen"}}, {"type": "node", "id": 7556637988, "lat": 41.4041586, "lon": 2.1968775, "tags": {"amenity": "bar", "name": "Doncurado"}}, {"type": "node", "id": 7556637989, "lat": 41.4038732, "lon": 2.1971787, "tags": {"amenity": "bar", "name": "SiamoQu\u00e1"}}, {"type": "node", "id": 7556637992, "lat": 41.402687, "lon": 2.1988375, "tags": {"amenity": "bar", "name": "Mexico"}}, {"type": "node", "id": 7556637994, "lat": 41.4026574, "lon": 2.1989656, "tags": {"amenity": "bar", "name": "Vi Tapa"}}, {"type": "node", "id": 7556638085, "lat": 41.4044993, "lon": 2.1964618, "tags": {"name": "El Bon Peix", "shop": "seafood"}}, {"type": "node", "id": 7556638086, "lat": 41.4044202, "lon": 2.1965577, "tags": {"name": "Vinalium", "shop": "alcohol"}}, {"type": "node", "id": 7556638088, "lat": 41.4026167, "lon": 2.1989022, "tags": {"amenity": "restaurant", "name": "Giuletta"}}, {"type": "node", "id": 7556638089, "lat": 41.402487, "lon": 2.1991727, "tags": {"amenity": "restaurant", "name": "Aita Galicia"}}, {"type": "node", "id": 7556742598, "lat": 41.4033088, "lon": 2.1964188, "tags": {"amenity": "restaurant", "delivery": "only", "name": "Xoubas"}}, {"type": "node", "id": 7556742599, "lat": 41.4035243, "lon": 2.1962293, "tags": {"amenity": "bar", "name": "L'Enxaneta"}}, {"type": "node", "id": 7556742600, "lat": 41.4039082, "lon": 2.1954534, "tags": {"amenity": "bar", "name": "Honest Food"}}, {"type": "node", "id": 7557045996, "lat": 41.4038544, "lon": 2.1973354, "tags": {"amenity": "cafe", "name": "the Cofee Market"}}, {"type": "node", "id": 8046559285, "lat": 41.4023415, "lon": 2.1975419, "tags": {"amenity": "bar", "name": "little ferm"}}, {"type": "node", "id": 8046575685, "lat": 41.4026759, "lon": 2.1977843, "tags": {"amenity": "restaurant", "name": "Norman's"}}, {"type": "node", "id": 9467049252, "lat": 41.4032097, "lon": 2.1982348, "tags": {"name": "Primaprix", "shop": "supermarket"}}]}