{"version": 0.6, "generator": "Overpass API 0.7.58.5 b0c4acbb", "osm3s": {"timestamp_osm_base": "2022-09-01T09:50:01Z", "copyright": "The data included in this document is from www.openstreetmap.org. The data is made available under ODbL."}, "elements": [{"type": "node", "id": 4762934627, "lat": 41.3957301, "lon": 2.1762418, "tags": {"addr:city": "Barcelona", "addr:country": "ES", "addr:housenumber": "35", "addr:postcode": "08010", "addr:street": "Pla\u00e7a de Tetuan", "entrance": "main", "name": "Garriga", "shop": "hairdresser", "wheelchair": "yes"}}, {"type": "node", "id": 5279620846, "lat": 41.3981759, "lon": 2.1794555, "tags": {"addr:housenumber": "723", "addr:street": "Gran V\u00eda de les Corts Catalanes", "name": "Casanovas", "shop": "shoes"}}, {"type": "node", "id": 5279621143, "lat": 41.3980044, "lon": 2.1792385, "tags": {"addr:housenumber": "719", "addr:street": "Gran V\u00eda de les Corts Catalanes", "name": "TEDi", "shop": "variety_store"}}, {"type": "node", "id": 5279622091, "lat": 41.3988258, "lon": 2.1795973, "tags": {"addr:housenumber": "226", "addr:street": "Carrer de Sardenya", "name": "Blessed Art Tattoo", "shop": "tattoo"}}, {"type": "node", "id": 5279622621, "lat": 41.3990893, "lon": 2.179224, "tags": {"addr:housenumber": "232", "addr:street": "Carrer de Sardenya", "name": "Basar Prosper 2", "opening_hours": "Mo-Sa 09:15-21:15", "shop": "variety_store"}}, {"type": "node", "id": 6101403907, "lat": 41.3988279, "lon": 2.1780962, "tags": {"name": "Sheyma", "shop": "hairdresser"}}, {"type": "node", "id": 6326914285, "lat": 41.39771, "lon": 2.1747438, "tags": {"name": "Quetglas", "shop": "shoes"}}]}