{"version": 0.6, "generator": "Overpass API 0.7.58.5 b0c4acbb", "osm3s": {"timestamp_osm_base": "2022-09-12T20:20:17Z", "copyright": "The data included in this document is from www.openstreetmap.org. The data is made available under ODbL."}, "elements": [{"type": "node", "id": 588017801, "lat": 41.4036132, "lon": 2.1616018, "tags": {"address": "Trav Gr\u00e0cia 212", "amenity": "taxi", "capacity": "4", "name": "Travessera-Bail\u00e9n", "website": "www.taxibarcelona.cat"}}, {"type": "node", "id": 876973761, "lat": 41.4066828, "lon": 2.1518689, "tags": {"addr:city": "Barcelona", "addr:housenumber": "221", "addr:postcode": "08012", "addr:street": "C/ Torrent de l'Olla", "amenity": "parking", "name": "Torrent de l'Olla", "name:ca": "Torrent de l'Olla", "name:es": "BSM TORRENTE DE L'OLLA", "parking": "underground"}}, {"type": "node", "id": 907524770, "lat": 41.404736, "lon": 2.1573042, "tags": {"address": "C Or 38", "amenity": "bicycle_parking", "bicycle_parking": "stands", "capacity": "28", "covered": "no", "operator": "http://ajuntament.barcelona.cat/bicicleta/ca", "website": "http://ajuntament.barcelona.cat/bicicleta/ca"}}, {"type": "node", "id": 907524778, "lat": 41.4040119, "lon": 2.1560727, "tags": {"address": "Pl Diamant 1", "amenity": "bicycle_parking", "bicycle_parking": "stands", "capacity": "12", "covered": "no", "operator": "http://ajuntament.barcelona.cat/bicicleta/ca", "website": "http://ajuntament.barcelona.cat/bicicleta/ca"}}, {"type": "node", "id": 907524780, "lat": 41.4028151, "lon": 2.1579308, "tags": {"address": "Pl Revoluci\u00f3 de Setembre 1868 9", "amenity": "bicycle_parking", "bicycle_parking": "stands", "capacity": "12", "covered": "no", "operator": "http://ajuntament.barcelona.cat/bicicleta/ca", "website": "http://ajuntament.barcelona.cat/bicicleta/ca"}}, {"type": "node", "id": 907524782, "lat": 41.4026731, "lon": 2.1579905, "tags": {"access": "yes", "amenity": "parking", "fee": "yes", "layer": "-1", "name": "Parking Pla\u00e7a de la Revoluci\u00f3", "parking": "underground"}}, {"type": "node", "id": 907524783, "lat": 41.4029626, "lon": 2.1572334, "tags": {"address": "C Guilleries 2", "amenity": "bicycle_parking", "bicycle_parking": "stands", "capacity": "24", "covered": "no", "operator": "http://ajuntament.barcelona.cat/bicicleta/ca", "website": "http://ajuntament.barcelona.cat/bicicleta/ca"}}, {"type": "node", "id": 907524787, "lat": 41.4041141, "lon": 2.1581932, "tags": {"address": "C Sant Llu\u00eds 1", "amenity": "bicycle_parking", "bicycle_parking": "stands", "covered": "no", "operator": "http://ajuntament.barcelona.cat/bicicleta/ca", "website": "http://ajuntament.barcelona.cat/bicicleta/ca"}}, {"type": "node", "id": 1345276574, "lat": 41.4033165, "lon": 2.1543397, "tags": {"address": "C Ast\u00faries 30", "amenity": "bicycle_parking", "bicycle_parking": "stands", "capacity": "8", "covered": "no", "operator": "http://ajuntament.barcelona.cat/bicicleta/ca", "website": "http://ajuntament.barcelona.cat/bicicleta/ca"}}, {"type": "node", "id": 1357211196, "lat": 41.4043608, "lon": 2.1585259, "tags": {"amenity": "bicycle_parking", "bicycle_parking": "stands", "capacity": "8", "covered": "no"}}, {"type": "node", "id": 1357211267, "lat": 41.405919, "lon": 2.1503718, "tags": {"address": "Pl Lesseps 2", "amenity": "bicycle_parking", "operator": "http://ajuntament.barcelona.cat/bicicleta/ca", "website": "http://ajuntament.barcelona.cat/bicicleta/ca"}}, {"type": "node", "id": 1368967583, "lat": 41.4014664, "lon": 2.1565363, "tags": {"access": "yes", "amenity": "parking", "fee": "yes", "layer": "-1", "parking": "underground"}}, {"type": "node", "id": 1377225844, "lat": 41.4043587, "lon": 2.1602398, "tags": {"address": "C Bruniquer 14", "amenity": "bicycle_parking", "operator": "http://ajuntament.barcelona.cat/bicicleta/ca", "website": "http://ajuntament.barcelona.cat/bicicleta/ca"}}, {"type": "node", "id": 1377225907, "lat": 41.4001916, "lon": 2.156488, "tags": {"access": "customers", "amenity": "parking", "fee": "yes", "name": "Garaje Principal de Gr\u00e0cia", "parking": "garage"}}, {"type": "node", "id": 1502956406, "lat": 41.4059776, "lon": 2.1628714, "tags": {"address": "C Pi i Margall 1", "amenity": "bicycle_parking", "bicycle_parking": "stands", "mapillary": "B6wF1Ug0VcaBlGxJeoQbsQ", "operator": "http://ajuntament.barcelona.cat/bicicleta/ca", "survey:date": "2017-11-19", "website": "http://ajuntament.barcelona.cat/bicicleta/ca"}}, {"type": "node", "id": 2935116250, "lat": 41.4006909, "lon": 2.1568984, "tags": {"address": "Trav Gr\u00e0cia 145", "amenity": "bicycle_parking", "bicycle_parking": "stands", "capacity": "6", "covered": "no", "operator": "http://ajuntament.barcelona.cat/bicicleta/ca", "website": "http://ajuntament.barcelona.cat/bicicleta/ca"}}, {"type": "node", "id": 2968921888, "lat": 41.4053006, "lon": 2.1633176, "tags": {"access": "yes", "amenity": "parking", "name": "Parking Saripark", "parking": "underground", "wheelchair": "yes"}}, {"type": "node", "id": 3011251308, "lat": 41.4071833, "lon": 2.1567486, "tags": {"access": "customers", "addr:city": "Barcelona", "addr:housenumber": "14", "addr:postcode": "08024", "addr:street": "Carrer de Vilafranca", "amenity": "parking", "fee": "yes", "maxheight": "2.4", "name": "Parking Ramos", "parking": "multi-storey", "supervised": "no"}}, {"type": "node", "id": 3713397787, "lat": 41.4055897, "lon": 2.1624186, "tags": {"address": "C Escorial 1", "amenity": "parking_entrance", "name": "Aparcament Pla\u00e7a Joanic", "parking": "car_sharing", "phone": "+34 932846345", "website": "https://www.aparcamentsbsm.cat"}}, {"type": "node", "id": 4091092757, "lat": 41.4049695, "lon": 2.1610932, "tags": {"access": "yes", "amenity": "parking", "fee": "yes", "parking": "underground"}}, {"type": "node", "id": 4322556796, "lat": 41.4015246, "lon": 2.1571933, "tags": {"address": "C Can\u00f3 3", "amenity": "bicycle_parking", "bicycle_parking": "stands", "capacity": "10", "covered": "no", "operator": "http://ajuntament.barcelona.cat/bicicleta/ca", "website": "http://ajuntament.barcelona.cat/bicicleta/ca"}}, {"type": "node", "id": 4587169037, "lat": 41.4065494, "lon": 2.1520323, "tags": {"access": "yes", "amenity": "parking_entrance", "fee": "yes", "operator": "BSM Torrent de l'Olla", "parking": "underground"}}, {"type": "node", "id": 5106082418, "lat": 41.4072386, "lon": 2.1513045, "tags": {"address": "C Torrent de l'Olla 221", "amenity": "parking", "name": "Aparcament Torrent de l'Olla", "operator": "BSM Torrent de l'Olla", "parking": "car_sharing", "phone": "+34 932180942", "website": "https://www.aparcamentsbsm.cat"}}, {"type": "node", "id": 5106137880, "lat": 41.4088446, "lon": 2.1559563, "tags": {"amenity": "parking", "operator": "Parking Massens y Guell"}}, {"type": "node", "id": 5185527462, "lat": 41.4091558, "lon": 2.1534575, "tags": {"amenity": "parking", "fee": "yes", "name": "Aparcament trav. de Dalt-Park G\u00fcell", "operator": "BSM", "parking": "underground"}}, {"type": "node", "id": 5626112421, "lat": 41.4064651, "lon": 2.1522345, "tags": {"amenity": "charging_station"}}, {"type": "node", "id": 5868762217, "lat": 41.4066062, "lon": 2.1530928, "tags": {"access": "customers", "addr:city": "Barcelona", "addr:postcode": "08012", "addr:street": "Carrer Santa Clotilde", "amenity": "parking_entrance", "description": "Parking para los clientes del Condis", "name": "Parking del Condis"}}, {"type": "node", "id": 6522603386, "lat": 41.409555, "lon": 2.1591174, "tags": {"amenity": "motorcycle_parking"}}, {"type": "node", "id": 6522611285, "lat": 41.409397, "lon": 2.1592647, "tags": {"amenity": "motorcycle_parking"}}, {"type": "node", "id": 6522611286, "lat": 41.4083647, "lon": 2.1600072, "tags": {"amenity": "motorcycle_parking"}}, {"type": "node", "id": 6522611385, "lat": 41.4091536, "lon": 2.1595044, "tags": {"address": "C Escorial 131", "amenity": "bicycle_parking", "operator": "http://ajuntament.barcelona.cat/bicicleta/ca", "website": "http://ajuntament.barcelona.cat/bicicleta/ca"}}, {"type": "node", "id": 6522611386, "lat": 41.4083889, "lon": 2.1602367, "tags": {"amenity": "motorcycle_parking"}}, {"type": "node", "id": 6522611485, "lat": 41.4078383, "lon": 2.1608418, "tags": {"amenity": "motorcycle_parking"}}, {"type": "node", "id": 6933372885, "lat": 41.40548, "lon": 2.15332, "tags": {"address": "C Torrent de l'Olla 183", "amenity": "bicycle_parking", "operator": "http://ajuntament.barcelona.cat/bicicleta/ca", "website": "http://ajuntament.barcelona.cat/bicicleta/ca"}}, {"type": "node", "id": 6933372896, "lat": 41.40195, "lon": 2.15308, "tags": {"address": "C Gran de Gr\u00e0cia 133", "amenity": "bicycle_parking", "bicycle_parking": "stands", "capacity": "10", "covered": "no", "operator": "http://ajuntament.barcelona.cat/bicicleta/ca", "website": "http://ajuntament.barcelona.cat/bicicleta/ca"}}, {"type": "node", "id": 6933487024, "lat": 41.40325, "lon": 2.15583, "tags": {"address": "C Torrent de l'Olla 131", "amenity": "bicycle_parking", "operator": "http://ajuntament.barcelona.cat/bicicleta/ca", "website": "http://ajuntament.barcelona.cat/bicicleta/ca"}}, {"type": "node", "id": 6933487133, "lat": 41.40252, "lon": 2.15439, "tags": {"address": "Trvs Sant Antoni 10", "amenity": "bicycle_parking", "bicycle_parking": "stands", "capacity": "22", "covered": "no", "operator": "http://ajuntament.barcelona.cat/bicicleta/ca", "website": "http://ajuntament.barcelona.cat/bicicleta/ca"}}, {"type": "node", "id": 6933487134, "lat": 41.40271, "lon": 2.15797, "tags": {"address": "Pl Revoluci\u00f3 de Setembre 1868 9", "amenity": "bicycle_parking", "bicycle_parking": "stands", "capacity": "12", "covered": "no", "operator": "http://ajuntament.barcelona.cat/bicicleta/ca", "website": "http://ajuntament.barcelona.cat/bicicleta/ca"}}, {"type": "node", "id": 6933487203, "lat": 41.40582, "lon": 2.15046, "tags": {"address": "C Gran de Gr\u00e0cia 247", "amenity": "bicycle_parking", "operator": "http://ajuntament.barcelona.cat/bicicleta/ca", "website": "http://ajuntament.barcelona.cat/bicicleta/ca"}}, {"type": "node", "id": 6933487451, "lat": 41.40216, "lon": 2.15273, "tags": {"address": "C Gran de Gr\u00e0cia 135", "amenity": "bicycle_parking", "bicycle_parking": "stands", "capacity": "8", "covered": "no", "operator": "http://ajuntament.barcelona.cat/bicicleta/ca", "website": "http://ajuntament.barcelona.cat/bicicleta/ca"}}, {"type": "node", "id": 6933487787, "lat": 41.40545, "lon": 2.16312, "tags": {"address": "C Escorial 12", "amenity": "bicycle_parking", "bicycle_parking": "stands", "capacity": "20", "covered": "no", "operator": "http://ajuntament.barcelona.cat/bicicleta/ca", "website": "http://ajuntament.barcelona.cat/bicicleta/ca"}}, {"type": "node", "id": 6933491022, "lat": 41.40564, "lon": 2.15681, "tags": {"address": "C Rob\u00ed 31", "amenity": "bicycle_parking", "operator": "http://ajuntament.barcelona.cat/bicicleta/ca", "website": "http://ajuntament.barcelona.cat/bicicleta/ca"}}, {"type": "node", "id": 6933491023, "lat": 41.40685, "lon": 2.15523, "tags": {"addr:description": "C Mart\u00ed 24", "amenity": "bicycle_parking", "bicycle_parking": "ground_slots", "covered": "no", "mapillary": "kmCuoGAEzmqxdm6bqnWWDQ", "operator": "http://ajuntament.barcelona.cat/bicicleta/ca", "survey:date": "2018-01-27", "website": "http://ajuntament.barcelona.cat/bicicleta/ca"}}, {"type": "node", "id": 6933491024, "lat": 41.40723, "lon": 2.15556, "tags": {"address": "Pl Nord 7", "amenity": "bicycle_parking", "operator": "http://ajuntament.barcelona.cat/bicicleta/ca", "website": "http://ajuntament.barcelona.cat/bicicleta/ca"}}, {"type": "node", "id": 6933491025, "lat": 41.40769, "lon": 2.15851, "tags": {"address": "Pl Rovira i Trias 9999", "amenity": "bicycle_parking", "operator": "http://ajuntament.barcelona.cat/bicicleta/ca", "website": "http://ajuntament.barcelona.cat/bicicleta/ca"}}, {"type": "node", "id": 6933491026, "lat": 41.40759, "lon": 2.15854, "tags": {"address": "Pl Rovira i Trias 9999", "amenity": "bicycle_parking", "operator": "http://ajuntament.barcelona.cat/bicicleta/ca", "website": "http://ajuntament.barcelona.cat/bicicleta/ca"}}, {"type": "node", "id": 6933491027, "lat": 41.40675, "lon": 2.1617, "tags": {"address": "C Escorial 19", "amenity": "bicycle_parking", "bicycle_parking": "stands", "capacity": "12", "covered": "no", "mapillary": "GcZvAkI792Hmcu-WmExzQA", "operator": "http://ajuntament.barcelona.cat/bicicleta/ca", "survey:date": "2017-11-19", "website": "http://ajuntament.barcelona.cat/bicicleta/ca"}}, {"type": "node", "id": 6933491106, "lat": 41.40529, "lon": 2.15496, "tags": {"address": "C Biada 10", "amenity": "bicycle_parking", "bicycle_parking": "stands", "capacity": "14", "covered": "no", "operator": "http://ajuntament.barcelona.cat/bicicleta/ca", "website": "http://ajuntament.barcelona.cat/bicicleta/ca"}}, {"type": "node", "id": 6933491111, "lat": 41.4063, "lon": 2.15987, "tags": {"address": "C Encarnaci\u00f3 41", "amenity": "bicycle_parking", "operator": "http://ajuntament.barcelona.cat/bicicleta/ca", "website": "http://ajuntament.barcelona.cat/bicicleta/ca"}}, {"type": "node", "id": 6933491129, "lat": 41.40423, "lon": 2.15838, "tags": {"address": "C Sant Llu\u00eds 6", "amenity": "bicycle_parking", "bicycle_parking": "stands", "capacity": "14", "covered": "no", "operator": "http://ajuntament.barcelona.cat/bicicleta/ca", "website": "http://ajuntament.barcelona.cat/bicicleta/ca"}}, {"type": "node", "id": 6933491135, "lat": 41.40159, "lon": 2.15812, "tags": {"address": "Trav Gr\u00e0cia 169", "amenity": "bicycle_parking", "bicycle_parking": "stands", "capacity": "4", "covered": "no", "operator": "http://ajuntament.barcelona.cat/bicicleta/ca", "website": "http://ajuntament.barcelona.cat/bicicleta/ca"}}, {"type": "node", "id": 6933491138, "lat": 41.4057, "lon": 2.16253, "tags": {"address": "C Bruniquer 69", "amenity": "bicycle_parking", "bicycle_parking": "stands", "capacity": "20", "covered": "no", "mapillary": "eZMm_AscxHlfcbH0uEB2Tg", "operator": "http://ajuntament.barcelona.cat/bicicleta/ca", "survey:date": "2017-11-19", "website": "http://ajuntament.barcelona.cat/bicicleta/ca"}}, {"type": "node", "id": 6933492796, "lat": 41.40584, "lon": 2.15695, "tags": {"address": "C Alzina 1", "amenity": "bicycle_parking", "operator": "http://ajuntament.barcelona.cat/bicicleta/ca", "website": "http://ajuntament.barcelona.cat/bicicleta/ca"}}, {"type": "node", "id": 6933492797, "lat": 41.40721, "lon": 2.15551, "tags": {"address": "Pl Nord 8", "amenity": "bicycle_parking", "operator": "http://ajuntament.barcelona.cat/bicicleta/ca", "website": "http://ajuntament.barcelona.cat/bicicleta/ca"}}, {"type": "node", "id": 6933492798, "lat": 41.4071, "lon": 2.1594, "tags": {"address": "C Reig i Bonet 2", "amenity": "bicycle_parking", "operator": "http://ajuntament.barcelona.cat/bicicleta/ca", "website": "http://ajuntament.barcelona.cat/bicicleta/ca"}}, {"type": "node", "id": 6933492811, "lat": 41.40062, "lon": 2.15442, "tags": {"address": "C Gran de Gr\u00e0cia 87", "amenity": "bicycle_parking", "bicycle_parking": "stands", "capacity": "22", "covered": "no", "operator": "http://ajuntament.barcelona.cat/bicicleta/ca", "website": "http://ajuntament.barcelona.cat/bicicleta/ca"}}, {"type": "node", "id": 6933492875, "lat": 41.40707, "lon": 2.1515, "tags": {"address": "C Torrent de l'Olla 219", "amenity": "bicycle_parking", "operator": "http://ajuntament.barcelona.cat/bicicleta/ca", "website": "http://ajuntament.barcelona.cat/bicicleta/ca"}}, {"type": "node", "id": 6933492898, "lat": 41.40101, "lon": 2.15744, "tags": {"address": "Trav Gr\u00e0cia 156", "amenity": "bicycle_parking", "capacity": "10", "operator": "http://ajuntament.barcelona.cat/bicicleta/ca", "website": "http://ajuntament.barcelona.cat/bicicleta/ca"}}, {"type": "node", "id": 6933492969, "lat": 41.4094, "lon": 2.15937, "tags": {"address": "C Escorial 130", "amenity": "bicycle_parking", "bicycle_parking": "stands", "mapillary": "iOuNdAoCEqx_VkHTKvZt8A", "operator": "http://ajuntament.barcelona.cat/bicicleta/ca", "survey:date": "2017-11-19", "website": "http://ajuntament.barcelona.cat/bicicleta/ca"}}, {"type": "node", "id": 6933492975, "lat": 41.40116, "lon": 2.15378, "tags": {"address": "C Gran de Gr\u00e0cia 107", "amenity": "bicycle_parking", "bicycle_parking": "stands", "capacity": "16", "covered": "no", "operator": "http://ajuntament.barcelona.cat/bicicleta/ca", "website": "http://ajuntament.barcelona.cat/bicicleta/ca"}}, {"type": "node", "id": 6933492984, "lat": 41.40737, "lon": 2.15829, "tags": {"address": "C Rabassa 19", "amenity": "bicycle_parking", "operator": "http://ajuntament.barcelona.cat/bicicleta/ca", "website": "http://ajuntament.barcelona.cat/bicicleta/ca"}}, {"type": "node", "id": 6933494077, "lat": 41.40603, "lon": 2.1528, "tags": {"address": "C Torrent de l'Olla 193", "amenity": "bicycle_parking", "operator": "http://ajuntament.barcelona.cat/bicicleta/ca", "website": "http://ajuntament.barcelona.cat/bicicleta/ca"}}, {"type": "node", "id": 6933501122, "lat": 41.40457, "lon": 2.15152, "tags": {"address": "C Gran de Gr\u00e0cia 228", "amenity": "bicycle_parking", "operator": "http://ajuntament.barcelona.cat/bicicleta/ca", "website": "http://ajuntament.barcelona.cat/bicicleta/ca"}}, {"type": "node", "id": 6933501123, "lat": 41.40607, "lon": 2.15184, "tags": {"address": "C Nil Fabra 22", "amenity": "bicycle_parking", "operator": "http://ajuntament.barcelona.cat/bicicleta/ca", "website": "http://ajuntament.barcelona.cat/bicicleta/ca"}}, {"type": "node", "id": 6933502360, "lat": 41.40615, "lon": 2.1497, "tags": {"address": "Pl Lesseps 31", "amenity": "bicycle_parking", "operator": "http://ajuntament.barcelona.cat/bicicleta/ca", "website": "http://ajuntament.barcelona.cat/bicicleta/ca"}}, {"type": "node", "id": 6933502364, "lat": 41.40451, "lon": 2.16322, "tags": {"address": "Pg Sant Joan 206", "amenity": "bicycle_parking", "bicycle_parking": "stands", "capacity": "8", "covered": "no", "operator": "http://ajuntament.barcelona.cat/bicicleta/ca", "website": "http://ajuntament.barcelona.cat/bicicleta/ca"}}, {"type": "node", "id": 6933505025, "lat": 41.4023638, "lon": 2.1527908, "tags": {"address": "C Gran de Gr\u00e0cia 166", "amenity": "bicycle_parking", "bicycle_parking": "stands", "capacity": "20", "covered": "no", "operator": "http://ajuntament.barcelona.cat/bicicleta/ca", "website": "http://ajuntament.barcelona.cat/bicicleta/ca"}}, {"type": "node", "id": 6933505461, "lat": 41.4025, "lon": 2.15822, "tags": {"address": "Pl Revoluci\u00f3 de Setembre 1868 16", "amenity": "bicycle_parking", "bicycle_parking": "stands", "capacity": "24", "covered": "no", "operator": "http://ajuntament.barcelona.cat/bicicleta/ca", "website": "http://ajuntament.barcelona.cat/bicicleta/ca"}}, {"type": "node", "id": 6933505518, "lat": 41.4056, "lon": 2.16079, "tags": {"address": "C Torrent de les Flors 35", "amenity": "bicycle_parking", "operator": "http://ajuntament.barcelona.cat/bicicleta/ca", "website": "http://ajuntament.barcelona.cat/bicicleta/ca"}}, {"type": "node", "id": 6933505551, "lat": 41.40167, "lon": 2.15433, "tags": {"address": "C Montseny 10", "amenity": "bicycle_parking", "bicycle_parking": "stands", "capacity": "8", "covered": "no", "operator": "http://ajuntament.barcelona.cat/bicicleta/ca", "website": "http://ajuntament.barcelona.cat/bicicleta/ca"}}, {"type": "node", "id": 6933509822, "lat": 41.40274, "lon": 2.15488, "tags": {"address": "C Ja\u00e9n 22", "amenity": "bicycle_parking", "operator": "http://ajuntament.barcelona.cat/bicicleta/ca", "website": "http://ajuntament.barcelona.cat/bicicleta/ca"}}, {"type": "node", "id": 6933511628, "lat": 41.40954, "lon": 2.15921, "tags": {"address": "C Escorial 139", "amenity": "bicycle_parking", "bicycle_parking": "stands", "mapillary": "oEYPV-9ypwwQRzn9gD0JPQ", "operator": "http://ajuntament.barcelona.cat/bicicleta/ca", "survey:date": "2017-11-19", "website": "http://ajuntament.barcelona.cat/bicicleta/ca"}}, {"type": "node", "id": 6933521892, "lat": 41.4089, "lon": 2.15704, "tags": {"address": "C Sant Salvador 102", "amenity": "bicycle_parking", "operator": "http://ajuntament.barcelona.cat/bicicleta/ca", "website": "http://ajuntament.barcelona.cat/bicicleta/ca"}}, {"type": "node", "id": 6933522089, "lat": 41.40382, "lon": 2.16169, "tags": {"address": "Trav Gr\u00e0cia 233", "amenity": "bicycle_parking", "operator": "http://ajuntament.barcelona.cat/bicicleta/ca", "website": "http://ajuntament.barcelona.cat/bicicleta/ca"}}, {"type": "node", "id": 6933526497, "lat": 41.40784, "lon": 2.16066, "tags": {"address": "C Escorial 43", "amenity": "bicycle_parking", "operator": "http://ajuntament.barcelona.cat/bicicleta/ca", "website": "http://ajuntament.barcelona.cat/bicicleta/ca"}}, {"type": "node", "id": 6973988495, "lat": 41.40581, "lon": 2.15042, "tags": {"address": "C Gran de Gr\u00e0cia 247", "amenity": "taxi", "website": "www.taxibarcelona.cat"}}, {"type": "node", "id": 6973988497, "lat": 41.40042, "lon": 2.15468, "tags": {"address": "C Gran de Gr\u00e0cia 81", "amenity": "taxi", "website": "www.taxibarcelona.cat"}}, {"type": "node", "id": 6974006592, "lat": 41.4094, "lon": 2.15935, "tags": {"address": "C Escorial 130", "amenity": "taxi", "website": "www.taxibarcelona.cat"}}, {"type": "node", "id": 7020177115, "lat": 41.4022984, "lon": 2.1591719, "tags": {"access": "yes", "amenity": "parking_entrance", "fee": "yes", "name": "Parking NN Travessera", "parking": "garage"}}, {"type": "node", "id": 7438712079, "lat": 41.4092261, "lon": 2.1572583, "tags": {"amenity": "motorcycle_parking"}}, {"type": "node", "id": 7438745251, "lat": 41.4064206, "lon": 2.1601662, "tags": {"amenity": "motorcycle_parking", "capacity": "2", "covered": "no"}}, {"type": "node", "id": 7442324594, "lat": 41.4058323, "lon": 2.1530759, "tags": {"amenity": "motorcycle_parking"}}, {"type": "node", "id": 7442324595, "lat": 41.4059983, "lon": 2.1528855, "tags": {"amenity": "motorcycle_parking"}}, {"type": "node", "id": 7442324600, "lat": 41.4069312, "lon": 2.1518496, "tags": {"amenity": "motorcycle_parking"}}, {"type": "node", "id": 7442324601, "lat": 41.4065468, "lon": 2.1521519, "tags": {"amenity": "motorcycle_parking"}}, {"type": "node", "id": 7442324602, "lat": 41.4067247, "lon": 2.1520828, "tags": {"amenity": "motorcycle_parking"}}, {"type": "node", "id": 7442324606, "lat": 41.4074237, "lon": 2.1514515, "tags": {"amenity": "motorcycle_parking"}}, {"type": "node", "id": 7442385131, "lat": 41.4028964, "lon": 2.1550623, "tags": {"amenity": "motorcycle_parking"}}, {"type": "node", "id": 7442385138, "lat": 41.404351, "lon": 2.1549621, "tags": {"amenity": "motorcycle_parking"}}, {"type": "node", "id": 8346410871, "lat": 41.4029077, "lon": 2.1580061, "tags": {"amenity": "parking_entrance", "foot": "yes", "vehicle": "no"}}, {"type": "node", "id": 9131551860, "lat": 41.4001936, "lon": 2.1565213, "tags": {"access": "yes", "amenity": "parking_entrance", "fee": "yes", "maxheight": "2", "name": "Garatge Principal de Gr\u00e0cia", "parking": "multi-storey"}}, {"type": "node", "id": 9774933372, "lat": 41.4091645, "lon": 2.1537053, "tags": {"amenity": "bicycle_parking"}}]}