{"version": 0.6, "generator": "Overpass API 0.7.58.5 b0c4acbb", "osm3s": {"timestamp_osm_base": "2022-09-06T15:17:24Z", "copyright": "The data included in this document is from www.openstreetmap.org. The data is made available under ODbL."}, "elements": [{"type": "node", "id": 1531724735, "lat": 40.4079921, "lon": -3.6368665, "tags": {"addr:city": "Madrid", "addr:housenumber": "198", "addr:postcode": "28030", "addr:street": "Avenida del Doctor Garc\u00eda Tapia", "brand": "Condis", "brand:wikidata": "Q57417581", "brand:wikipedia": "ca:Condis", "name": "Condis", "shop": "supermarket"}}, {"type": "node", "id": 1585961943, "lat": 40.4003644, "lon": -3.6349445}, {"type": "node", "id": 1585962045, "lat": 40.3998493, "lon": -3.6344277}, {"type": "node", "id": 1585962088, "lat": 40.3999514, "lon": -3.634438}, {"type": "node", "id": 1585962146, "lat": 40.4001257, "lon": -3.6343177}, {"type": "node", "id": 1585962156, "lat": 40.4001135, "lon": -3.6351057}, {"type": "node", "id": 1585962287, "lat": 40.3999269, "lon": -3.6343767}, {"type": "node", "id": 2305247273, "lat": 40.4094963, "lon": -3.641325, "tags": {"amenity": "fast_food", "name": "Churrer\u00eda"}}, {"type": "node", "id": 2380904774, "lat": 40.4094315, "lon": -3.6415744, "tags": {"name": "Quisco prensa", "shop": "kiosk"}}, {"type": "node", "id": 2385172452, "lat": 40.4077507, "lon": -3.6465734, "tags": {"addr:city": "Madrid", "addr:housenumber": "181", "addr:postcode": "28030", "addr:street": "Avenida de Moratalaz", "brand": "Dia", "brand:wikidata": "Q925132", "brand:wikipedia": "es:DIA (supermercados)", "name": "Dia", "shop": "supermarket"}}, {"type": "node", "id": 2385172461, "lat": 40.405586, "lon": -3.6504647, "tags": {"brand": "Carrefour Market", "brand:wikidata": "Q2689639", "brand:wikipedia": "fr:Carrefour Market", "name": "Carrefour Market", "shop": "supermarket"}}, {"type": "node", "id": 2385172463, "lat": 40.4051088, "lon": -3.6458184, "tags": {"brand": "Lidl", "brand:wikidata": "Q151954", "brand:wikipedia": "en:Lidl", "name": "Lidl", "shop": "supermarket"}}, {"type": "node", "id": 2484047241, "lat": 40.3998387, "lon": -3.6469963, "tags": {"amenity": "restaurant", "name": "Spices Cave", "payment:bitcoin": "yes", "website": "https://www.spicescave.com/"}}, {"type": "node", "id": 2615537718, "lat": 40.4049229, "lon": -3.6446789, "tags": {"name": "Prensa", "shop": "kiosk"}}, {"type": "node", "id": 2615545345, "lat": 40.4076045, "lon": -3.6461253, "tags": {"name": "Prensa", "shop": "kiosk"}}, {"type": "node", "id": 2619053417, "lat": 40.4048813, "lon": -3.6442377, "tags": {"addr:city": "Madrid", "addr:housenumber": "32", "addr:postcode": "28030", "addr:street": "Calle de la Ca\u00f1ada", "amenity": "fast_food", "name": "Poller\u00eda La Ca\u00f1ada"}}, {"type": "node", "id": 2628857766, "lat": 40.4075044, "lon": -3.6470811, "tags": {"addr:city": "Madrid", "addr:country": "ES", "addr:housenumber": "155", "addr:postcode": "28030", "addr:street": "Avenida de Moratalaz", "name": "La cocina de San Rom\u00e1n", "shop": "bakery"}}, {"type": "node", "id": 2628857772, "lat": 40.4073257, "lon": -3.6475156, "tags": {"addr:city": "Madrid", "addr:housenumber": "149", "addr:postcode": "28030", "addr:street": "Avenida de Moratalaz", "amenity": "fast_food", "brand": "Domino's", "brand:wikidata": "Q839466", "brand:wikipedia": "en:Domino's Pizza", "cuisine": "pizza", "name": "Domino's", "takeaway": "yes"}}, {"type": "node", "id": 2628857776, "lat": 40.4072746, "lon": -3.6476498, "tags": {"addr:city": "Madrid", "addr:housenumber": "149", "addr:postcode": "28030", "addr:street": "Avenida de Moratalaz", "amenity": "restaurant", "name": "La taberna de Do\u00f1a Jimena"}}, {"type": "node", "id": 2938902557, "lat": 40.4049666, "lon": -3.651133, "tags": {"addr:city": "Madrid", "addr:housenumber": "1", "addr:postcode": "28030", "addr:street": "Calle del Arroyo Fontarr\u00f3n", "name": "Pasteler\u00eda Serramonte", "shop": "bakery"}}, {"type": "node", "id": 2938902563, "lat": 40.4047818, "lon": -3.6499033, "tags": {"addr:city": "Madrid", "addr:housenumber": "6", "addr:postcode": "28030", "addr:street": "Calle de la Hacienda de Pavones", "amenity": "cafe", "name": "Re\u00f1ones"}}, {"type": "node", "id": 2938902568, "lat": 40.4046592, "lon": -3.649627, "tags": {"addr:city": "Madrid", "addr:housenumber": "6", "addr:postcode": "28030", "addr:street": "Calle de la Hacienda de Pavones", "amenity": "restaurant", "cuisine": "sushi", "name": "Mi fresh sushi"}}, {"type": "node", "id": 2939039796, "lat": 40.4043422, "lon": -3.6416026, "tags": {"brand": "Dia", "brand:wikidata": "Q925132", "brand:wikipedia": "es:DIA (supermercados)", "name": "Dia", "shop": "supermarket"}}, {"type": "node", "id": 2939048401, "lat": 40.4071711, "lon": -3.6361638, "tags": {"addr:city": "Madrid", "addr:housenumber": "13", "addr:postcode": "28030", "addr:street": "Calle de Mario Cabr\u00e9", "brand": "Dia", "brand:wikidata": "Q925132", "brand:wikipedia": "es:DIA (supermercados)", "name": "Dia", "shop": "supermarket"}}, {"type": "node", "id": 2939048403, "lat": 40.4078581, "lon": -3.6306193, "tags": {"amenity": "fast_food", "brand": "Burger King", "brand:wikidata": "Q177054", "brand:wikipedia": "en:Burger King", "cuisine": "burger", "name": "Burger King", "takeaway": "yes"}}, {"type": "node", "id": 2941138223, "lat": 40.4035939, "lon": -3.6491964, "tags": {"addr:city": "Madrid", "addr:housenumber": "3", "addr:postcode": "28030", "addr:street": "Calle del Corregidor Alonso de Tobar", "brand": "Dia", "brand:wikidata": "Q925132", "brand:wikipedia": "es:DIA (supermercados)", "name": "Dia", "shop": "supermarket"}}, {"type": "node", "id": 2942098709, "lat": 40.4049753, "lon": -3.6493557, "tags": {"addr:city": "Madrid", "addr:housenumber": "9", "addr:postcode": "28030", "addr:street": "Calle de la Hacienda de Pavones", "shop": "bakery"}}, {"type": "node", "id": 2942098710, "lat": 40.4049018, "lon": -3.6490713, "tags": {"addr:city": "Madrid", "addr:housenumber": "11", "addr:postcode": "28030", "addr:street": "Calle de la Hacienda de Pavones", "amenity": "cafe", "name": "Jos\u00e9 II"}}, {"type": "node", "id": 2943803263, "lat": 40.40702, "lon": -3.6500591, "tags": {"addr:city": "Madrid", "addr:housenumber": "14", "addr:postcode": "28030", "addr:street": "Calle de la Marroquina", "amenity": "pub", "name": "Cervecer\u00eda Mijares"}}, {"type": "node", "id": 2943834914, "lat": 40.407456, "lon": -3.6490157, "tags": {"addr:city": "Madrid", "addr:housenumber": "26", "addr:postcode": "28030", "addr:street": "Calle de la Marroquina", "amenity": "pub", "name": "Las Tapas"}}, {"type": "node", "id": 2943862075, "lat": 40.4077131, "lon": -3.6483629, "tags": {"addr:city": "Madrid", "addr:housenumber": "34", "addr:postcode": "28030", "addr:street": "Calle de la Marroquina", "amenity": "cafe", "name": "Hannover"}}, {"type": "node", "id": 2943862076, "lat": 40.4077596, "lon": -3.6482509, "tags": {"addr:city": "Madrid", "addr:housenumber": "34", "addr:postcode": "28030", "addr:street": "Calle de la Marroquina", "name": "Alimentaci\u00f3n", "shop": "convenience"}}, {"type": "node", "id": 2943968571, "lat": 40.406425, "lon": -3.6497231, "tags": {"addr:city": "Madrid", "addr:housenumber": "125", "addr:postcode": "28030", "addr:street": "Avenida de Moratalaz", "name": "Frutos Secos", "shop": "convenience"}}, {"type": "node", "id": 2943968572, "lat": 40.4063709, "lon": -3.6498451, "tags": {"addr:city": "Madrid", "addr:housenumber": "123", "addr:postcode": "28030", "addr:street": "Avenida de Moratalaz", "name": "Audrey", "shop": "bakery"}}, {"type": "node", "id": 2944066781, "lat": 40.4040909, "lon": -3.6427075, "tags": {"addr:city": "Madrid", "addr:housenumber": "144", "addr:postcode": "28030", "addr:street": "Calle del Pico de los Artilleros", "name": "La tienda de Lourdes", "shop": "convenience"}}, {"type": "node", "id": 2944066790, "lat": 40.4031309, "lon": -3.6443477, "tags": {"addr:city": "Madrid", "addr:housenumber": "124", "addr:postcode": "28030", "addr:street": "Calle de la Hacienda de Pavones", "amenity": "bar", "name": "Crin"}}, {"type": "node", "id": 2944066792, "lat": 40.4029839, "lon": -3.6437375, "tags": {"amenity": "pub", "name": "Eloy"}}, {"type": "node", "id": 2944066793, "lat": 40.4029348, "lon": -3.6436972, "tags": {"name": "Alimentaci\u00f3n", "shop": "convenience"}}, {"type": "node", "id": 2944066794, "lat": 40.4028613, "lon": -3.6436436, "tags": {"addr:city": "Madrid", "addr:housenumber": "140", "addr:postcode": "28030", "addr:street": "Calle de la Hacienda de Pavones", "amenity": "pub", "name": "El Cubano"}}, {"type": "node", "id": 2944066795, "lat": 40.4027694, "lon": -3.6435832, "tags": {"addr:city": "Madrid", "addr:housenumber": "140", "addr:postcode": "28030", "addr:street": "Calle de la Hacienda de Pavones", "name": "Hnos. Guti\u00e9rrez", "shop": "convenience"}}, {"type": "node", "id": 2944066799, "lat": 40.402463, "lon": -3.6433834, "tags": {"addr:city": "Madrid", "addr:housenumber": "136", "addr:postcode": "28030", "addr:street": "Calle de la Hacienda de Pavones", "amenity": "pub", "name": "To\u00f1ete"}}, {"type": "node", "id": 2944066800, "lat": 40.4024354, "lon": -3.6432332, "tags": {"name": "Prensa", "shop": "kiosk"}}, {"type": "node", "id": 2946475519, "lat": 40.4075436, "lon": -3.6492923, "tags": {"name": "Prensa", "shop": "kiosk"}}, {"type": "node", "id": 2946475520, "lat": 40.4075069, "lon": -3.6495981, "tags": {"addr:city": "Madrid", "addr:housenumber": "17", "addr:postcode": "28030", "addr:street": "Calle de la Marroquina", "shop": "bakery"}}, {"type": "node", "id": 2946475521, "lat": 40.4074783, "lon": -3.6496678, "tags": {"addr:city": "Madrid", "addr:housenumber": "17", "addr:postcode": "28030", "addr:street": "Calle de la Marroquina", "name": "Verduras", "shop": "greengrocer"}}, {"type": "node", "id": 2946475522, "lat": 40.4074476, "lon": -3.6497429, "tags": {"addr:city": "Madrid", "addr:housenumber": "17", "addr:postcode": "28030", "addr:street": "Calle de la Marroquina", "amenity": "cafe", "name": "Caf\u00e9 Yagar"}}, {"type": "node", "id": 2946475526, "lat": 40.4073455, "lon": -3.6500058, "tags": {"addr:city": "Madrid", "addr:housenumber": "13", "addr:postcode": "28030", "addr:street": "Calle de la Marroquina", "name": "Pasteler\u00eda La Villa", "shop": "bakery"}}, {"type": "node", "id": 2946476335, "lat": 40.406984, "lon": -3.6508829, "tags": {"addr:city": "Madrid", "addr:housenumber": "7", "addr:postcode": "28030", "addr:street": "Calle de la Marroquina", "amenity": "pub", "name": "Los Arroyos"}}, {"type": "node", "id": 2946476337, "lat": 40.4068329, "lon": -3.6512745, "tags": {"addr:city": "Madrid", "addr:housenumber": "5", "addr:postcode": "28030", "addr:street": "Calle de la Marroquina", "name": "Fruter\u00eda", "shop": "greengrocer"}}, {"type": "node", "id": 2946476339, "lat": 40.4068941, "lon": -3.6511189, "tags": {"addr:city": "Madrid", "addr:housenumber": "3", "addr:postcode": "28030", "addr:street": "Calle de la Marroquina", "name": "Frutos Secos", "shop": "convenience"}}, {"type": "node", "id": 2984665296, "lat": 40.4033387, "lon": -3.637655, "tags": {"addr:city": "Madrid", "addr:housenumber": "82", "addr:postcode": "28030", "addr:street": "Calle de Luis de Hoyos S\u00e1inz", "amenity": "pub", "name": "La Parrilla", "shop": "pub"}}, {"type": "node", "id": 2986193092, "lat": 40.4034091, "lon": -3.6385301, "tags": {"addr:city": "Madrid", "addr:housenumber": "191", "addr:postcode": "28030", "addr:street": "Calle de la Hacienda de Pavones", "amenity": "pub", "name": "Bl\u00e1zquez"}}, {"type": "node", "id": 2986228181, "lat": 40.4030257, "lon": -3.6381081, "tags": {"addr:city": "Madrid", "addr:housenumber": "195", "addr:postcode": "28030", "addr:street": "Calle de la Hacienda de Pavones", "amenity": "pub", "name": "S\u00e1nz"}}, {"type": "node", "id": 2988198502, "lat": 40.4003821, "lon": -3.6338515, "tags": {"name": "Prensa", "shop": "kiosk"}}, {"type": "node", "id": 2990941763, "lat": 40.4017689, "lon": -3.6314005}, {"type": "node", "id": 2990941764, "lat": 40.4015955, "lon": -3.6314303}, {"type": "node", "id": 2990941769, "lat": 40.4017216, "lon": -3.6313054}, {"type": "node", "id": 2990941770, "lat": 40.4017588, "lon": -3.631299}, {"type": "node", "id": 2990941771, "lat": 40.4018695, "lon": -3.6312216}, {"type": "node", "id": 2990941772, "lat": 40.4018901, "lon": -3.631428}, {"type": "node", "id": 2990941773, "lat": 40.4014919, "lon": -3.6314964}, {"type": "node", "id": 2990941774, "lat": 40.401471, "lon": -3.6312869}, {"type": "node", "id": 2990941775, "lat": 40.4015793, "lon": -3.6312683}, {"type": "node", "id": 2990941776, "lat": 40.4017159, "lon": -3.631248}, {"type": "node", "id": 2990963537, "lat": 40.4034416, "lon": -3.6313348, "tags": {"addr:city": "Madrid", "addr:housenumber": "26", "addr:postcode": "28030", "addr:street": "Calle de Valdebernardo", "amenity": "restaurant", "name": "Asador Cruz Nevada"}}, {"type": "node", "id": 2990963538, "lat": 40.4032782, "lon": -3.6313402, "tags": {"addr:city": "Madrid", "addr:housenumber": "24", "addr:postcode": "28030", "addr:street": "Calle de Valdebernardo", "name": "Casa El\u00edas", "shop": "convenience"}}, {"type": "node", "id": 2990963539, "lat": 40.4031536, "lon": -3.6313348, "tags": {"addr:city": "Madrid", "addr:housenumber": "24", "addr:postcode": "28030", "addr:street": "Calle de Valdebernardo", "amenity": "pub", "name": "Casa Manolo"}}, {"type": "node", "id": 2991903269, "lat": 40.4017144, "lon": -3.6282914, "tags": {"addr:city": "Madrid", "addr:housenumber": "1", "addr:postcode": "28030", "addr:street": "Calle de Damasco", "amenity": "pub", "name": "Treinta y una real"}}, {"type": "node", "id": 2998185597, "lat": 40.3995562, "lon": -3.6466877, "tags": {"name": "Prensa", "shop": "kiosk"}}, {"type": "node", "id": 2998185602, "lat": 40.3998401, "lon": -3.6466569, "tags": {"addr:city": "Madrid", "addr:housenumber": "14", "addr:postcode": "28030", "addr:street": "Calle de la Encomienda de Palacios", "amenity": "pub", "name": "Bel\u00e9n"}}, {"type": "node", "id": 2998185603, "lat": 40.4019593, "lon": -3.6466783, "tags": {"name": "Prensa", "shop": "kiosk"}}, {"type": "node", "id": 3005398478, "lat": 40.4079748, "lon": -3.6359009, "tags": {"addr:city": "Madrid", "addr:housenumber": "204", "addr:postcode": "28030", "addr:street": "Avenida del Doctor Garc\u00eda Tapia", "amenity": "restaurant", "name": "Goyo"}}, {"type": "node", "id": 3005398480, "lat": 40.4071016, "lon": -3.6367793, "tags": {"addr:city": "Madrid", "addr:housenumber": "10", "addr:postcode": "28030", "addr:street": "Calle de M\u00e9rida", "name": "UDACO", "shop": "supermarket"}}, {"type": "node", "id": 3005434215, "lat": 40.3981477, "lon": -3.6405048}, {"type": "node", "id": 3005434216, "lat": 40.3982601, "lon": -3.6406276}, {"type": "node", "id": 3005434217, "lat": 40.3983009, "lon": -3.6405606}, {"type": "node", "id": 3005434218, "lat": 40.3981892, "lon": -3.6404409}, {"type": "node", "id": 3005441503, "lat": 40.3973266, "lon": -3.6414296, "tags": {"addr:city": "Madrid", "addr:housenumber": "43", "addr:postcode": "28030", "addr:street": "Calle de la Tacona", "amenity": "pub", "name": "El Rocio"}}, {"type": "node", "id": 3005441504, "lat": 40.3975267, "lon": -3.6418668, "tags": {"addr:city": "Madrid", "addr:housenumber": "23", "addr:postcode": "28030", "addr:street": "Calle de la Tacona", "name": "Murillo", "shop": "convenience"}}, {"type": "node", "id": 4266806990, "lat": 40.4050318, "lon": -3.6330454, "tags": {"addr:street": "Calle de la Fuente Carrantona", "amenity": "pub", "name": "El rinc\u00f3n del tapeo", "smoking": "no"}}, {"type": "node", "id": 4907787920, "lat": 40.4069279, "lon": -3.6392056, "tags": {"amenity": "bar", "name": "El Ca\u00f1\u00f3n"}}, {"type": "node", "id": 4907791321, "lat": 40.4075914, "lon": -3.6395441, "tags": {"addr:postcode": "28030", "amenity": "bar", "name": "Gourmet D'Arty Delicatessen"}}, {"type": "node", "id": 4993941322, "lat": 40.406004, "lon": -3.6424176, "tags": {"addr:city": "Madrid", "addr:housenumber": "163", "addr:postcode": "28030", "addr:street": "Calle del Camino de los Vinateros", "description": "Cortinas y estores", "email": "cortistor@hotmail.es", "name": "Cortistor", "name:es": "Cortistor", "phone": "+34 917725591", "shop": "department_store", "website": "https://www.cortistor.com/"}}, {"type": "node", "id": 5322666420, "lat": 40.3983562, "lon": -3.6406768}, {"type": "node", "id": 5322666421, "lat": 40.3983183, "lon": -3.6406382}, {"type": "node", "id": 5322666422, "lat": 40.3983501, "lon": -3.6405925}, {"type": "node", "id": 5322666423, "lat": 40.3983849, "lon": -3.6406331}, {"type": "node", "id": 5322666450, "lat": 40.3982218, "lon": -3.6404758}, {"type": "node", "id": 5322666474, "lat": 40.4002965, "lon": -3.637136}, {"type": "node", "id": 5322666475, "lat": 40.4003295, "lon": -3.6370891}, {"type": "node", "id": 5322666476, "lat": 40.4003396, "lon": -3.6370962}, {"type": "node", "id": 5322666477, "lat": 40.4003497, "lon": -3.6370732}, {"type": "node", "id": 5322666478, "lat": 40.4003262, "lon": -3.6370502}, {"type": "node", "id": 5322666479, "lat": 40.4003147, "lon": -3.6370626}, {"type": "node", "id": 5322666480, "lat": 40.4003059, "lon": -3.6370546}, {"type": "node", "id": 5322666481, "lat": 40.4003066, "lon": -3.637036}, {"type": "node", "id": 5322666482, "lat": 40.4002716, "lon": -3.6370201}, {"type": "node", "id": 5322666483, "lat": 40.4002318, "lon": -3.637082}, {"type": "node", "id": 5322666484, "lat": 40.4002541, "lon": -3.6371192}, {"type": "node", "id": 5322666485, "lat": 40.4002662, "lon": -3.6371165}, {"type": "node", "id": 5322666486, "lat": 40.4002493, "lon": -3.6373183}, {"type": "node", "id": 5322666487, "lat": 40.4003329, "lon": -3.6372006}, {"type": "node", "id": 5322666489, "lat": 40.4001719, "lon": -3.6371793}, {"type": "node", "id": 5322820240, "lat": 40.3972662, "lon": -3.6413923}, {"type": "node", "id": 5322820241, "lat": 40.3973121, "lon": -3.6413175}, {"type": "node", "id": 5322820242, "lat": 40.397262, "lon": -3.6412585}, {"type": "node", "id": 5322820243, "lat": 40.3972161, "lon": -3.6413349}, {"type": "node", "id": 5322820244, "lat": 40.3966831, "lon": -3.6417339}, {"type": "node", "id": 5322820245, "lat": 40.3967284, "lon": -3.6416545}, {"type": "node", "id": 5322820246, "lat": 40.396644, "lon": -3.6415587}, {"type": "node", "id": 5322820247, "lat": 40.3965995, "lon": -3.64163}, {"type": "node", "id": 5578458025, "lat": 40.3966675, "lon": -3.6415853}, {"type": "node", "id": 5578505156, "lat": 40.3989362, "lon": -3.6433303, "tags": {"brand": "Dia", "brand:wikidata": "Q925132", "brand:wikipedia": "es:DIA (supermercados)", "name": "Dia", "operator": "Dia", "payment:cash": "yes", "payment:coins": "yes", "payment:credit_cards": "yes", "shop": "supermarket"}}, {"type": "node", "id": 5934141046, "lat": 40.4080532, "lon": -3.631459, "tags": {"shop": "kiosk"}}, {"type": "node", "id": 6170276533, "lat": 40.4024357, "lon": -3.6298458, "tags": {"amenity": "restaurant", "name": "Castizo"}}, {"type": "node", "id": 6217490048, "lat": 40.4002317, "lon": -3.6371393}, {"type": "node", "id": 6432597220, "lat": 40.4064451, "lon": -3.6501366, "tags": {"amenity": "restaurant", "name": "Bar Nostrum"}}, {"type": "node", "id": 6432597221, "lat": 40.4065246, "lon": -3.6499396, "tags": {"amenity": "pub", "name": "The Irish Temple"}}, {"type": "node", "id": 6432597222, "lat": 40.4067815, "lon": -3.6502549, "tags": {"name": "Uni Bazar", "shop": "convenience"}}, {"type": "node", "id": 6432597223, "lat": 40.4068581, "lon": -3.6500469, "tags": {"amenity": "bar", "name": "Rubik"}}, {"type": "node", "id": 6432597224, "lat": 40.4069326, "lon": -3.6498735, "tags": {"addr:city": "Madrid", "addr:country": "ES", "addr:housenumber": "12", "addr:postcode": "28030", "addr:street": "Calle de la Marroquina", "amenity": "restaurant", "name": "Taberna Mijares"}}, {"type": "node", "id": 6432597228, "lat": 40.4067766, "lon": -3.6493192, "tags": {"amenity": "pub", "name": "Delorean"}}, {"type": "node", "id": 6432597229, "lat": 40.4071392, "lon": -3.6493574, "tags": {"amenity": "restaurant", "name": "La Jamoteca"}}, {"type": "node", "id": 6432597230, "lat": 40.4069266, "lon": -3.6489385, "tags": {"amenity": "restaurant", "cuisine": "sushi", "name": "Mifreshushi"}}, {"type": "node", "id": 6432597231, "lat": 40.4072478, "lon": -3.6491032, "tags": {"amenity": "restaurant", "name": "Taberna Y Al Vino Vino"}}, {"type": "node", "id": 6432597232, "lat": 40.4070469, "lon": -3.6486531, "tags": {"amenity": "fast_food", "cuisine": "kebab", "name": "Kebab Moratalaz"}}, {"type": "node", "id": 6432597233, "lat": 40.4072881, "lon": -3.6489964, "tags": {"addr:city": "Madrid", "addr:country": "ES", "addr:housenumber": "24", "addr:postcode": "28030", "addr:street": "Calle de la Marroquina", "amenity": "restaurant", "name": "La Birra Es Bella"}}, {"type": "node", "id": 6432597234, "lat": 40.4071992, "lon": -3.6482643, "tags": {"amenity": "restaurant", "name": "Bacchvs"}}, {"type": "node", "id": 6432597235, "lat": 40.4071119, "lon": -3.6494405, "tags": {"amenity": "restaurant", "name": "Cerveceria Gost"}}, {"type": "node", "id": 6432597236, "lat": 40.4067218, "lon": -3.6504133, "tags": {"addr:city": "Madrid", "addr:housenumber": "10", "addr:postcode": "28030", "addr:street": "Calle de la Marroquina", "amenity": "restaurant", "email": "birraycarne@gmail.com", "name": "Moraima", "outdoor_seating": "yes", "phone": "+34 633 87 90 69", "real_ale": "yes", "start_date": "2018", "website": "https://cerveceriasmoraima.com"}}, {"type": "node", "id": 6432597237, "lat": 40.406682, "lon": -3.650514, "tags": {"amenity": "restaurant", "name": "Bar Guacha"}}, {"type": "node", "id": 6432597238, "lat": 40.4065922, "lon": -3.6507202, "tags": {"name": "Don Naranja", "shop": "greengrocer"}}, {"type": "node", "id": 6432597240, "lat": 40.4063532, "lon": -3.6506783, "tags": {"amenity": "pub", "name": "Azul Y Oro"}}, {"type": "node", "id": 6582123737, "lat": 40.4073974, "lon": -3.6486086, "tags": {"addr:city": "Madrid", "addr:housenumber": "28", "addr:postcode": "28030", "addr:street": "Calle de la Marroquina", "amenity": "ice_cream", "name": "Helader\u00eda Roma"}}, {"type": "node", "id": 6582123741, "lat": 40.4089431, "lon": -3.6436651, "tags": {"addr:city": "Madrid", "addr:housenumber": "185", "addr:postcode": "28030", "addr:street": "Avenida de Moratalaz", "amenity": "bar", "name": "Cerveceria La Perla"}}, {"type": "node", "id": 7239592235, "lat": 40.4022291, "lon": -3.6406179, "tags": {"amenity": "cafe", "name": "Pau's Blissful Bakery"}}, {"type": "node", "id": 7239592236, "lat": 40.4024088, "lon": -3.6406917, "tags": {"amenity": "cafe", "name": "Bar Cafe Blazquez"}}, {"type": "node", "id": 7239592238, "lat": 40.4016644, "lon": -3.6428444, "tags": {"amenity": "restaurant", "name": "SabeaPeru"}}, {"type": "node", "id": 7239592245, "lat": 40.404437, "lon": -3.6463908, "tags": {"amenity": "restaurant", "name": "El jard\u00edn secreto"}}, {"type": "node", "id": 7821065491, "lat": 40.4090245, "lon": -3.6435167, "tags": {"addr:postcode": "28030", "name": "Carnicer\u00eda Mago", "phone": "+34 626562733;+34 616784397", "shop": "butcher"}}, {"type": "node", "id": 7821065588, "lat": 40.4094319, "lon": -3.6425028, "tags": {"addr:postcode": "28030", "name": "Fruter\u00eda Frucar", "shop": "greengrocer"}}, {"type": "node", "id": 7821065589, "lat": 40.4090289, "lon": -3.6434908, "tags": {"addr:postcode": "28030", "amenity": "cafe", "name": "Ficafe", "opening_hours": "Mo-Sa 09:00-15:00"}}, {"type": "node", "id": 7821065685, "lat": 40.409688, "lon": -3.641959, "tags": {"addr:postcode": "28030", "amenity": "bar", "name": "Cafeter\u00eda Mayfa"}}, {"type": "node", "id": 7821065785, "lat": 40.4099979, "lon": -3.6418928, "tags": {"addr:postcode": "28030", "amenity": "bar", "name": "La fundici\u00f3n"}}, {"type": "node", "id": 7823820387, "lat": 40.4073318, "lon": -3.6453784, "tags": {"addr:postcode": "28030", "name": "Casa Luna", "shop": "greengrocer"}}, {"type": "node", "id": 7823820485, "lat": 40.4072259, "lon": -3.645558, "tags": {"addr:postcode": "28030", "amenity": "cafe", "name": "Cafeter\u00eda Nibur"}}, {"type": "node", "id": 9815337514, "lat": 40.4078277, "lon": -3.647705, "tags": {"addr:city": "Madrid", "addr:housenumber": "40", "addr:postcode": "28030", "addr:street": "Calle de la Marroquina", "amenity": "pub", "contact:facebook": "https://www.facebook.com/cerveceriainternacionalnorwich", "email": "cerveceriainternacionalnorwich@hotmail.com", "name": "Norwich", "opening_hours": "Mo 18:00-00:00; Tu 18:00-01:00; We,Th 18:00-02:00; Fr 18:00-02:30; Sa 12:00-02:30; Su 12:30-01:00", "phone": "+34 601 06 94 55", "real_ale": "yes"}}, {"type": "node", "id": 9986961129, "lat": 40.4081343, "lon": -3.6316831, "tags": {"addr:city": "Madrid", "addr:housenumber": "155", "addr:street": "Avenida del Doctor Garc\u00eda Tapia", "amenity": "restaurant", "cuisine": "japanese", "name": "Ramen Kagura"}}, {"type": "node", "id": 9986961130, "lat": 40.4081634, "lon": -3.6315597, "tags": {"addr:city": "Madrid", "addr:housenumber": "39", "addr:street": "Calle de la Fuente Carrantona", "name": "Casa Elias", "shop": "supermarket"}}, {"type": "way", "id": 145165402, "nodes": [1585961943, 1585962146, 1585962088, 1585962287, 1585962045, 1585962156, 1585961943], "tags": {"addr:city": "Madrid", "addr:housenumber": "346", "addr:postcode": "28030", "addr:street": "Calle de la Hacienda de Pavones", "brand": "Lidl", "brand:wikidata": "Q151954", "brand:wikipedia": "en:Lidl", "building": "yes", "name": "Lidl", "shop": "supermarket"}}, {"type": "way", "id": 295387908, "nodes": [2990941771, 2990941772, 2990941773, 2990941774, 2990941775, 2990941764, 2990941763, 2990941770, 2990941769, 2990941776, 2990941771], "tags": {"addr:city": "Madrid", "addr:housenumber": "10", "addr:postcode": "28030", "addr:street": "Calle de Valdebernardo", "brand": "Condis", "brand:wikidata": "Q57417581", "building": "yes", "name": "Condis", "shop": "supermarket"}}, {"type": "way", "id": 296734639, "nodes": [3005434215, 3005434216, 3005434217, 5322666450, 3005434218, 3005434215], "tags": {"addr:city": "Madrid", "addr:housenumber": "87", "addr:postcode": "28030", "addr:street": "Calle de la Tacona", "brand": "Condis", "brand:wikidata": "Q57417581", "building": "yes", "name": "Condis", "shop": "supermarket"}}, {"type": "way", "id": 551137476, "nodes": [5322666420, 5322666421, 5322666422, 5322666423, 5322666420], "tags": {"amenity": "bar", "building": "yes"}}, {"type": "way", "id": 551137485, "nodes": [5322666474, 5322666475, 5322666476, 5322666477, 5322666478, 5322666479, 5322666480, 5322666481, 5322666482, 5322666483, 5322666484, 5322666485, 5322666474], "tags": {"amenity": "bar", "building": "yes"}}, {"type": "way", "id": 551137486, "nodes": [5322666486, 5322666487, 6217490048, 5322666489, 5322666486], "tags": {"amenity": "biergarten", "building": "yes"}}, {"type": "way", "id": 551155763, "nodes": [5322820240, 5322820241, 5322820242, 5322820243, 5322820240], "tags": {"amenity": "bar", "building": "yes", "name": "Terraza El Rocio"}}, {"type": "way", "id": 551155764, "nodes": [5322820244, 5322820245, 5578458025, 5322820246, 5322820247, 5322820244], "tags": {"amenity": "bar", "building": "yes"}}]}