{"version": 0.6, "generator": "Overpass API 0.7.58.5 b0c4acbb", "osm3s": {"timestamp_osm_base": "2022-09-04T17:58:09Z", "copyright": "The data included in this document is from www.openstreetmap.org. The data is made available under ODbL."}, "elements": [{"type": "node", "id": 2329426402, "lat": 41.4082453, "lon": 2.1842843, "tags": {"amenity": "bar", "name": "Bodega Marcel Cava-vino"}}, {"type": "node", "id": 4128230391, "lat": 41.4069241, "lon": 2.1848471, "tags": {"addr:housenumber": "558", "addr:street": "Carrer d'Arag\u00f3", "amenity": "bar", "contact:facebook": "https://www.facebook.com/BodegaCarol", "name": "Bodega Carol", "opening_hours": "Tu, We 09:30-15:00, 18:00-22:00; Th 09:30-15:00, 18:00-23:00; Fr 09:30-23:30; Sa 11:30-23:30; Su 12:00-17:00", "phone": "+34 932 45 11 99"}}, {"type": "node", "id": 4727965493, "lat": 41.4079592, "lon": 2.1843217, "tags": {"addr:housenumber": "139", "addr:postcode": "08026", "addr:street": "Carrer dels Enamorats", "amenity": "restaurant", "cuisine": "chinese", "name": "He Cheng", "phone": "+34 932310265"}}, {"type": "node", "id": 4727975191, "lat": 41.408553, "lon": 2.1851353, "tags": {"amenity": "restaurant", "name": "Europa", "name:es": "Europa"}}, {"type": "node", "id": 4727975192, "lat": 41.4083413, "lon": 2.1851911, "tags": {"amenity": "pub", "name": "La Coru\u00f1a", "name:es": "La Coru\u00f1a", "outdoor_seating": "yes"}}, {"type": "node", "id": 5892441486, "lat": 41.4080976, "lon": 2.1855239, "tags": {"addr:housenumber": "10", "addr:street": "Carrer de la Corunya", "amenity": "cafe", "name": "The Catalan Sandwich"}}, {"type": "node", "id": 5892441585, "lat": 41.4080538, "lon": 2.185128, "tags": {"addr:street": "Carrer de la Corunya", "amenity": "restaurant", "name": "Zurich & 7 Ways"}}, {"type": "node", "id": 6122393579, "lat": 41.407557, "lon": 2.1857604, "tags": {"description": "Latin Spain Market", "shop": "convenience"}}, {"type": "node", "id": 6125429032, "lat": 41.4080485, "lon": 2.1840719, "tags": {"amenity": "bar", "name": "Galicia Bar"}}, {"type": "node", "id": 6772044090, "lat": 41.4072089, "lon": 2.1845655, "tags": {"addr:housenumber": "555", "addr:street": "Carrer d'Arag\u00f3", "amenity": "restaurant", "cuisine": "korean;japanese", "internet_access": "wlan", "name": "Wami Ramen"}}, {"type": "node", "id": 6772044091, "lat": 41.4065854, "lon": 2.1847311, "tags": {"addr:housenumber": "263", "addr:street": "Carrer de la Independ\u00e8ncia", "amenity": "cafe", "name": "Las Glorias"}}, {"type": "node", "id": 6772044385, "lat": 41.4073241, "lon": 2.1841877, "tags": {"addr:housenumber": "262", "addr:street": "Carrer de la Independ\u00e8ncia", "amenity": "fast_food", "name": "bao'''s"}}, {"type": "node", "id": 6776776187, "lat": 41.4078452, "lon": 2.1837439, "tags": {"addr:housenumber": "572", "addr:street": "Carrer de Val\u00e8ncia", "name": "La Palmera", "shop": "bakery"}}, {"type": "node", "id": 6776776188, "lat": 41.4082521, "lon": 2.1838243, "tags": {"addr:housenumber": "571", "addr:street": "Carrer de Val\u00e8ncia", "name": "Clic", "shop": "supermarket"}}, {"type": "node", "id": 6786006485, "lat": 41.4074032, "lon": 2.1855966, "tags": {"addr:housenumber": "572-574", "addr:street": "Carrer d'Arag\u00f3", "amenity": "restaurant", "cuisine": "tapas", "name": "1978"}}, {"type": "node", "id": 7200746586, "lat": 41.4073459, "lon": 2.1841521, "tags": {"addr:street": "Carrer dels Enamorats", "amenity": "restaurant", "cuisine": "peruvian", "internet_access": "wlan", "name": "Inka 2"}}, {"type": "node", "id": 7200746587, "lat": 41.4072094, "lon": 2.1845155, "tags": {"addr:housenumber": "555", "addr:street": "Carrer d'Arag\u00f3", "amenity": "restaurant", "cuisine": "japanese;korean", "name": "Wami ramen"}}, {"type": "node", "id": 7200746685, "lat": 41.4073116, "lon": 2.184202, "tags": {"addr:street": "Carrer de la Independ\u00e8ncia", "amenity": "restaurant", "cuisine": "chinese", "internet_access": "wlan", "name": "bao'''s"}}, {"type": "node", "id": 7200746686, "lat": 41.4074101, "lon": 2.1856022, "tags": {"addr:street": "Carrer d'Arag\u00f3", "amenity": "restaurant", "name": "1978"}}]}