{"version": 0.6, "generator": "Overpass API 0.7.58.5 b0c4acbb", "osm3s": {"timestamp_osm_base": "2022-09-06T08:38:53Z", "copyright": "The data included in this document is from www.openstreetmap.org. The data is made available under ODbL."}, "elements": [{"type": "node", "id": 303618633, "lat": 37.3854176, "lon": -5.9729113, "tags": {"amenity": "fast_food", "brand": "Domino's", "brand:wikidata": "Q839466", "brand:wikipedia": "en:Domino's Pizza", "cuisine": "pizza", "name": "Domino's", "takeaway": "yes"}}, {"type": "node", "id": 303618657, "lat": 37.3882256, "lon": -5.972532, "tags": {"amenity": "cafe", "name": "Cafe Bar San Pablo"}}, {"type": "node", "id": 348079292, "lat": 37.3859119, "lon": -5.9866772, "tags": {"addr:city": "Sevilla / Casco Antiguo / San Bartolom\u00e9", "addr:country": "ES", "addr:housenumber": "19", "addr:postcode": "41001", "addr:street": "Calle Santa Mar\u00eda la Blanca", "amenity": "cafe", "name": "Cerveceria Mezquita", "phone": "+34 954 423306"}}, {"type": "node", "id": 366839935, "lat": 37.3893782, "lon": -5.9845627, "tags": {"amenity": "cafe", "old_name": "EVO banco", "wheelchair": "yes"}}, {"type": "node", "id": 366841791, "lat": 37.3859859, "lon": -5.9860999, "tags": {"amenity": "bar", "name": "Taberna El papel\u00f3n"}}, {"type": "node", "id": 445370428, "lat": 37.381381, "lon": -5.9794179, "tags": {"name": "MAS", "operator": "Mas", "shop": "supermarket"}}, {"type": "node", "id": 571957680, "lat": 37.3835018, "lon": -5.9727823}, {"type": "node", "id": 571957686, "lat": 37.3834101, "lon": -5.9718782}, {"type": "node", "id": 571957697, "lat": 37.3851686, "lon": -5.9716971}, {"type": "node", "id": 571957699, "lat": 37.3852227, "lon": -5.9724256}, {"type": "node", "id": 571957700, "lat": 37.3852135, "lon": -5.9723603}, {"type": "node", "id": 571957702, "lat": 37.3852571, "lon": -5.9723523}, {"type": "node", "id": 571957703, "lat": 37.3863838, "lon": -5.9722466}, {"type": "node", "id": 571957704, "lat": 37.3862714, "lon": -5.9711573}, {"type": "node", "id": 571957710, "lat": 37.3869057, "lon": -5.9717397}, {"type": "node", "id": 571957711, "lat": 37.3869485, "lon": -5.9721543}, {"type": "node", "id": 571957713, "lat": 37.3872152, "lon": -5.9716891}, {"type": "node", "id": 571957715, "lat": 37.3871456, "lon": -5.9710144}, {"type": "node", "id": 573253953, "lat": 37.3770565, "lon": -5.9775291}, {"type": "node", "id": 631339500, "lat": 37.3931413, "lon": -5.9815793, "tags": {"brand": "Supersol", "brand:wikidata": "Q62073427", "name": "Supersol", "shop": "supermarket"}}, {"type": "node", "id": 631339502, "lat": 37.3916239, "lon": -5.9813217, "tags": {"shop": "supermarket"}}, {"type": "node", "id": 631339524, "lat": 37.3917542, "lon": -5.9786712, "tags": {"amenity": "restaurant", "name": "Carlos Alberto", "wheelchair": "limited"}}, {"type": "node", "id": 631339541, "lat": 37.3926213, "lon": -5.9804742, "tags": {"addr:housenumber": "20", "addr:postcode": "41003", "addr:street": "Calle Jos\u00e9 Laguillo", "amenity": "restaurant", "cuisine": "chinese", "internet_access": "wlan", "name": "kindo", "name:en": "King Do", "name:es": "King Do", "name:zh": "\u91d1\u90fd\u9152\u6a13", "phone": "+34954421113"}}, {"type": "node", "id": 747701977, "lat": 37.3904326, "lon": -5.984255, "tags": {"amenity": "restaurant", "name": "Becerrita"}}, {"type": "node", "id": 747728241, "lat": 37.3924497, "lon": -5.979126, "tags": {"amenity": "restaurant"}}, {"type": "node", "id": 747728282, "lat": 37.3925023, "lon": -5.979434, "tags": {"amenity": "bar", "name": "Kiki"}}, {"type": "node", "id": 747729256, "lat": 37.3917933, "lon": -5.9787159, "tags": {"amenity": "bar"}}, {"type": "node", "id": 748562645, "lat": 37.39283, "lon": -5.9835362, "tags": {"brand": "Dia Market", "brand:wikidata": "Q925132", "brand:wikipedia": "es:Supermercados DIA", "name": "Dia Market", "shop": "supermarket"}}, {"type": "node", "id": 748575154, "lat": 37.3931175, "lon": -5.9808359, "tags": {"amenity": "bar", "name": "Bar las ni\u00f1as"}}, {"type": "node", "id": 748576287, "lat": 37.3926401, "lon": -5.9824452, "tags": {"amenity": "pub", "name": "Taberna El papel\u00f3n"}}, {"type": "node", "id": 748578120, "lat": 37.392785, "lon": -5.9832284, "tags": {"amenity": "bar", "name": "Vitrubio"}}, {"type": "node", "id": 748578532, "lat": 37.3928191, "lon": -5.9834001, "tags": {"amenity": "bar", "name": "darthe"}}, {"type": "node", "id": 754122804, "lat": 37.3898083, "lon": -5.9742209, "tags": {"amenity": "fast_food", "brand": "Burger King", "brand:wikidata": "Q177054", "brand:wikipedia": "es:Burger King", "cuisine": "burger", "name": "Burger King", "opening_hours": "Fr-Sa 12:30-00:30; Su-Th 12:30-23:30", "takeaway": "yes"}}, {"type": "node", "id": 760376655, "lat": 37.3787279, "lon": -5.9895207, "tags": {"amenity": "restaurant", "name": "La Raza", "website": "https://www.grupolaraza.com/index.php/la-raza-restaurante/"}}, {"type": "node", "id": 797670452, "lat": 37.3877763, "lon": -5.9819761, "tags": {"brand": "Maxi Dia", "brand:wikidata": "Q925132", "brand:wikipedia": "es:Supermercados DIA", "name": "Maxi Dia", "shop": "supermarket"}}, {"type": "node", "id": 837160634, "lat": 37.3767341, "lon": -5.9803391, "tags": {"operator": "Mas", "shop": "supermarket"}}, {"type": "node", "id": 837160636, "lat": 37.3830302, "lon": -5.9801353, "tags": {"amenity": "bar"}}, {"type": "node", "id": 837161114, "lat": 37.3812829, "lon": -5.9864001, "tags": {"amenity": "restaurant", "name": "Hoster\u00eda del Prado"}}, {"type": "node", "id": 837161116, "lat": 37.3816576, "lon": -5.9861756, "tags": {"amenity": "cafe"}}, {"type": "node", "id": 841780701, "lat": 37.3785498, "lon": -5.9905386, "tags": {"amenity": "pub", "name": "Casino Terraza"}}, {"type": "node", "id": 842633192, "lat": 37.3749909, "lon": -5.976769}, {"type": "node", "id": 842633194, "lat": 37.3773673, "lon": -5.9776044}, {"type": "node", "id": 842633228, "lat": 37.3769563, "lon": -5.9769058}, {"type": "node", "id": 842633236, "lat": 37.3770711, "lon": -5.9773336}, {"type": "node", "id": 842633262, "lat": 37.3779887, "lon": -5.9835155, "tags": {"amenity": "restaurant", "name": "Restaurante San Marco", "wheelchair": "no"}}, {"type": "node", "id": 842633265, "lat": 37.3748802, "lon": -5.9763177}, {"type": "node", "id": 842633266, "lat": 37.3776094, "lon": -5.9776959}, {"type": "node", "id": 842633279, "lat": 37.3776316, "lon": -5.9776084}, {"type": "node", "id": 842633335, "lat": 37.3750057, "lon": -5.9761571}, {"type": "node", "id": 842633342, "lat": 37.376906, "lon": -5.9770498}, {"type": "node", "id": 842633356, "lat": 37.3770261, "lon": -5.9775178}, {"type": "node", "id": 842633367, "lat": 37.3756025, "lon": -5.9765538}, {"type": "node", "id": 842633384, "lat": 37.3758354, "lon": -5.9763155, "tags": {"brand": "Supercor", "brand:wikidata": "Q6135841", "brand:wikipedia": "es:Supercor", "name": "Supercor", "operator": "Supercor", "shop": "supermarket"}}, {"type": "node", "id": 842633394, "lat": 37.3760397, "lon": -5.975839}, {"type": "node", "id": 842633395, "lat": 37.3773902, "lon": -5.9775132}, {"type": "node", "id": 842633423, "lat": 37.3773594, "lon": -5.9776419}, {"type": "node", "id": 842633442, "lat": 37.3709299, "lon": -5.9789718, "tags": {"name": "Supermercados Mas", "operator": "Mas", "shop": "supermarket", "wheelchair": "yes"}}, {"type": "node", "id": 842633467, "lat": 37.3774036, "lon": -5.9774603}, {"type": "node", "id": 864118937, "lat": 37.3807686, "lon": -5.9742615, "tags": {"amenity": "fast_food", "brand": "Telepizza", "brand:wikidata": "Q2699863", "brand:wikipedia": "es:Telepizza", "cuisine": "pizza", "name": "Telepizza", "operator": "Telepizza", "takeaway": "yes"}}, {"type": "node", "id": 868778349, "lat": 37.3750286, "lon": -5.9762647}, {"type": "node", "id": 868778426, "lat": 37.3769603, "lon": -5.9770122}, {"type": "node", "id": 938361107, "lat": 37.3795626, "lon": -5.9767868, "tags": {"amenity": "cafe", "name": "Coffee Corner"}}, {"type": "node", "id": 938364042, "lat": 37.377448, "lon": -5.9771105, "tags": {"amenity": "cafe"}}, {"type": "node", "id": 938366640, "lat": 37.3841535, "lon": -5.9725957, "tags": {"addr:city": "Sevilla", "addr:housenumber": "3", "addr:postcode": "41005", "addr:street": "Avenida Luis de Morales", "amenity": "fast_food", "brand": "Burger King", "brand:wikidata": "Q177054", "brand:wikipedia": "en:Burger King", "cuisine": "burger", "drive_through": "no", "name": "Burger King", "outdoor_seating": "yes", "phone": "+34 954 53 02 33", "takeaway": "yes", "wheelchair": "yes"}}, {"type": "node", "id": 1046681102, "lat": 37.3840304, "lon": -5.9778177, "tags": {"addr:housenumber": "39", "addr:postcode": "41018", "addr:street": "Avenida de Eduardo Dato", "amenity": "bar", "cuisine": "tapas", "description": "Gran variedad de tapas", "name": "Bar Cafeter\u00eda Oscar Lan", "opening_hours": "Mo-Fr 08:00-24:00; Winter: Sa 09:00-24:00; \"Summer\" Sa 09:00-16:00,20:00-00:00; Su 11:00-00:00", "phone": "+34 954536260"}}, {"type": "node", "id": 1046691562, "lat": 37.3838914, "lon": -5.9773214, "tags": {"addr:postcode": "41018", "addr:street": "Eduardo Dato", "description": "Panader\u00eda y Confiter\u00eda.", "name": "Horno El Abuelo", "shop": "bakery"}}, {"type": "node", "id": 1057576158, "lat": 37.3841836, "lon": -5.9786739, "tags": {"addr:postcode": "41018", "addr:street": "Eduardo Dato", "amenity": "restaurant", "cuisine": "tapas", "name": "depiKofino"}}, {"type": "node", "id": 1184282337, "lat": 37.3750212, "lon": -5.9767583}, {"type": "node", "id": 1291541735, "lat": 37.383355, "lon": -5.974536, "tags": {"amenity": "bar", "food": "yes", "name": "Mr. Triton Cerveceria", "outdoor_seating": "yes", "smoking": "outside", "wheelchair": "no"}}, {"type": "node", "id": 1291541744, "lat": 37.3851256, "lon": -5.9739762, "tags": {"amenity": "bar", "name": "La Esperanza"}}, {"type": "node", "id": 1313593133, "lat": 37.3878814, "lon": -5.9844847, "tags": {"name": "El Jam\u00f3n", "opening_hours": "Mo-Sa 09:00-14:00, 17:30-21:00", "shop": "supermarket", "wheelchair": "no"}}, {"type": "node", "id": 1315971358, "lat": 37.3802288, "lon": -5.9737028, "tags": {"amenity": "bar"}}, {"type": "node", "id": 1315971362, "lat": 37.379956, "lon": -5.9734507, "tags": {"amenity": "cafe"}}, {"type": "node", "id": 1316884459, "lat": 37.3938364, "lon": -5.9833983, "tags": {"amenity": "bar"}}, {"type": "node", "id": 1316884461, "lat": 37.3937874, "lon": -5.9830657, "tags": {"amenity": "bar"}}, {"type": "node", "id": 1343588604, "lat": 37.387336, "lon": -5.9849974, "tags": {"addr:street": "Avda. Men\u00e9ndez y Pelayo", "name": "Supermercados Mas", "opening_hours": "Mo-Sa 09:00-21:30", "shop": "supermarket", "wheelchair": "no"}}, {"type": "node", "id": 1343644741, "lat": 37.378928, "lon": -5.98883, "tags": {"amenity": "bar", "name": "Bar Citroen", "outdoor_seating": "yes", "smoking": "outside", "toilets": "yes"}}, {"type": "node", "id": 1348488494, "lat": 37.3855855, "lon": -5.9868694, "tags": {"addr:street": "Calle Cano y Cueto", "amenity": "restaurant", "cuisine": "spanish", "name": "Modesto Tapas"}}, {"type": "node", "id": 1348488582, "lat": 37.3854867, "lon": -5.9866812, "tags": {"amenity": "restaurant"}}, {"type": "node", "id": 1348488654, "lat": 37.382104, "lon": -5.9883042}, {"type": "node", "id": 1348488752, "lat": 37.3819625, "lon": -5.9883164}, {"type": "node", "id": 1348488817, "lat": 37.3819798, "lon": -5.988369}, {"type": "node", "id": 1348488849, "lat": 37.3854462, "lon": -5.9865632, "tags": {"addr:housenumber": "4", "addr:postcode": "41004", "addr:street": "Catalina de Ribera", "amenity": "restaurant", "cuisine": "spanish;tapas", "diet:vegan": "no", "diet:vegetarian": "yes", "email": "catalinalaheroina@yahoo.es", "name": "Catalina Bar de Tapas", "phone": "+36954412412", "website": "http://www.barcatalina.es", "wheelchair": "limited"}}, {"type": "node", "id": 1348488868, "lat": 37.3856098, "lon": -5.9863251, "tags": {"addr:street": "Avda. Men\u00e9ndez y Pelayo", "amenity": "bar", "name": "La Aut\u00e9ntica"}}, {"type": "node", "id": 1348488924, "lat": 37.3820867, "lon": -5.9882517}, {"type": "node", "id": 1417766787, "lat": 37.3877755, "lon": -5.9829837, "tags": {"amenity": "fast_food", "name": "Pizzer\u00eda"}}, {"type": "node", "id": 1417774212, "lat": 37.3889619, "lon": -5.9811116, "tags": {"addr:city": "Sevilla", "addr:housenumber": "1", "addr:street": "Calle Campo de los M\u00e1rtires", "amenity": "restaurant", "cuisine": "argentinian", "name": "Milonga's", "outdoor_seating": "no", "smoking": "no", "takeaway": "no", "wheelchair": "yes"}}, {"type": "node", "id": 1519699642, "lat": 37.3715375, "lon": -5.9888913, "tags": {"amenity": "cafe", "source": "visual survey;bing"}}, {"type": "node", "id": 1544052878, "lat": 37.3892894, "lon": -5.9842656, "tags": {"name": "Los hermanod", "shop": "greengrocer"}}, {"type": "node", "id": 1544052973, "lat": 37.389364, "lon": -5.9842281, "tags": {"addr:country": "ES", "name": "confiter\u00eda Don Divino", "shop": "bakery"}}, {"type": "node", "id": 1590184655, "lat": 37.3776971, "lon": -5.9752495, "tags": {"amenity": "bar", "name": "Caramelo"}}, {"type": "node", "id": 1598320056, "lat": 37.3841105, "lon": -5.986648, "tags": {"addr:street": "Avda. Men\u00e9ndez y Pelayo", "amenity": "bar", "name": "Bar Gal\u00e1n"}}, {"type": "node", "id": 1598325933, "lat": 37.3832345, "lon": -5.9871066, "tags": {"addr:street": "Avda. Men\u00e9ndez y Pelayo", "amenity": "cafe", "cuisine": "coffee_shop", "name": "Horno San Bernardo"}}, {"type": "node", "id": 1598328534, "lat": 37.3838995, "lon": -5.9867687, "tags": {"addr:street": "Avda. Men\u00e9ndez y Pelayo", "amenity": "bar", "name": "La Galantina"}}, {"type": "node", "id": 1598338881, "lat": 37.3825142, "lon": -5.9865165, "tags": {"addr:street": "Avda. de M\u00e1laga / Avda. de C\u00e1diz", "amenity": "restaurant", "cuisine": "spanish", "name": "Bar Nuria"}}, {"type": "node", "id": 1601645625, "lat": 37.3841414, "lon": -5.9853806, "tags": {"addr:street": "C/ Rastro", "amenity": "restaurant", "cuisine": "spanish", "name": "Carlos Baena"}}, {"type": "node", "id": 1601651682, "lat": 37.3840987, "lon": -5.9846149, "tags": {"addr:city": "Sevilla", "addr:housenumber": "21", "addr:postcode": "41004", "addr:street": "Calle Bartolom\u00e9 de Medina", "amenity": "bar", "name": "Pizzeria Alimentari", "opening_hours": "Mo-Su 20:30-00:00", "website": "https://www.alimentari.es/"}}, {"type": "node", "id": 1601653819, "lat": 37.3839194, "lon": -5.9842866, "tags": {"addr:street": "Avda, Juan de Mata Carriazo", "amenity": "bar"}}, {"type": "node", "id": 1601654342, "lat": 37.3829766, "lon": -5.9853364, "tags": {"addr:street": "Avda. de C\u00e1diz", "amenity": "bar", "name": "Sevilla-C\u00e1diz"}}, {"type": "node", "id": 1605810816, "lat": 37.387914, "lon": -5.9811923, "tags": {"addr:street": "Avda. Luis Montoto", "amenity": "bar", "name": "La Chicot\u00e1"}}, {"type": "node", "id": 1605839807, "lat": 37.3853754, "lon": -5.9813389, "tags": {"addr:country": "ES", "addr:street": "C/ Jim\u00e9nez Aranda", "name": "El Dulce Nombre", "shop": "bakery"}}, {"type": "node", "id": 1605842149, "lat": 37.3850834, "lon": -5.9812451, "tags": {"addr:street": "C/ Jim\u00e9nez Aranda", "name": "Supermercado MAS", "shop": "supermarket"}}, {"type": "node", "id": 1707054905, "lat": 37.3874655, "lon": -5.9802423, "tags": {"amenity": "bar", "name": "Las Cabrillas", "wifi": "no"}}, {"type": "node", "id": 1707055430, "lat": 37.3890115, "lon": -5.9793196, "tags": {"amenity": "bar", "name": "Raimundo", "wifi": "free"}}, {"type": "node", "id": 1752157720, "lat": 37.3926834, "lon": -5.9818026, "tags": {"addr:city": "Sevilla", "brand": "Supersol", "brand:wikidata": "Q62073427", "name": "Carrefour Market", "shop": "supermarket"}}, {"type": "node", "id": 1883917195, "lat": 37.3852201, "lon": -5.9772574, "tags": {"name": "Mas", "shop": "supermarket"}}, {"type": "node", "id": 1887975040, "lat": 37.3873195, "lon": -5.9793096, "tags": {"amenity": "fast_food", "name": "Peggy Sue"}}, {"type": "node", "id": 1979385845, "lat": 37.3836905, "lon": -5.9733012, "tags": {"addr:city": "Seville", "addr:country": "ES", "addr:postcode": "41018", "addr:state": "Andalusia", "addr:street": "Calle Luis Belmonte", "amenity": "cafe", "cost:coffee": "EUR1.10", "cuisine": "coffee_shop", "drive_through": "no", "internet_access": "no", "name": "Horno La Tahona", "outdoor_seating": "yes", "smoking": "outside", "takeaway": "yes", "wheelchair": "no"}}, {"type": "node", "id": 2263190164, "lat": 37.3829988, "lon": -5.9734304, "tags": {"shop": "kiosk", "wheelchair": "yes"}}, {"type": "node", "id": 2286071221, "lat": 37.3913875, "lon": -5.9836814}, {"type": "node", "id": 2286071223, "lat": 37.391388, "lon": -5.9839607}, {"type": "node", "id": 2286071225, "lat": 37.3914551, "lon": -5.9839606}, {"type": "node", "id": 2286071227, "lat": 37.3914565, "lon": -5.9836812}, {"type": "node", "id": 2286071229, "lat": 37.3915102, "lon": -5.983681}, {"type": "node", "id": 2286071230, "lat": 37.3915107, "lon": -5.9839604}, {"type": "node", "id": 2286071234, "lat": 37.3916441, "lon": -5.9838152}, {"type": "node", "id": 2286071235, "lat": 37.3916443, "lon": -5.9839601}, {"type": "node", "id": 2286071236, "lat": 37.3916751, "lon": -5.9838135}, {"type": "node", "id": 2286071237, "lat": 37.3916771, "lon": -5.98396}, {"type": "node", "id": 2290635783, "lat": 37.3769814, "lon": -5.9748495, "tags": {"amenity": "fast_food", "brand": "Burger King", "brand:wikidata": "Q177054", "brand:wikipedia": "es:Burger King", "cuisine": "burger", "name": "Burger King", "takeaway": "yes"}}, {"type": "node", "id": 2293370437, "lat": 37.3788706, "lon": -5.9882015, "tags": {"amenity": "ice_cream", "note": "Ice cream kiosk", "source": "survey"}}, {"type": "node", "id": 2293370438, "lat": 37.380505, "lon": -5.9884841, "tags": {"amenity": "ice_cream", "note": "Ice cream kiosk"}}, {"type": "node", "id": 2293459770, "lat": 37.3860324, "lon": -5.9856924, "tags": {"amenity": "fast_food", "contact:phone": "+34 954534195", "cuisine": "pizza", "name": "Mr Pizza", "outdoor_seating": "yes", "source": "survey"}}, {"type": "node", "id": 2293459771, "lat": 37.3797221, "lon": -5.9838584, "tags": {"name": "Opencor", "shop": "convenience", "source": "survey", "wheelchair": "yes"}}, {"type": "node", "id": 2293459772, "lat": 37.378426, "lon": -5.9838661, "tags": {"amenity": "restaurant", "cuisine": "seafood;tapas", "name": "Restaurante Baco", "outdoor_seating": "yes", "smoking": "separated", "toilets": "yes"}}, {"type": "node", "id": 2316134226, "lat": 37.380075, "lon": -5.9851006, "tags": {"shop": "kiosk", "source": "survey"}}, {"type": "node", "id": 2379184303, "lat": 37.383558, "lon": -5.9735825, "tags": {"addr:city": "Sevilla", "addr:housenumber": "32", "addr:postcode": "41018", "addr:street": "Calle Luis de Morales", "air_conditioning": "yes", "amenity": "restaurant", "cuisine": "argentinian", "diet:meat": "yes", "email": "nervion@restaurantemilongas.es", "name": "Milonga's", "opening_hours": "Mo-Su 13:45-16:00; Mo-Sa 20:45-24:00", "outdoor_seating": "no", "phone": "+34 954 410 667", "reservation": "yes", "smoking": "no", "takeaway": "no", "website": "https://www.restaurantemilongas.es/"}}, {"type": "node", "id": 2451391465, "lat": 37.3854941, "lon": -5.9785253, "tags": {"addr:city": "Sevilla", "addr:housenumber": "17", "addr:postcode": "41018", "addr:street": "Avenida de la Buhaira", "amenity": "bar", "name": "La Andaluza", "old_name": "La Sure\u00f1a", "wheelchair": "limited"}}, {"type": "node", "id": 2452038285, "lat": 37.3895704, "lon": -5.9844223}, {"type": "node", "id": 2452038287, "lat": 37.3895779, "lon": -5.9844507}, {"type": "node", "id": 2452038289, "lat": 37.3896021, "lon": -5.984409}, {"type": "node", "id": 2452038291, "lat": 37.3896096, "lon": -5.9844375}, {"type": "node", "id": 2452038315, "lat": 37.3939795, "lon": -5.9835798}, {"type": "node", "id": 2452038317, "lat": 37.3939864, "lon": -5.983616}, {"type": "node", "id": 2452038323, "lat": 37.3940226, "lon": -5.9835668}, {"type": "node", "id": 2452038324, "lat": 37.3940295, "lon": -5.9836031}, {"type": "node", "id": 2558599059, "lat": 37.388112, "lon": -5.982929, "tags": {"brand": "Spar", "brand:wikidata": "Q610492", "brand:wikipedia": "es:SPAR", "name": "Spar", "shop": "supermarket"}}, {"type": "node", "id": 2728236321, "lat": 37.3710767, "lon": -5.9783547, "tags": {"addr:city": "Sevilla", "addr:housenumber": "10", "addr:postcode": "41013", "addr:street": "Avenida Ram\u00f3n Carande", "amenity": "bar", "name": "Bar el Sur", "phone": "+34 954614812", "wheelchair": "yes"}}, {"type": "node", "id": 2728250298, "lat": 37.3730808, "lon": -5.9773155, "tags": {"addr:city": "Sevilla", "addr:country": "ES", "addr:housenumber": "10", "addr:postcode": "41013", "addr:street": "Calle Presidente C\u00e1rdenas", "name": "Suitcake", "phone": "+34 657 89 39 38", "shop": "bakery", "wheelchair": "yes", "wheelchair:description": "Pasteler\u00eda de autor"}}, {"type": "node", "id": 2731311636, "lat": 37.3703351, "lon": -5.983595, "tags": {"addr:housenumber": "13", "addr:postcode": "41013", "addr:street": "Calle Valparaiso", "amenity": "bar", "name": "Soravito", "opening_hours": "Tu-Su 13:30-16:00", "phone": "+34954235117", "wheelchair": "yes"}}, {"type": "node", "id": 2731322240, "lat": 37.3719399, "lon": -5.9818139, "tags": {"addr:city": "sevilla", "addr:housenumber": "21", "addr:postcode": "41013", "addr:street": "calle Felipe ll", "amenity": "bar", "name": "Cervecer\u00eda el 21", "wheelchair": "no"}}, {"type": "node", "id": 2825994227, "lat": 37.3761848, "lon": -5.9760079}, {"type": "node", "id": 2914840554, "lat": 37.3849204, "lon": -5.9867188, "tags": {"shop": "kiosk", "source": "bing", "source:date": "2013"}}, {"type": "node", "id": 3098735352, "lat": 37.3876393, "lon": -5.9730045, "tags": {"addr:city": "Sevilla", "addr:housenumber": "1", "addr:postcode": "41007", "addr:street": "Avenida de Kansas City", "amenity": "restaurant", "name": "Vinacle"}}, {"type": "node", "id": 3147493249, "lat": 37.377626, "lon": -5.9771253, "tags": {"addr:street": "Avenida de Ram\u00f3n y Cajal", "amenity": "bar", "cuisine": "regional", "internet_access": "no", "name": "Marbella", "smoking": "outside", "wheelchair": "limited"}}, {"type": "node", "id": 3147493250, "lat": 37.3788317, "lon": -5.9771476, "tags": {"addr:city": "Sevilla", "addr:street": "Calle Barrau", "amenity": "restaurant", "capacity": "40", "cuisine": "sandwich", "name": "La Brioche", "smoking": "no", "wheelchair": "yes"}}, {"type": "node", "id": 3150248427, "lat": 37.3905354, "lon": -5.9842434, "tags": {"addr:city": "Sevilla / Casco Antiguo / San Bartolom\u00e9", "addr:housenumber": "11-A", "addr:street": "Calle Recaredo", "name": "Horno San Roque", "opening_hours": "Mo-Sa 08:00-15:00, 17:30-20:30;Su 08:00-15:00", "shop": "convenience", "wheelchair": "no"}}, {"type": "node", "id": 3150954921, "lat": 37.391615, "lon": -5.984228, "tags": {"addr:city": "Sevilla / Casco Antiguo / San Bartolom\u00e9", "addr:housenumber": "33", "addr:street": "Calle Recaredo", "name": "Sierra de Aracena", "note": "Jam\u00f3n,embutidos, miel,quesos, vino", "opening_hours": "Mo-Fr 10:00-14:00,16:30-20:00;Sa 10:00-14:00", "phone": "+34 954 42 10 66", "shop": "convenience", "wheelchair": "no"}}, {"type": "node", "id": 3153966671, "lat": 37.3775387, "lon": -5.9768643, "tags": {"addr:city": "Sevilla", "addr:postcode": "41018", "addr:street": "Avenida de Ram\u00f3n y Cajal", "amenity": "cafe", "name": "TEA & COFFEE"}}, {"type": "node", "id": 3154940473, "lat": 37.3718339, "lon": -5.981656, "tags": {"addr:city": "Sevilla", "addr:postcode": "41013", "addr:street": "calle Diego de la Barrera", "amenity": "fast_food", "name": "Edamame", "phone": "+34 955133684", "wheelchair": "yes"}}, {"type": "node", "id": 3155446796, "lat": 37.3833106, "lon": -5.9733478, "tags": {"addr:city": "Sevilla", "addr:housenumber": "32", "addr:postcode": "41018", "addr:street": "Avenida Luis de Morales", "amenity": "cafe", "name": "Cafeter\u00eda Forum", "wheelchair": "no"}}, {"type": "node", "id": 3163207383, "lat": 37.3919235, "lon": -5.9825869, "tags": {"addr:city": "Sevilla", "addr:housenumber": "46", "addr:postcode": "41003", "addr:street": "Calle Amador de Los R\u00edos", "amenity": "restaurant", "capacity": "50", "cuisine": "regional", "name": "RAFAEL RUIZ", "opening_hours": "Mo-Sa 08:00-23:30; Su 09:00-16:00", "phone": "+34 954415760", "smoking": "outside", "wheelchair": "yes"}}, {"type": "node", "id": 3181689061, "lat": 37.382934, "lon": -5.9857012, "tags": {"addr:street": "Avenida de C\u00e1diz", "amenity": "bar", "name": "C\u00e1diz 9"}}, {"type": "node", "id": 3181707996, "lat": 37.3826165, "lon": -5.9867191, "tags": {"addr:street": "Avenida de C\u00e1diz", "shop": "kiosk"}}, {"type": "node", "id": 3181707997, "lat": 37.3848298, "lon": -5.9863838, "tags": {"addr:street": "Avenida Men\u00e9ndez Pelayo", "shop": "kiosk"}}, {"type": "node", "id": 3242950462, "lat": 37.385568, "lon": -5.97399, "tags": {"addr:city": "Sevilla", "addr:housenumber": "13", "addr:street": "Santo Domingo de la Calzada", "amenity": "restaurant", "brand": "Birreria&Restaurante", "cuisine": "italian", "name": "MonTolivo", "wheelchair": "yes"}}, {"type": "node", "id": 3351793560, "lat": 37.3851843, "lon": -5.9866249, "tags": {"shop": "kiosk", "source": "ide.Sevilla", "source:date": "2011"}}, {"type": "node", "id": 3368098753, "lat": 37.3839293, "lon": -5.9718189}, {"type": "node", "id": 3368098754, "lat": 37.3839553, "lon": -5.9719256}, {"type": "node", "id": 3368098755, "lat": 37.3843426, "lon": -5.9717706}, {"type": "node", "id": 3368098756, "lat": 37.3843313, "lon": -5.9718826}, {"type": "node", "id": 3368098757, "lat": 37.3848885, "lon": -5.9724304}, {"type": "node", "id": 3368098758, "lat": 37.3848957, "lon": -5.9724857}, {"type": "node", "id": 3368098761, "lat": 37.3849468, "lon": -5.9724193}, {"type": "node", "id": 3368098762, "lat": 37.3849545, "lon": -5.9724727}, {"type": "node", "id": 3368098763, "lat": 37.3850529, "lon": -5.9725103, "tags": {"shop": "kiosk", "source": "PNOA", "source:date": "2013"}}, {"type": "node", "id": 3385692493, "lat": 37.3708241, "lon": -5.9836316, "tags": {"amenity": "restaurant", "name": "l'inspiration", "wheelchair": "yes"}}, {"type": "node", "id": 3412440797, "lat": 37.3918338, "lon": -5.9797389, "tags": {"addr:housenumber": "24", "addr:street": "Calle Padre M\u00e9ndez Casariego", "amenity": "restaurant", "cuisine": "pizza", "name": "Trattoria Filomena"}}, {"type": "node", "id": 3470082995, "lat": 37.392469, "lon": -5.982147, "tags": {"addr:city": "Sevilla", "addr:housenumber": "10", "addr:postcode": "41001", "addr:street": "Gonzalo Bilbao", "amenity": "restaurant", "cuisine": "spanish", "name": "Karpanta", "outdoor_seating": "yes", "phone": "+34 954 564 322", "smoking": "outside", "takeaway": "yes", "website": "www.karpanta.com", "wheelchair": "yes"}}, {"type": "node", "id": 3529020594, "lat": 37.3865796, "lon": -5.972626, "tags": {"addr:city": "Sevilla", "addr:housename": "Melia Lebreros", "addr:housenumber": "2", "addr:postcode": "41018", "addr:street": "Luis de Morales", "amenity": "restaurant", "cuisine": "burger", "name": "Foster Hollywood"}}, {"type": "node", "id": 3575801892, "lat": 37.3866117, "lon": -5.9857277, "tags": {"amenity": "cafe", "name": "El Cortadero", "outdoor_seating": "yes"}}, {"type": "node", "id": 3575801893, "lat": 37.3865384, "lon": -5.9793178, "tags": {"amenity": "cafe", "name": "El Rincon de la Buhaira"}}, {"type": "node", "id": 3631779714, "lat": 37.3874601, "lon": -5.979833, "tags": {"addr:city": "Sevilla", "addr:housenumber": "46", "addr:postcode": "41018", "addr:street": "Calle Luis Montoto", "brand": "Carrefour Express", "brand:wikidata": "Q2940190", "brand:wikipedia": "fr:Carrefour Express", "name": "Carrefour Express", "operator": "Carrefour", "shop": "convenience"}}, {"type": "node", "id": 3631782347, "lat": 37.3879236, "lon": -5.9811768, "tags": {"addr:street": "Calle Luis Montoto", "amenity": "bar", "name": "La Chicot\u00e1", "smoking": "no"}}, {"type": "node", "id": 3681765025, "lat": 37.385285, "lon": -5.973101, "tags": {"amenity": "cafe", "cuisine": "spanish", "name": "Caf\u00e9 Nervi\u00f3n", "outdoor_seating": "yes", "smoking": "outside", "takeaway": "yes", "wheelchair": "yes"}}, {"type": "node", "id": 3717078205, "lat": 37.3773991, "lon": -5.9774783}, {"type": "node", "id": 3717354840, "lat": 37.3754646, "lon": -5.9777886}, {"type": "node", "id": 3717354841, "lat": 37.3755201, "lon": -5.977551}, {"type": "node", "id": 3717354842, "lat": 37.3755425, "lon": -5.9778174}, {"type": "node", "id": 3717354843, "lat": 37.3755979, "lon": -5.9775798}, {"type": "node", "id": 3798286884, "lat": 37.3793629, "lon": -5.9887911, "tags": {"shop": "kiosk"}}, {"type": "node", "id": 3798286943, "lat": 37.3804525, "lon": -5.9884303, "tags": {"shop": "kiosk"}}, {"type": "node", "id": 3811285762, "lat": 37.3857873, "lon": -5.9862093, "tags": {"addr:city": "Sevilla", "addr:housenumber": "5", "addr:postcode": "41004", "addr:street": "Avenida Men\u00e9ndez Pelayo", "amenity": "bar", "name": "Cervecer\u00eda Puerta de la Carne"}}, {"type": "node", "id": 3811285795, "lat": 37.3858375, "lon": -5.9863849}, {"type": "node", "id": 3811285796, "lat": 37.3858756, "lon": -5.9864855}, {"type": "node", "id": 3811285801, "lat": 37.3859309, "lon": -5.9863289}, {"type": "node", "id": 3811285805, "lat": 37.385969, "lon": -5.9864296}, {"type": "node", "id": 3826849373, "lat": 37.3872836, "lon": -5.9760431, "tags": {"addr:city": "Sevilla", "addr:housenumber": "71", "addr:street": "Calle Luis Montoto", "amenity": "restaurant", "cuisine": "kebab;pizza", "delivery": "yes", "name": "Alqamar D\u00f6ner Kebab", "opening_hours": "Mo-Su 12:30-17:00,20:00-01:00", "phone": "+34 954064748; +34 632170217", "takeaway": "yes"}}, {"type": "node", "id": 3909674162, "lat": 37.3740071, "lon": -5.9765046, "tags": {"amenity": "restaurant", "name": "Albarale"}}, {"type": "node", "id": 4197614405, "lat": 37.3856392, "lon": -5.986394, "tags": {"name": "Wendy", "shop": "convenience"}}, {"type": "node", "id": 4197618637, "lat": 37.3858518, "lon": -5.9861793, "tags": {"amenity": "bar", "name": "El Papel\u00f3n"}}, {"type": "node", "id": 4197633776, "lat": 37.384449, "lon": -5.9805404, "tags": {"amenity": "restaurant", "cuisine": "fish", "name": "seamarket"}}, {"type": "node", "id": 4197641283, "lat": 37.3846397, "lon": -5.978843, "tags": {"amenity": "restaurant", "cuisine": "tapas", "name": "Velout\u00e9"}}, {"type": "node", "id": 4197641284, "lat": 37.3844199, "lon": -5.9789224, "tags": {"amenity": "pub", "name": "Tapas D`Culto", "old_name": "La Espumosa"}}, {"type": "node", "id": 4197656585, "lat": 37.3843433, "lon": -5.9785764, "tags": {"addr:city": "Sevilla", "addr:housenumber": "16", "addr:postcode": "41018", "addr:street": "Calle Diego Angulo \u00cd\u00f1iguez", "amenity": "restaurant", "cuisine": "tapas", "name": "El Pincho", "phone": "954535344"}}, {"type": "node", "id": 4197684358, "lat": 37.3837798, "lon": -5.9766279, "tags": {"amenity": "cafe", "name": "crustum", "shop": "bakery"}}, {"type": "node", "id": 4197698429, "lat": 37.3835564, "lon": -5.975369, "tags": {"amenity": "bar", "name": "Porta Coeli"}}, {"type": "node", "id": 4289090489, "lat": 37.3874865, "lon": -5.9727302, "tags": {"name": "Super Oriental", "shop": "supermarket"}}, {"type": "node", "id": 4383578690, "lat": 37.3828727, "lon": -5.9858433, "tags": {"amenity": "restaurant", "name": "ancora", "name:es": "ancora"}}, {"type": "node", "id": 4387560476, "lat": 37.3887543, "lon": -5.9730733, "tags": {"amenity": "cafe", "name": "Cafe-Bar Alhambra"}}, {"type": "node", "id": 4410151007, "lat": 37.3798988, "lon": -5.9858775, "tags": {"amenity": "bar", "name": "Epheta"}}, {"type": "node", "id": 4416244980, "lat": 37.3770265, "lon": -5.9775147}, {"type": "node", "id": 4450165191, "lat": 37.3879291, "lon": -5.9837138, "tags": {"addr:housenumber": "7", "addr:postcode": "41003", "addr:street": "Calle Alcalde Jos\u00e9 de la Bandera", "amenity": "restaurant", "name": "Abantal", "opening_hours": "Tu-Sa", "phone": "+34 954540000", "website": "https://www.abantalrestaurante.es/"}}, {"type": "node", "id": 4685434089, "lat": 37.3706033, "lon": -5.9834294, "tags": {"addr:housenumber": "8", "addr:postcode": "41013", "addr:street": "Calle Juan Pablos", "amenity": "restaurant", "cuisine": "spanish", "name": "Manolo Le\u00f3n"}}, {"type": "node", "id": 4706153290, "lat": 37.3787134, "lon": -5.9820912, "tags": {"amenity": "restaurant", "cuisine": "spanish", "name": "Borda Vinoteca"}}, {"type": "node", "id": 4711297389, "lat": 37.3727995, "lon": -5.9847159, "tags": {"addr:housenumber": "14", "addr:street": "Calle Progreso", "amenity": "restaurant", "cuisine": "steak_house", "name": "Le\u00f1a al Lomo", "wheelchair": "yes"}}, {"type": "node", "id": 4714108590, "lat": 37.3838501, "lon": -5.9867655, "tags": {"amenity": "restaurant", "cuisine": "korean", "name": "Moon", "name:es": "Moon", "phone": "+34 664417518"}}, {"type": "node", "id": 4724703834, "lat": 37.3798097, "lon": -5.9774959, "tags": {"amenity": "restaurant", "name": "Los 100 montaditos"}}, {"type": "node", "id": 4724703835, "lat": 37.3787235, "lon": -5.9784349, "tags": {"amenity": "pub", "cuisine": "irish", "name": "O'Neill's", "outdoor_seating": "yes"}}, {"type": "node", "id": 4724703836, "lat": 37.379742, "lon": -5.977282, "tags": {"amenity": "restaurant", "name": "Tapas Viapol"}}, {"type": "node", "id": 4778737352, "lat": 37.3890257, "lon": -5.9818136, "tags": {"addr:city": "Sevilla", "addr:housenumber": "11", "addr:postcode": "41003", "addr:street": "Calle Juan Antonio Cavestany", "amenity": "restaurant", "cuisine": "tapas", "description": "Chupadedos bar desayunos \u00b7 comidas \u00b7 tapas \u00b7 finguerfood \u00b7 drinks RESERVAS: 955 359 384 https://www.facebook.com/chupadedossevilla/", "email": "info@chupadedos.es", "name": "Chupadedos Bar", "outdoor_seating": "yes", "phone": "+34 955359384", "website": "http://chupadedos.es/", "wheelchair": "yes"}}, {"type": "node", "id": 4899293859, "lat": 37.3841929, "lon": -5.9724777}, {"type": "node", "id": 4899293860, "lat": 37.3842451, "lon": -5.9724593}, {"type": "node", "id": 4899293861, "lat": 37.3842944, "lon": -5.9724191}, {"type": "node", "id": 4899293862, "lat": 37.3843315, "lon": -5.9723618}, {"type": "node", "id": 4899293863, "lat": 37.3841521, "lon": -5.9720058}, {"type": "node", "id": 4899293864, "lat": 37.384088, "lon": -5.9720275}, {"type": "node", "id": 4899293865, "lat": 37.3840343, "lon": -5.9720754}, {"type": "node", "id": 4899293866, "lat": 37.3839969, "lon": -5.9721436}, {"type": "node", "id": 4899293867, "lat": 37.3843528, "lon": -5.972293}, {"type": "node", "id": 4899293868, "lat": 37.3843562, "lon": -5.9722192}, {"type": "node", "id": 4899293869, "lat": 37.3843415, "lon": -5.9721476}, {"type": "node", "id": 4899293870, "lat": 37.38431, "lon": -5.9720853}, {"type": "node", "id": 4899293871, "lat": 37.3842648, "lon": -5.9720381}, {"type": "node", "id": 4899293872, "lat": 37.3842102, "lon": -5.9720107}, {"type": "node", "id": 4899293873, "lat": 37.3839804, "lon": -5.9722238}, {"type": "node", "id": 4899293874, "lat": 37.3839868, "lon": -5.9723063}, {"type": "node", "id": 4899293875, "lat": 37.3840153, "lon": -5.972381}, {"type": "node", "id": 4899293876, "lat": 37.3840625, "lon": -5.9724388}, {"type": "node", "id": 4899293877, "lat": 37.3841226, "lon": -5.9724726}, {"type": "node", "id": 4903684053, "lat": 37.3851519, "lon": -5.9716798}, {"type": "node", "id": 4903684070, "lat": 37.3840294, "lon": -5.97267}, {"type": "node", "id": 4903684071, "lat": 37.3843683, "lon": -5.9725979}, {"type": "node", "id": 4903684072, "lat": 37.3841433, "lon": -5.9719041}, {"type": "node", "id": 4903684073, "lat": 37.3833932, "lon": -5.9718986}, {"type": "node", "id": 4903684074, "lat": 37.3843267, "lon": -5.9717945}, {"type": "node", "id": 4903684075, "lat": 37.3839487, "lon": -5.9718358}, {"type": "node", "id": 4903684078, "lat": 37.3834966, "lon": -5.9727415}, {"type": "node", "id": 4903684080, "lat": 37.3835005, "lon": -5.9727719}, {"type": "node", "id": 4903684081, "lat": 37.3834535, "lon": -5.972732}, {"type": "node", "id": 4903684082, "lat": 37.3834942, "lon": -5.9727228}, {"type": "node", "id": 4903684084, "lat": 37.3848905, "lon": -5.9724457}, {"type": "node", "id": 4903684086, "lat": 37.3848944, "lon": -5.9724754}, {"type": "node", "id": 4958206987, "lat": 37.3742348, "lon": -5.9764296, "tags": {"addr:city": "Sevilla", "addr:housenumber": "10", "addr:postcode": "41013", "addr:street": "Avenida de Diego Mart\u00ednez Barrio", "amenity": "restaurant", "email": "info@noveas.org", "name": "No Veas", "opening_hours": "We-Fr 21:00-00:30; Sa 13:00-17:00,21:00-00:30", "phone": "+34 609 89 18 33", "website": "https://noveas.org/"}}, {"type": "node", "id": 5007607525, "lat": 37.3905785, "lon": -5.9799081, "tags": {"brand": "Mercadona", "brand:wikidata": "Q377705", "brand:wikipedia": "es:Mercadona", "name": "Mercadona", "shop": "supermarket"}}, {"type": "node", "id": 5094360347, "lat": 37.3854551, "lon": -5.986635, "tags": {"addr:postcode": "41004", "amenity": "restaurant", "cuisine": "spanish", "name": "Viner\u00eda San Telmo", "phone": "+34 954 410 600", "website": "https://www.vineriasantelmo.com/"}}, {"type": "node", "id": 5099793711, "lat": 37.3708974, "lon": -5.9894479, "tags": {"amenity": "pub", "name": "Libano"}}, {"type": "node", "id": 5109607753, "lat": 37.3859164, "lon": -5.9865357, "tags": {"amenity": "ice_cream", "name": "Bolas"}}, {"type": "node", "id": 5153880525, "lat": 37.3917556, "lon": -5.9804426, "tags": {"addr:city": "Sevilla", "brand": "ALDI", "brand:wikidata": "Q41171373", "brand:wikipedia": "en:Aldi", "name": "ALDI", "shop": "supermarket"}}, {"type": "node", "id": 5206675655, "lat": 37.3893268, "lon": -5.9845667, "tags": {"name": "Horno La Parra Buenabuelo", "operator": "Horno el Abuelo", "shop": "bakery"}}, {"type": "node", "id": 5251249747, "lat": 37.3768209, "lon": -5.9805219, "tags": {"amenity": "cafe", "cuisine": "spanish", "name": "Horno San Tom\u00e1s"}}, {"type": "node", "id": 5251249748, "lat": 37.374381, "lon": -5.9823951, "tags": {"amenity": "restaurant", "cuisine": "spanish", "name": "Otaola"}}, {"type": "node", "id": 5267765223, "lat": 37.3721965, "lon": -5.9857799, "tags": {"amenity": "bar", "name": "Kiosco Abilio"}}, {"type": "node", "id": 5286426379, "lat": 37.3779204, "lon": -5.9817815, "tags": {"addr:housenumber": "11", "addr:street": "Doctor Jos\u00e9 Mar\u00eda Bedoya", "contact:facebook": "https://facebook.com/dondevivenlastartas", "name": "Donde Viven Las Tartas", "shop": "bakery"}}, {"type": "node", "id": 5463258223, "lat": 37.3793918, "lon": -5.9780885, "tags": {"addr:postcode": "41018", "addr:street": "Calle Balbino Marr\u00f3n", "amenity": "bar", "name": "Voulezbar", "opening_hours": "Su-We 18:00-04:00; Th-Sa 18:00-07:00", "phone": "+34 625 95 60 65"}}, {"type": "node", "id": 5491732820, "lat": 37.38285, "lon": -5.9745482, "tags": {"addr:city": "Sevilla", "name": "Fresh DIA", "shop": "supermarket"}}, {"type": "node", "id": 5506391322, "lat": 37.3871244, "lon": -5.9740945, "tags": {"addr:city": "Sevilla", "addr:housenumber": "112", "addr:postcode": "41018", "addr:street": "Calle Luis Montoto", "amenity": "restaurant", "cuisine": "international", "email": "info@burrocanaglia.com", "name": "El Burro Canaglia Bar & Resto", "phone": "+34 954869595", "website": "http://burrocanaglia.com"}}, {"type": "node", "id": 5547152555, "lat": 37.3856846, "lon": -5.9864797, "tags": {"addr:city": "Sevilla", "addr:housenumber": "6", "addr:postcode": "41004", "addr:street": "Calle Puerta la Carne", "amenity": "restaurant", "cuisine": "regional;spanish", "name": "La Taraceina", "opening_hours": "Tu-Su 00:00-24:00", "phone": "+34 955 28 65 82", "website": "http://www.lataraceina.es/index.php/en/welcome-2/"}}, {"type": "node", "id": 5551556042, "lat": 37.3800582, "lon": -5.9795246, "tags": {"brand": "Dia", "brand:wikidata": "Q925132", "brand:wikipedia": "es:DIA (supermercados)", "name": "Dia", "shop": "supermarket"}}, {"type": "node", "id": 5654524291, "lat": 37.3719777, "lon": -5.9840798, "tags": {"amenity": "restaurant", "name": "Taberna L. Authentica"}}, {"type": "node", "id": 5780822603, "lat": 37.3708759, "lon": -5.9769946, "tags": {"brand": "Dia", "brand:wikidata": "Q925132", "brand:wikipedia": "es:DIA (supermercados)", "name": "Dia", "shop": "supermarket"}}, {"type": "node", "id": 5790265653, "lat": 37.3858398, "lon": -5.9863769, "tags": {"addr:housenumber": "7AA", "amenity": "cafe", "internet_access": "wlan", "name": "Jester"}}, {"type": "node", "id": 5921164195, "lat": 37.3919293, "lon": -5.983975, "tags": {"addr:street": "Calle Recaredo", "name": "Panera", "payment:cash": "yes", "shop": "bakery"}}, {"type": "node", "id": 5921527144, "lat": 37.3909422, "lon": -5.978516}, {"type": "node", "id": 5921527145, "lat": 37.390879, "lon": -5.9784335}, {"type": "node", "id": 5921527146, "lat": 37.3908252, "lon": -5.9784987}, {"type": "node", "id": 5921527147, "lat": 37.3908885, "lon": -5.9785812}, {"type": "node", "id": 5929825787, "lat": 37.3892303, "lon": -5.9848741, "tags": {"addr:housenumber": "4", "addr:street": "Puerta de Carmona", "amenity": "restaurant", "description": "Pizzeria", "name": "La Urbana", "opening_hours": "Mo-Th, Su 13:00-16:00, 19:30-00:00; Fr, Sa 13:00-00:30"}}, {"type": "node", "id": 6044772600, "lat": 37.3916173, "lon": -5.9801421, "tags": {"amenity": "restaurant", "name": "Lar Gallego de Sevilla"}}, {"type": "node", "id": 6044772603, "lat": 37.3915937, "lon": -5.9787055, "tags": {"amenity": "bar", "name": "Sacrist\u00eda de Abelardo"}}, {"type": "node", "id": 6044778404, "lat": 37.3915036, "lon": -5.9816106, "tags": {"name": "La Encina", "shop": "butcher"}}, {"type": "node", "id": 6044782599, "lat": 37.3915045, "lon": -5.9788154, "tags": {"amenity": "restaurant", "cuisine": "japanese", "name": "Kiyo"}}, {"type": "node", "id": 6044782600, "lat": 37.3914065, "lon": -5.9789363, "tags": {"amenity": "bar", "name": "Envidia"}}, {"type": "node", "id": 6061790923, "lat": 37.3913694, "lon": -5.9818243, "tags": {"name": "CHICO", "shop": "seafood"}}, {"type": "node", "id": 6061790925, "lat": 37.3914535, "lon": -5.9819699, "tags": {"shop": "greengrocer"}}, {"type": "node", "id": 6061790928, "lat": 37.3920704, "lon": -5.9805362, "tags": {"amenity": "bar", "name": "7 villas"}}, {"type": "node", "id": 6061790930, "lat": 37.3924034, "lon": -5.9818817, "tags": {"amenity": "bar", "name": "chit\u00f3n"}}, {"type": "node", "id": 6061790938, "lat": 37.3918951, "lon": -5.9831346, "tags": {"shop": "bakery"}}, {"type": "node", "id": 6061790943, "lat": 37.3934653, "lon": -5.9815332, "tags": {"amenity": "bar", "name": "La mar de gambas"}}, {"type": "node", "id": 6061790946, "lat": 37.3930237, "lon": -5.9818332, "tags": {"shop": "greengrocer"}}, {"type": "node", "id": 6061790963, "lat": 37.3899113, "lon": -5.9837875, "tags": {"amenity": "bar", "name": "Laredo"}}, {"type": "node", "id": 6061790965, "lat": 37.3901156, "lon": -5.9827627, "tags": {"amenity": "bar", "name": "Baldomero"}}, {"type": "node", "id": 6061790966, "lat": 37.390076, "lon": -5.9824111, "tags": {"amenity": "bar"}}, {"type": "node", "id": 6061790967, "lat": 37.3906719, "lon": -5.9822523, "tags": {"amenity": "bar"}}, {"type": "node", "id": 6061790968, "lat": 37.3908121, "lon": -5.9825214, "tags": {"amenity": "bar"}}, {"type": "node", "id": 6061790973, "lat": 37.3895748, "lon": -5.982876, "tags": {"name": "Sirven a bares s\u00f3lo", "shop": "seafood"}}, {"type": "node", "id": 6061790976, "lat": 37.3898643, "lon": -5.9840715, "tags": {"amenity": "bar"}}, {"type": "node", "id": 6061813209, "lat": 37.3915987, "lon": -5.9826345, "tags": {"shop": "greengrocer"}}, {"type": "node", "id": 6061813212, "lat": 37.3913557, "lon": -5.981522, "tags": {"amenity": "bar"}}, {"type": "node", "id": 6061813214, "lat": 37.3923832, "lon": -5.9822278, "tags": {"shop": "greengrocer"}}, {"type": "node", "id": 6061813220, "lat": 37.39206, "lon": -5.9824433, "tags": {"shop": "butcher"}}, {"type": "node", "id": 6061813226, "lat": 37.3929964, "lon": -5.9804825, "tags": {"amenity": "cafe", "name": "Navarro"}}, {"type": "node", "id": 6314417113, "lat": 37.378762, "lon": -5.9785336, "tags": {"amenity": "fast_food", "brand": "McDonald's", "brand:wikidata": "Q38076", "brand:wikipedia": "es:McDonald's", "cuisine": "burger", "name": "McDonald's", "outdoor_seating": "yes", "takeaway": "yes"}}, {"type": "node", "id": 6314417220, "lat": 37.3788762, "lon": -5.9789044, "tags": {"amenity": "restaurant", "brand": "Pizza Hut", "brand:wikidata": "Q191615", "brand:wikipedia": "es:Pizza Hut", "cuisine": "pizza", "name": "Pizza Hut", "phone": "+34 680100001"}}, {"type": "node", "id": 6314417327, "lat": 37.3787845, "lon": -5.9786131, "tags": {"amenity": "restaurant", "name": "Vips"}}, {"type": "node", "id": 6314437714, "lat": 37.3717263, "lon": -5.9827216, "tags": {"addr:city": "Sevilla", "brand": "Supersol", "brand:wikidata": "Q62073427", "name": "Carrefour Express", "shop": "supermarket"}}, {"type": "node", "id": 6314440010, "lat": 37.3716578, "lon": -5.9822434, "tags": {"name": "Mas&Go", "shop": "supermarket"}}, {"type": "node", "id": 6332216285, "lat": 37.3797631, "lon": -5.984033, "tags": {"name:en": "MAS & GO", "opening_hours": "Mo-Su 08:00-23:00", "shop": "convenience"}}, {"type": "node", "id": 6389038986, "lat": 37.3802028, "lon": -5.9773122, "tags": {"amenity": "restaurant", "changing_table": "yes", "changing_table:location": "female_toilet", "name": "Sloppy Joes"}}, {"type": "node", "id": 6610352486, "lat": 37.3877117, "lon": -5.9810422, "tags": {"amenity": "cafe", "name": "La Toscana"}}, {"type": "node", "id": 6777029185, "lat": 37.3799863, "lon": -5.9787153, "tags": {"amenity": "restaurant", "name": "Cerveceri\u00e1 Mr Beer"}}, {"type": "node", "id": 6895613785, "lat": 37.3927694, "lon": -5.9819368, "tags": {"addr:city": "Sevilla", "addr:housenumber": "56", "addr:postcode": "41003", "addr:street": "Calle Amador de Los R\u00edos", "amenity": "cafe", "contact:facebook": "https://www.facebook.com/GallitoyGalleta", "contact:instagram": "https://www.instagram.com/gallitoygalleta/", "name": "Gallito & Galleta", "opening_hours": "Mo-Fr 08:00-13:30, 18:00-21:00; Sa-Su 09:13:30, 18:00-21:00", "website": "https://inncoffee.es/gallito-y-galleta"}}, {"type": "node", "id": 6939702141, "lat": 37.3827141, "lon": -5.9739966, "tags": {"addr:city": "Sevilla", "brand": "Dia & Go", "brand:wikidata": "Q925132", "brand:wikipedia": "es:Supermercados DIA", "name": "Dia & Go", "shop": "convenience"}}, {"type": "node", "id": 6939702148, "lat": 37.3796843, "lon": -5.9770418, "tags": {"amenity": "fast_food", "cuisine": "pizza"}}, {"type": "node", "id": 6939702153, "lat": 37.3812778, "lon": -5.9740831, "tags": {"amenity": "fast_food", "cuisine": "thai;japanese;noodle", "delivery": "yes", "name": "Mister Noodles", "takeaway": "yes"}}, {"type": "node", "id": 6939702157, "lat": 37.3809175, "lon": -5.973515, "tags": {"name": "supermercado sur", "shop": "supermarket"}}, {"type": "node", "id": 7302476585, "lat": 37.3775795, "lon": -5.9769517, "tags": {"addr:city": "Sevilla", "addr:postcode": "41018", "addr:street": "Avenida de Ram\u00f3n y Cajal", "amenity": "bar", "bar": "yes", "cuisine": "regional;burger;sandwich", "name": "masquespuma"}}, {"type": "node", "id": 7302476586, "lat": 37.3776072, "lon": -5.977016, "tags": {"addr:city": "Sevilla", "addr:housenumber": "2", "addr:postcode": "41018", "addr:street": "Avenida de Ram\u00f3n y Cajal", "amenity": "restaurant", "cuisine": "mexican", "name": "Ricos Tacos Cantina", "outdoor_seating": "yes", "phone": "+34 955 92 09 88", "website": "http://ricostacos.es/"}}, {"type": "node", "id": 7302476587, "lat": 37.3775997, "lon": -5.9769977, "tags": {"addr:city": "Sevilla", "addr:postcode": "41018", "addr:street": "Avenida de Ram\u00f3n y Cajal", "amenity": "bar", "name": "La Later\u00eda"}}, {"type": "node", "id": 7302476588, "lat": 37.3774431, "lon": -5.9768367, "tags": {"addr:city": "Sevilla", "addr:postcode": "41018", "addr:street": "Avenida de Ram\u00f3n y Cajal", "amenity": "bar", "name": "La Bodeguita"}}, {"type": "node", "id": 7508378946, "lat": 37.3781544, "lon": -5.974482, "tags": {"addr:city": "Sevilla", "addr:housenumber": "19", "addr:postcode": "41005", "addr:street": "Avenida San Francisco Javier", "air_conditioning": "yes", "amenity": "restaurant", "cuisine": "japanese", "delivery": "yes", "email": "sakura-sevilla@hotmail.com", "name": "Sakura", "opening_hours": "Mo-Su 13:00-16:30; Mo-Su 20:30-24:00", "phone": "954 922188", "website": "http://www.sakurasevilla.com/"}}, {"type": "node", "id": 7571654709, "lat": 37.3908503, "lon": -5.9836222}, {"type": "node", "id": 7571654710, "lat": 37.3908666, "lon": -5.9835976}, {"type": "node", "id": 7571654711, "lat": 37.3908541, "lon": -5.9835682}, {"type": "node", "id": 7571654712, "lat": 37.3908242, "lon": -5.9835778}, {"type": "node", "id": 7571654713, "lat": 37.3908264, "lon": -5.983612}, {"type": "node", "id": 7911130705, "lat": 37.3729417, "lon": -5.9773068, "tags": {"amenity": "restaurant", "name": "Aderezo Tapas"}}, {"type": "node", "id": 7925202585, "lat": 37.3794775, "lon": -5.9877517, "tags": {"amenity": "pub", "name": "Roku Gin"}}, {"type": "node", "id": 7974797645, "lat": 37.3685759, "lon": -5.9816581, "tags": {"addr:housenumber": "33", "addr:street": "Cardenal Bueno Monreal", "amenity": "restaurant", "name": "El Cenachero", "opening_hours": "Mo-Su 12:00-00:00", "phone": "954 44 83 28"}}, {"type": "node", "id": 8170196637, "lat": 37.3732368, "lon": -5.9778996, "tags": {"addr:street": "Compositor Manuel Castillo", "description": "Panader\u00eda - obrador", "name": "Baking Bread", "opening_hours": "Mo-Fr 08:30-14:45; Sa 08:30-14:00", "shop": "bakery"}}, {"type": "node", "id": 8419960338, "lat": 37.393015, "lon": -5.9843384, "tags": {"name": "Multiservicio Ken", "shop": "convenience"}}, {"type": "node", "id": 8419960339, "lat": 37.3926705, "lon": -5.982849, "tags": {"name": "Andalubox", "shop": "deli"}}, {"type": "node", "id": 8677414317, "lat": 37.3888314, "lon": -5.9820255, "tags": {"amenity": "bar", "cuisine": "local", "name": "La Dehesa"}}, {"type": "node", "id": 8682226657, "lat": 37.3855834, "lon": -5.9784213, "tags": {"addr:city": "Sevilla", "addr:housenumber": "17", "addr:postcode": "41018", "addr:street": "Avenida de la Buhaira", "amenity": "restaurant", "name": "Lateral Buhaira", "opening_hours": "Mo-Su 09:00-23:00", "phone": "954911499", "website": "https://www.lateral.com/restaurantes/buhaira/"}}, {"type": "node", "id": 9149441817, "lat": 37.3858457, "lon": -5.9858354, "tags": {"amenity": "cafe", "name": "Santa Gloria"}}, {"type": "node", "id": 9149443017, "lat": 37.3866185, "lon": -5.9852948, "tags": {"name": "Alimentacion & Bazar", "shop": "convenience"}}, {"type": "node", "id": 9149443626, "lat": 37.3875247, "lon": -5.9852875, "tags": {"name": "Carrefour Express", "shop": "convenience"}}, {"type": "node", "id": 9149486717, "lat": 37.386506, "lon": -5.985404, "tags": {"name": "Freitas y Verudas", "shop": "convenience"}}, {"type": "node", "id": 9350671873, "lat": 37.3875546, "lon": -5.9746857, "tags": {"amenity": "cafe", "cuisine": "patisserie_fran\u00e7aise;patisserie_andalouse;boulanger"}}, {"type": "node", "id": 9350671874, "lat": 37.3878694, "lon": -5.9745354, "tags": {"shop": "supermarket"}}, {"type": "node", "id": 9510891115, "lat": 37.3847705, "lon": -5.9731611, "tags": {"addr:city": "Sevilla", "addr:postcode": "41005", "addr:street": "Avenida Luis de Morales", "amenity": "cafe", "contact:instagram": "https://www.instagram.com/laperita_coffeebakery/", "name": "La Perita", "outdoor_seating": "yes", "website": "https://laperita.com/"}}, {"type": "node", "id": 9608350243, "lat": 37.3801671, "lon": -5.9744519, "tags": {"name": "Mas&Go", "shop": "convenience"}}, {"type": "node", "id": 9664783425, "lat": 37.3853815, "lon": -5.9781705, "tags": {"amenity": "restaurant", "cuisine": "sushi", "name": "L San"}}, {"type": "node", "id": 9664783426, "lat": 37.3788487, "lon": -5.9788163, "tags": {"amenity": "restaurant", "cuisine": "sushi", "name": "UDON"}}, {"type": "node", "id": 9902453997, "lat": 37.3716834, "lon": -5.9836435, "tags": {"amenity": "cafe", "name": "La Zalea"}}, {"type": "node", "id": 9902476482, "lat": 37.3717743, "lon": -5.9835477, "tags": {"amenity": "cafe", "name": "Mascarpone"}}, {"type": "node", "id": 9902476483, "lat": 37.3717782, "lon": -5.9805209, "tags": {"amenity": "restaurant", "cuisine": "indian", "name": "Bollywood"}}, {"type": "node", "id": 9902503152, "lat": 37.3717614, "lon": -5.9844235, "tags": {"amenity": "restaurant", "name": "Plato Plat\u00f3"}}, {"type": "node", "id": 9972338473, "lat": 37.3772775, "lon": -5.9760802, "tags": {"addr:city": "Sevilla", "addr:street": "Avenida de Ram\u00f3n y Cajal", "amenity": "bar", "name": "El Pellizco"}}, {"type": "way", "id": 45110575, "nodes": [571957697, 4903684053, 3368098755, 4903684074, 3368098756, 4903684072, 3368098754, 4903684075, 3368098753, 571957686, 4903684073, 4903684081, 4903684082, 4903684078, 4903684080, 571957680, 4903684070, 4903684071, 3368098758, 4903684086, 4903684084, 3368098757, 3368098761, 3368098762, 571957699, 571957700, 571957702, 571957697], "tags": {"source": "bing"}}, {"type": "way", "id": 45110577, "nodes": [571957703, 571957704, 571957715, 571957713, 571957710, 571957711, 571957703], "tags": {"brand": "El Corte Ingl\u00e9s", "brand:wikidata": "Q623133", "brand:wikipedia": "en:El Corte Ingl\u00e9s", "building": "commercial", "name": "El Corte Ingl\u00e9s", "shop": "department_store", "wheelchair": "yes"}}, {"type": "way", "id": 70610198, "nodes": [842633342, 868778426, 842633228, 2825994227, 842633394, 842633335, 868778349, 842633265, 842633192, 1184282337, 842633367, 842633342], "tags": {"building": "yes", "name": "Centro Comercial Viapol Center", "shop": "department_store", "wheelchair": "yes"}}, {"type": "way", "id": 70610219, "nodes": [842633467, 3717078205, 842633395, 842633279, 842633266, 842633194, 842633423, 573253953, 842633356, 4416244980, 842633236, 842633467], "tags": {"amenity": "restaurant", "building": "commercial", "name": "Cafeter\u00eda de la Facultad de Derecho"}}, {"type": "way", "id": 120225619, "nodes": [1348488654, 1348488817, 1348488752, 1348488924, 1348488654], "tags": {"amenity": "bar", "building": "commercial", "building:levels": "1", "name": "Bar Hermanos Gomez"}}, {"type": "way", "id": 219450654, "nodes": [2286071237, 2286071236, 2286071234, 2286071235, 2286071237], "tags": {"amenity": "fast_food", "level": "0", "name": "Wings Factory", "source": "photograph"}}, {"type": "way", "id": 219450657, "nodes": [2286071225, 2286071230, 2286071229, 2286071227, 2286071225], "tags": {"amenity": "bar", "level": "0", "source": "photograph"}}, {"type": "way", "id": 219450658, "nodes": [2286071225, 2286071227, 2286071221, 2286071223, 2286071225], "tags": {"amenity": "bar", "level": "0", "source": "photograph"}}, {"type": "way", "id": 237277463, "nodes": [2452038324, 2452038323, 2452038315, 2452038317, 2452038324], "tags": {"shop": "kiosk", "source": "ide.Sevilla", "source:date": "2011"}}, {"type": "way", "id": 237277464, "nodes": [2452038291, 2452038289, 2452038285, 2452038287, 2452038291], "tags": {"shop": "kiosk", "source": "ide.Sevilla", "source:date": "2011"}}, {"type": "way", "id": 367860866, "nodes": [3717354841, 3717354843, 3717354842, 3717354840, 3717354841], "tags": {"amenity": "bar", "building": "commercial", "name": "Bar QCross", "outdoor_seating": "yes"}}, {"type": "way", "id": 377733262, "nodes": [3811285796, 3811285795, 3811285801, 3811285805, 3811285796], "tags": {"amenity": "restaurant", "building": "commercial", "building:levels": "2", "cuisine": "japanese", "name": "You Sushi"}}, {"type": "way", "id": 498532063, "nodes": [4899293873, 4899293874, 4899293875, 4899293876, 4899293877, 4899293859, 4899293860, 4899293861, 4899293862, 4899293867, 4899293868, 4899293869, 4899293870, 4899293871, 4899293872, 4899293863, 4899293864, 4899293865, 4899293866, 4899293873], "tags": {"area": "yes", "highway": "pedestrian", "surface": "paved"}}, {"type": "way", "id": 627269604, "nodes": [5921527144, 5921527145, 5921527146, 5921527147, 5921527144], "tags": {"amenity": "bar", "building": "yes"}}, {"type": "way", "id": 809854434, "nodes": [7571654709, 7571654710, 7571654711, 7571654712, 7571654713, 7571654709], "tags": {"addr:city": "Sevilla", "addr:street": "Calle Luis Cadarso", "building": "yes", "shop": "kiosk"}}, {"type": "relation", "id": 7319942, "members": [{"type": "way", "ref": 45110575, "role": "outer"}, {"type": "way", "ref": 498532063, "role": "inner"}], "tags": {"addr:city": "Sevilla", "addr:housenumber": "3", "addr:postcode": "41005", "addr:street": "Avenida Luis de Morales", "building": "retail", "name": "Centro Comercial Nervi\u00f3n Plaza", "opening_hours": "Mo-Su 09:00-01:00", "phone": "+34 954 98 91 31", "shop": "mall", "start_date": "1998-03-18", "type": "multipolygon", "website": "https://www.nervionplaza.com/", "wheelchair": "yes"}}]}